{"Shape":[[4.370457,51.83588],[4.370462,51.83586],[4.368702,51.83578],[4.367727,51.83575],[4.367046,51.8357],[4.367049,51.83558],[4.367056,51.83533],[4.367445,51.83514],[4.368117,51.83483],[4.367445,51.83514],[4.367056,51.83533],[4.367049,51.83558],[4.367046,51.8357],[4.366899,51.83581],[4.366675,51.83588],[4.366416,51.83591],[4.366209,51.83587],[4.365995,51.83579],[4.365858,51.83567],[4.365098,51.83566],[4.364598,51.83564],[4.3645,51.8348],[4.364818,51.83464],[4.3645,51.8348],[4.364598,51.83564],[4.363756,51.83563],[4.363647,51.83459],[4.363661,51.83393],[4.363647,51.83459],[4.363756,51.83563],[4.363699,51.83563],[4.363351,51.83562],[4.363294,51.83529],[4.363256,51.83514],[4.362886,51.83512],[4.362876,51.8352],[4.362886,51.83512],[4.363256,51.83514],[4.363294,51.83529],[4.363351,51.83562],[4.362383,51.8356],[4.362183,51.8356],[4.362249,51.83609],[4.362183,51.8356],[4.362,51.83559],[4.36209,51.83628],[4.362113,51.83641],[4.362199,51.83688],[4.362391,51.8378],[4.362199,51.83688],[4.362395,51.83686],[4.362588,51.83685],[4.362637,51.83716],[4.362693,51.83744],[4.362755,51.83772],[4.362759,51.83774],[4.362813,51.83805],[4.362897,51.83831],[4.362933,51.83848],[4.363002,51.83858],[4.36314,51.83867],[4.363311,51.83872],[4.363814,51.83873],[4.364505,51.83876],[4.364714,51.83876],[4.36481,51.83882],[4.366362,51.83887],[4.367903,51.83892],[4.366362,51.83887],[4.36481,51.83882],[4.364714,51.83876],[4.364704,51.83848],[4.36464,51.83818],[4.364522,51.83761],[4.365499,51.83763],[4.365944,51.83764],[4.365939,51.8376],[4.365883,51.83719],[4.365823,51.83672],[4.36506,51.8367],[4.365064,51.8366],[4.365098,51.83566],[4.365858,51.83567],[4.365995,51.83579],[4.366209,51.83587],[4.366416,51.83591],[4.366599,51.83589],[4.366675,51.83588],[4.366899,51.83581],[4.367046,51.8357],[4.367727,51.83575],[4.367617,51.8368],[4.368389,51.83685],[4.368356,51.83699],[4.368389,51.83685],[4.368972,51.8369],[4.370177,51.83698],[4.370038,51.8376],[4.370005,51.83772],[4.369893,51.83816],[4.370094,51.83818],[4.36999,51.83858],[4.370255,51.83857],[4.370311,51.83854],[4.370436,51.83859],[4.370712,51.83867],[4.37106,51.83872],[4.371407,51.83873],[4.3717,51.83871],[4.372097,51.83863],[4.372175,51.83837],[4.372507,51.8371],[4.372175,51.83837],[4.372097,51.83863],[4.3717,51.83871],[4.371407,51.83873],[4.371304,51.83873],[4.37106,51.83872],[4.370712,51.83867],[4.370436,51.83859],[4.370311,51.83854],[4.370255,51.83857],[4.36999,51.83858],[4.370094,51.83818],[4.370241,51.83762],[4.3704,51.837],[4.370615,51.83702],[4.370728,51.8366],[4.370763,51.83647],[4.370826,51.8362],[4.370903,51.83588],[4.370893,51.83534],[4.370876,51.83529],[4.370724,51.83487],[4.370527,51.83491],[4.370261,51.83447],[4.369798,51.83403],[4.369626,51.83411],[4.369594,51.83409],[4.369088,51.83369],[4.368303,51.83408],[4.367658,51.83384],[4.367596,51.83383],[4.366846,51.83372],[4.365999,51.83372],[4.365982,51.83362],[4.365887,51.8331],[4.365628,51.83289],[4.365505,51.83278],[4.365041,51.83299],[4.363766,51.83361],[4.363334,51.83386],[4.363196,51.83397],[4.362961,51.83414],[4.362716,51.8344],[4.36259,51.83456],[4.362263,51.83449],[4.36189,51.8344],[4.361663,51.83434],[4.36149,51.8343],[4.361216,51.83426],[4.360715,51.83423],[4.360428,51.83422],[4.359982,51.83422],[4.359355,51.83421],[4.359239,51.83422],[4.359233,51.8341],[4.359243,51.83399],[4.3593,51.8334],[4.359339,51.8329],[4.358464,51.83288],[4.3575,51.83284],[4.357482,51.83284],[4.35673,51.83325],[4.355743,51.83256],[4.355672,51.83251],[4.35604,51.83231],[4.356162,51.83229],[4.356239,51.83227],[4.356392,51.83227],[4.356502,51.83228],[4.3567,51.8323],[4.357197,51.83241],[4.357409,51.83244],[4.357605,51.83242],[4.358144,51.83232],[4.358191,51.8318],[4.358144,51.83232],[4.357605,51.83242],[4.357409,51.83244],[4.357197,51.83241],[4.3567,51.8323],[4.356392,51.83227],[4.356239,51.83227],[4.356162,51.83229],[4.356112,51.83237],[4.355743,51.83256],[4.355162,51.83287],[4.355031,51.83289],[4.354982,51.83286],[4.354829,51.83276],[4.354083,51.83223],[4.354129,51.83141],[4.354129,51.83141],[4.354129,51.83141],[4.354083,51.83223],[4.354829,51.83276],[4.354982,51.83286],[4.354767,51.83298],[4.35451,51.83318],[4.354292,51.8333],[4.353833,51.83347],[4.353737,51.83353],[4.353667,51.83348],[4.35358,51.83342],[4.353667,51.83348],[4.353737,51.83353],[4.354132,51.83377],[4.354263,51.83387],[4.354307,51.83396],[4.35489,51.83435],[4.355624,51.83485],[4.355773,51.83496],[4.356078,51.83521],[4.35621,51.83526],[4.356272,51.83529],[4.355987,51.83555],[4.35576,51.83582],[4.355609,51.83604],[4.355457,51.83633],[4.355386,51.83657],[4.355343,51.83685],[4.355342,51.8371],[4.355372,51.83736],[4.355278,51.83736],[4.355132,51.83736],[4.355262,51.83775],[4.355442,51.83807],[4.355744,51.83854],[4.355442,51.83807],[4.354567,51.83827],[4.354431,51.83799],[4.354358,51.83789],[4.354114,51.83788],[4.353674,51.83787],[4.353401,51.83786],[4.3535,51.83787],[4.353674,51.83787],[4.354114,51.83788],[4.354358,51.83789],[4.354431,51.83799],[4.354567,51.83827],[4.354502,51.83861],[4.354394,51.83879],[4.354266,51.83889],[4.353954,51.83899],[4.353641,51.83902],[4.353499,51.83899],[4.353641,51.83902],[4.353954,51.83899],[4.354266,51.83889],[4.354394,51.83879],[4.354502,51.83861],[4.354567,51.83827],[4.355442,51.83807],[4.355262,51.83775],[4.355132,51.83736],[4.355278,51.83736],[4.355234,51.83709],[4.355247,51.83684],[4.355299,51.83657],[4.355383,51.83632],[4.355241,51.83632],[4.355292,51.83623],[4.355379,51.83607],[4.355661,51.83566],[4.356078,51.83521],[4.355773,51.83496],[4.35603,51.8348],[4.356064,51.83468],[4.356438,51.83448],[4.356064,51.83468],[4.35603,51.8348],[4.355773,51.83496],[4.355624,51.83485],[4.35489,51.83435],[4.354862,51.83434],[4.35489,51.83435],[4.355624,51.83485],[4.354878,51.83525],[4.354701,51.83535],[4.3546,51.83545],[4.354561,51.83556],[4.354558,51.8356],[4.354549,51.83569],[4.354496,51.83628],[4.353416,51.83625],[4.3527,51.83624],[4.353416,51.83625],[4.354496,51.83628],[4.354723,51.8363],[4.355241,51.83632],[4.355383,51.83632],[4.355457,51.83633],[4.355386,51.83657],[4.355343,51.83685],[4.355342,51.8371],[4.355372,51.83736],[4.355278,51.83736],[4.355132,51.83736],[4.355149,51.83741],[4.355262,51.83775],[4.355442,51.83807],[4.355865,51.83872],[4.356054,51.83867],[4.356521,51.83856],[4.356604,51.83854],[4.357304,51.83856],[4.357405,51.83851],[4.35744,51.83802],[4.3567,51.838],[4.35744,51.83802],[4.357405,51.83851],[4.358305,51.83854],[4.359207,51.83857],[4.359298,51.83863],[4.359503,51.83864],[4.359298,51.83863],[4.359207,51.83857],[4.359249,51.83808],[4.359304,51.83751],[4.359346,51.83698],[4.359298,51.83698],[4.359236,51.83698],[4.358706,51.83696],[4.358421,51.83695],[4.357599,51.83693],[4.357536,51.83692],[4.357581,51.83673],[4.357645,51.83656],[4.357912,51.83622],[4.358304,51.83594],[4.358778,51.83574],[4.358798,51.83573],[4.359371,51.83561],[4.359545,51.83559],[4.359909,51.83559],[4.360006,51.83558],[4.360041,51.83551],[4.359956,51.83451],[4.359963,51.83443],[4.359982,51.83422],[4.360428,51.83422],[4.360715,51.83423],[4.361216,51.83426],[4.36149,51.8343],[4.361445,51.8344],[4.361368,51.83445],[4.361287,51.83451],[4.361287,51.83468],[4.361362,51.83472],[4.361629,51.83485],[4.36163,51.83494],[4.361629,51.83485],[4.361362,51.83472],[4.361287,51.83468],[4.361287,51.83451],[4.361368,51.83445],[4.361445,51.8344],[4.36149,51.8343],[4.361663,51.83434],[4.36189,51.8344],[4.362263,51.83449],[4.36259,51.83456],[4.362716,51.8344],[4.362961,51.83414],[4.363196,51.83397],[4.363072,51.8339],[4.362954,51.83384],[4.362914,51.83384],[4.362954,51.83384],[4.363072,51.8339],[4.363196,51.83397],[4.363334,51.83386],[4.363766,51.83361],[4.365041,51.83299],[4.365505,51.83278],[4.365628,51.83289],[4.366334,51.83255],[4.366681,51.83285],[4.3668,51.83321],[4.366941,51.83331],[4.367129,51.83322],[4.367483,51.83282],[4.367792,51.83266],[4.367764,51.83264],[4.367792,51.83266],[4.368437,51.83317],[4.369088,51.83369],[4.369626,51.83411],[4.369798,51.83403],[4.369971,51.83395],[4.369474,51.83356],[4.369341,51.83345],[4.368838,51.83305],[4.368187,51.83253],[4.368289,51.83248],[4.368187,51.83253],[4.368838,51.83305],[4.369474,51.83356],[4.369971,51.83395],[4.369798,51.83403],[4.370261,51.83447],[4.370527,51.83491],[4.370679,51.83535],[4.370678,51.83587],[4.370462,51.83586],[4.370457,51.83588]],"ShapeMeta":[{"Shape":0,"Attributes":{"profile":"car"}},{"Shape":1,"Attributes":{"name":"Beb Vuykstraat","highway":"residential","maxspeed":"30","profile":"car","distance":"2.571081","time":"0.411373"}},{"Shape":2,"Attributes":{"name":"Sientje Mesdag-van Houtenstraat","highway":"residential","maxspeed":"30","profile":"car","distance":"123.7711","time":"19.80337"}},{"Shape":3,"Attributes":{"name":"Sientje Mesdag-van Houtenstraat","highway":"residential","maxspeed":"30","profile":"car","distance":"190.7711","time":"30.52337"}},{"Shape":4,"Attributes":{"name":"Sientje Mesdag-van Houtenstraat","highway":"residential","maxspeed":"30","profile":"car","distance":"237.7711","time":"38.04337"}},{"Shape":8,"Attributes":{"name":"Martina Kramersstraat","highway":"residential","maxspeed":"30","profile":"car","distance":"371.1319","time":"59.3811"}},{"Shape":12,"Attributes":{"name":"Martina Kramersstraat","highway":"residential","maxspeed":"30","profile":"car","distance":"504.4927","time":"260.7188"}},{"Shape":15,"Attributes":{"name":"Sientje Mesdag-van Houtenstraat","highway":"residential","maxspeed":"30","profile":"car","distance":"555.1927","time":"268.8308"}},{"Shape":18,"Attributes":{"name":"Sientje Mesdag-van Houtenstraat","highway":"residential","maxspeed":"30","profile":"car","distance":"603.8927","time":"276.6228"}},{"Shape":19,"Attributes":{"name":"Sientje Mesdag-van Houtenstraat","highway":"residential","maxspeed":"30","profile":"car","distance":"656.0927","time":"284.9748"}},{"Shape":20,"Attributes":{"name":"Sientje Mesdag-van Houtenstraat","highway":"residential","maxspeed":"30","profile":"car","distance":"690.3927","time":"290.4628"}},{"Shape":22,"Attributes":{"name":"Harriët Freezerstraat","highway":"residential","maxspeed":"30","profile":"car","distance":"812.6184","time":"310.0189"}},{"Shape":24,"Attributes":{"name":"Harriët Freezerstraat","highway":"residential","maxspeed":"30","profile":"car","distance":"934.8441","time":"509.575"}},{"Shape":25,"Attributes":{"name":"Sientje Mesdag-van Houtenstraat","highway":"residential","maxspeed":"30","profile":"car","distance":"992.6441","time":"518.823"}},{"Shape":27,"Attributes":{"name":"Henriëtte van der Meijstraat","highway":"residential","maxspeed":"30","profile":"car","distance":"1182.077","time":"549.1322"}},{"Shape":29,"Attributes":{"name":"Henriëtte van der Meijstraat","highway":"residential","maxspeed":"30","profile":"car","distance":"1371.51","time":"759.4414"}},{"Shape":30,"Attributes":{"name":"Sientje Mesdag-van Houtenstraat","highway":"residential","maxspeed":"30","profile":"car","distance":"1375.381","time":"760.0609"}},{"Shape":31,"Attributes":{"name":"Sientje Mesdag-van Houtenstraat","highway":"residential","maxspeed":"30","profile":"car","distance":"1399.31","time":"943.8894"}},{"Shape":32,"Attributes":{"name":"Lizzy Ansinghstraat","highway":"unclassified","maxspeed":"30","profile":"car","distance":"1436.81","time":"949.8894"}},{"Shape":33,"Attributes":{"name":"Lizzy Ansinghstraat","highway":"unclassified","maxspeed":"30","profile":"car","distance":"1453.51","time":"952.5614"}},{"Shape":35,"Attributes":{"name":"Lizzy Ansinghstraat","highway":"unclassified","maxspeed":"30","profile":"car","distance":"1487.03","time":"957.9246"}},{"Shape":37,"Attributes":{"name":"Lizzy Ansinghstraat","highway":"unclassified","maxspeed":"30","profile":"car","distance":"1520.55","time":"1143.288"}},{"Shape":38,"Attributes":{"name":"Lizzy Ansinghstraat","highway":"unclassified","maxspeed":"30","profile":"car","distance":"1537.25","time":"1145.96"}},{"Shape":39,"Attributes":{"name":"Lizzy Ansinghstraat","highway":"unclassified","maxspeed":"30","profile":"car","distance":"1574.75","time":"1151.96"}},{"Shape":40,"Attributes":{"name":"Sientje Mesdag-van Houtenstraat","highway":"residential","maxspeed":"30","profile":"car","distance":"1641.25","time":"1162.6"}},{"Shape":41,"Attributes":{"name":"Sientje Mesdag-van Houtenstraat","highway":"residential","maxspeed":"30","profile":"car","distance":"1654.95","time":"1164.792"}},{"Shape":42,"Attributes":{"name":"Annie Romein-Verschoorlaan","maxspeed":"50","highway":"tertiary","profile":"car","distance":"1709.852","time":"1170.063"}},{"Shape":43,"Attributes":{"name":"Annie Romein-Verschoorlaan","maxspeed":"50","highway":"tertiary","profile":"car","distance":"1764.754","time":"1355.334"}},{"Shape":44,"Attributes":{"name":"Marie van Regteren Altenastraat","highway":"residential","maxspeed":"30","profile":"car","distance":"1777.254","time":"1357.334"}},{"Shape":46,"Attributes":{"name":"Margaretha Roosenboomstraat","highway":"residential","maxspeed":"30","profile":"car","distance":"1867.883","time":"1371.834"}},{"Shape":47,"Attributes":{"name":"Margaretha Roosenboomstraat","highway":"residential","maxspeed":"30","profile":"car","distance":"1920.354","time":"1560.229"}},{"Shape":48,"Attributes":{"name":"Ida Wassermanstraat","highway":"residential","maxspeed":"30","profile":"car","distance":"2023.76","time":"1576.774"}},{"Shape":49,"Attributes":{"name":"Ida Wassermanstraat","highway":"residential","maxspeed":"30","profile":"car","distance":"2127.166","time":"1773.319"}},{"Shape":50,"Attributes":{"name":"Mimi Boesnachstraat","highway":"residential","maxspeed":"30","profile":"car","distance":"2140.666","time":"1775.479"}},{"Shape":51,"Attributes":{"name":"Theo Mann-Bouwmeesterstraat","highway":"residential","maxspeed":"30","profile":"car","distance":"2154.066","time":"1777.623"}},{"Shape":52,"Attributes":{"name":"Maria Kleine-Gartmanstraat","highway":"residential","maxspeed":"30","profile":"car","distance":"2189.366","time":"1783.271"}},{"Shape":53,"Attributes":{"name":"Maria Kleine-Gartmanstraat","highway":"residential","maxspeed":"30","profile":"car","distance":"2220.966","time":"1788.327"}},{"Shape":54,"Attributes":{"name":"Maria Kleine-Gartmanstraat","highway":"residential","maxspeed":"30","profile":"car","distance":"2252.166","time":"1793.319"}},{"Shape":55,"Attributes":{"name":"Maria Kleine-Gartmanstraat","highway":"residential","maxspeed":"30","profile":"car","distance":"2254.298","time":"1793.66"}},{"Shape":56,"Attributes":{"name":"Maria Kleine-Gartmanstraat","highway":"residential","maxspeed":"30","profile":"car","distance":"2288.365","time":"1979.111"}},{"Shape":57,"Attributes":{"name":"Maria Kleine-Gartmanstraat","highway":"residential","maxspeed":"30","profile":"car","distance":"2318.565","time":"1983.943"}},{"Shape":62,"Attributes":{"name":"Maria Kleine-Gartmanstraat","highway":"residential","maxspeed":"30","profile":"car","distance":"2410.565","time":"1998.663"}},{"Shape":63,"Attributes":{"name":"Maria Kleine-Gartmanstraat","highway":"residential","maxspeed":"30","profile":"car","distance":"2458.094","time":"2006.267"}},{"Shape":64,"Attributes":{"name":"Maria Kleine-Gartmanstraat","highway":"residential","maxspeed":"30","profile":"car","distance":"2472.466","time":"2188.567"}},{"Shape":67,"Attributes":{"name":"Maria Kleine-Gartmanstraat","highway":"residential","maxspeed":"30","profile":"car","distance":"2694.398","time":"2224.076"}},{"Shape":70,"Attributes":{"name":"Maria Kleine-Gartmanstraat","highway":"residential","maxspeed":"30","profile":"car","distance":"2916.33","time":"2439.585"}},{"Shape":71,"Attributes":{"name":"Esther de Boer-van Rijkstraat","highway":"residential","maxspeed":"30","profile":"car","distance":"2947.63","time":"2444.593"}},{"Shape":72,"Attributes":{"name":"Esther de Boer-van Rijkstraat","highway":"residential","maxspeed":"30","profile":"car","distance":"2981.83","time":"2450.065"}},{"Shape":73,"Attributes":{"name":"Esther de Boer-van Rijkstraat","highway":"residential","maxspeed":"30","profile":"car","distance":"3045.13","time":"2460.193"}},{"Shape":74,"Attributes":{"name":"Josephine van Gasterenstraat","highway":"residential","maxspeed":"30","profile":"car","distance":"3112.229","time":"2470.929"}},{"Shape":75,"Attributes":{"name":"Josephine van Gasterenstraat","highway":"residential","maxspeed":"30","profile":"car","distance":"3142.729","time":"2475.809"}},{"Shape":76,"Attributes":{"name":"Corrie Vonkplantsoen","highway":"residential","maxspeed":"30","profile":"car","distance":"3146.553","time":"2476.421"}},{"Shape":78,"Attributes":{"name":"Corrie Vonkplantsoen","highway":"residential","maxspeed":"30","profile":"car","distance":"3245.63","time":"2672.273"}},{"Shape":79,"Attributes":{"name":"Theo Mann-Bouwmeesterstraat","highway":"residential","maxspeed":"30","profile":"car","distance":"3298.03","time":"2680.657"}},{"Shape":80,"Attributes":{"name":"Suze Robertsonstraat","highway":"residential","maxspeed":"30","profile":"car","distance":"3308.635","time":"2682.354"}},{"Shape":81,"Attributes":{"name":"Suze Robertsonstraat","highway":"residential","maxspeed":"30","profile":"car","distance":"3413.83","time":"2879.185"}},{"Shape":82,"Attributes":{"name":"Sientje Mesdag-van Houtenstraat","highway":"residential","maxspeed":"30","profile":"car","distance":"3466.03","time":"2887.537"}},{"Shape":85,"Attributes":{"name":"Sientje Mesdag-van Houtenstraat","highway":"residential","maxspeed":"30","profile":"car","distance":"3514.729","time":"2895.329"}},{"Shape":86,"Attributes":{"name":"Sientje Mesdag-van Houtenstraat","highway":"residential","maxspeed":"30","profile":"car","distance":"3527.437","time":"2897.362"}},{"Shape":89,"Attributes":{"name":"Sientje Mesdag-van Houtenstraat","highway":"residential","maxspeed":"30","profile":"car","distance":"3565.43","time":"3083.441"}},{"Shape":90,"Attributes":{"name":"Sientje Mesdag-van Houtenstraat","highway":"residential","maxspeed":"30","profile":"car","distance":"3612.43","time":"3090.961"}},{"Shape":91,"Attributes":{"name":"Rosa Spierstraat","highway":"residential","maxspeed":"30","profile":"car","distance":"3729.23","time":"3109.649"}},{"Shape":92,"Attributes":{"name":"Theo Mann-Bouwmeesterstraat","highway":"residential","maxspeed":"30","profile":"car","distance":"3782.63","time":"3118.193"}},{"Shape":93,"Attributes":{"name":"Top Naeffstraat","highway":"residential","maxspeed":"30","profile":"car","distance":"3798.05","time":"3120.66"}},{"Shape":94,"Attributes":{"name":"Top Naeffstraat","highway":"residential","maxspeed":"30","profile":"car","distance":"3813.47","time":"3303.127"}},{"Shape":96,"Attributes":{"name":"Theo Mann-Bouwmeesterstraat","highway":"residential","maxspeed":"30","profile":"car","distance":"3936.97","time":"3322.887"}},{"Shape":97,"Attributes":{"name":"Beb Vuykstraat","highway":"residential","maxspeed":"30","profile":"car","distance":"4006.67","time":"3334.039"}},{"Shape":98,"Attributes":{"name":"Beb Vuykstraat","highway":"residential","maxspeed":"30","profile":"car","distance":"4020.83","time":"3336.305"}},{"Shape":99,"Attributes":{"name":"Beb Vuykstraat","highway":"residential","maxspeed":"30","profile":"car","distance":"4070.17","time":"3524.199"}},{"Shape":100,"Attributes":{"name":"Maria Tesselschadestraat","highway":"residential","maxspeed":"30","profile":"car","distance":"4084.17","time":"3526.439"}},{"Shape":101,"Attributes":{"name":"Geertruida Bosboom-Toussaintlaan","maxspeed":"50","highway":"tertiary","profile":"car","distance":"4128.77","time":"3530.721"}},{"Shape":103,"Attributes":{"name":"Henriëtte Roland Holststraat","highway":"residential","maxspeed":"30","profile":"car","distance":"4151.87","time":"3534.417"}},{"Shape":109,"Attributes":{"name":"Henriëtte Roland Holststraat","highway":"residential","maxspeed":"30","profile":"car","distance":"4280.17","time":"3554.945"}},{"Shape":111,"Attributes":{"name":"Lange Groeneweg","highway":"residential","maxspeed":"30","profile":"car","distance":"4452.152","time":"3582.462"}},{"Shape":113,"Attributes":{"name":"Lange Groeneweg","highway":"residential","maxspeed":"30","profile":"car","distance":"4624.134","time":"3789.979"}},{"Shape":116,"Attributes":{"name":"Henriëtte Roland Holststraat","highway":"residential","maxspeed":"30","profile":"car","distance":"4680.113","time":"3798.936"}},{"Shape":120,"Attributes":{"name":"Henriëtte Roland Holststraat","highway":"residential","maxspeed":"30","profile":"car","distance":"4752.434","time":"3990.507"}},{"Shape":122,"Attributes":{"name":"Henriëtte Roland Holststraat","highway":"residential","maxspeed":"30","profile":"car","distance":"4775.533","time":"3994.203"}},{"Shape":123,"Attributes":{"name":"Geertruida Bosboom-Toussaintlaan","maxspeed":"50","highway":"tertiary","profile":"car","distance":"4820.133","time":"3998.485"}},{"Shape":124,"Attributes":{"name":"Geertruida Bosboom-Toussaintlaan","maxspeed":"50","highway":"tertiary","profile":"car","distance":"4884.119","time":"4004.628"}},{"Shape":125,"Attributes":{"name":"Geertruida Bosboom-Toussaintlaan","maxspeed":"50","highway":"tertiary","profile":"car","distance":"4953.233","time":"4191.262"}},{"Shape":126,"Attributes":{"name":"Theo Mann-Bouwmeesterstraat","highway":"residential","maxspeed":"30","profile":"car","distance":"4968.133","time":"4193.646"}},{"Shape":127,"Attributes":{"name":"Else van der Banstraat","highway":"residential","maxspeed":"30","profile":"car","distance":"5016.25","time":"4201.345"}},{"Shape":128,"Attributes":{"name":"Else van der Banstraat","highway":"residential","maxspeed":"30","profile":"car","distance":"5030.833","time":"4383.678"}},{"Shape":130,"Attributes":{"name":"Else van der Banstraat","highway":"residential","maxspeed":"30","profile":"car","distance":"5096.833","time":"4394.238"}},{"Shape":131,"Attributes":{"name":"Else van der Banstraat","highway":"residential","maxspeed":"30","profile":"car","distance":"5156.633","time":"4403.807"}},{"Shape":132,"Attributes":{"name":"Else van der Banstraat","highway":"residential","maxspeed":"30","profile":"car","distance":"5162.249","time":"4404.705"}},{"Shape":133,"Attributes":{"name":"Else van der Banstraat","highway":"residential","maxspeed":"30","profile":"car","distance":"5210.833","time":"4592.479"}},{"Shape":134,"Attributes":{"name":"Truus Schröderstraat","highway":"unclassified","maxspeed":"30","profile":"car","distance":"5225.133","time":"4594.767"}},{"Shape":136,"Attributes":{"name":"Geertruida Bosboom-Toussaintlaan","maxspeed":"50","highway":"tertiary","profile":"car","distance":"5335.033","time":"4605.317"}},{"Shape":137,"Attributes":{"name":"Belle van Zuylenstraat","highway":"residential","maxspeed":"30","profile":"car","distance":"5349.833","time":"4607.685"}},{"Shape":138,"Attributes":{"name":"Beb Vuykstraat","highway":"residential","maxspeed":"30","profile":"car","distance":"5353.378","time":"4608.252"}},{"Shape":139,"Attributes":{"name":"Beb Vuykstraat","highway":"residential","maxspeed":"30","profile":"car","distance":"5409.632","time":"4797.252"}},{"Shape":140,"Attributes":{"name":"Madelon Lulofsstraat","highway":"residential","maxspeed":"30","profile":"car","distance":"5478.732","time":"4808.309"}},{"Shape":141,"Attributes":{"name":"Madelon Lulofsstraat","highway":"residential","maxspeed":"30","profile":"car","distance":"5530.432","time":"4816.581"}},{"Shape":142,"Attributes":{"name":"Madelon Lulofsstraat","highway":"residential","maxspeed":"30","profile":"car","distance":"5534.803","time":"4817.28"}},{"Shape":143,"Attributes":{"name":"Madelon Lulofsstraat","highway":"residential","maxspeed":"30","profile":"car","distance":"5587.732","time":"5005.749"}},{"Shape":144,"Attributes":{"name":"Marie van Zeggelenstraat","highway":"residential","maxspeed":"30","profile":"car","distance":"5645.833","time":"5015.044"}},{"Shape":145,"Attributes":{"name":"Marie van Zeggelenstraat","highway":"residential","maxspeed":"30","profile":"car","distance":"5656.506","time":"5016.752"}},{"Shape":147,"Attributes":{"name":"Marie van Zeggelenstraat","highway":"residential","maxspeed":"30","profile":"car","distance":"5744.232","time":"5210.788"}},{"Shape":148,"Attributes":{"name":"Marie van Zeggelenstraat","highway":"residential","maxspeed":"30","profile":"car","distance":"5758.732","time":"5213.108"}},{"Shape":149,"Attributes":{"name":"Annie Romein-Verschoorlaan","maxspeed":"50","highway":"tertiary","profile":"car","distance":"5798.232","time":"5216.9"}},{"Shape":152,"Attributes":{"name":"Annie Romein-Verschoorlaan","maxspeed":"50","highway":"tertiary","profile":"car","distance":"5965.132","time":"5232.922"}},{"Shape":154,"Attributes":{"name":"Annie Romein-Verschoorlaan","maxspeed":"50","highway":"tertiary","profile":"car","distance":"6023.432","time":"5238.52"}},{"Shape":155,"Attributes":{"name":"Annie Romein-Verschoorlaan","maxspeed":"50","highway":"tertiary","profile":"car","distance":"6043.932","time":"5240.487"}},{"Shape":158,"Attributes":{"name":"Joke Smitlaan","maxspeed":"50","highway":"tertiary","profile":"car","distance":"6112.332","time":"5247.054"}},{"Shape":159,"Attributes":{"name":"Joke Smitlaan","maxspeed":"50","highway":"tertiary","profile":"car","distance":"6124.732","time":"5248.244"}},{"Shape":160,"Attributes":{"name":"Joke Smitlaan","maxspeed":"50","highway":"tertiary","profile":"car","distance":"6144.132","time":"5250.106"}},{"Shape":162,"Attributes":{"name":"Joke Smitlaan","maxspeed":"50","highway":"tertiary","profile":"car","distance":"6198.432","time":"5255.319"}},{"Shape":163,"Attributes":{"name":"Joke Smitlaan","maxspeed":"50","highway":"tertiary","profile":"car","distance":"6229.032","time":"5258.257"}},{"Shape":164,"Attributes":{"name":"Joke Smitlaan","maxspeed":"50","highway":"tertiary","profile":"car","distance":"6272.032","time":"5262.385"}},{"Shape":165,"Attributes":{"name":"Joke Smitlaan","maxspeed":"50","highway":"tertiary","profile":"car","distance":"6280.032","time":"5263.153"}},{"Shape":166,"Attributes":{"name":"Anne Frankstraat","highway":"residential","maxspeed":"30","profile":"car","distance":"6293.132","time":"5265.249"}},{"Shape":167,"Attributes":{"name":"Anne Frankstraat","highway":"residential","maxspeed":"30","profile":"car","distance":"6305.026","time":"5267.152"}},{"Shape":169,"Attributes":{"name":"Anne Frankstraat","highway":"residential","maxspeed":"30","profile":"car","distance":"6426.931","time":"5466.657"}},{"Shape":170,"Attributes":{"name":"Hannie Schaftstraat","highway":"residential","maxspeed":"30","profile":"car","distance":"6487.031","time":"5476.272"}},{"Shape":171,"Attributes":{"name":"Hannie Schaftstraat","highway":"residential","maxspeed":"30","profile":"car","distance":"6553.476","time":"5486.904"}},{"Shape":173,"Attributes":{"name":"Hannie Schaftstraat","highway":"residential","maxspeed":"30","profile":"car","distance":"6623.731","time":"5678.145"}},{"Shape":174,"Attributes":{"name":"Jacoba Pulskensstraat","highway":"residential","maxspeed":"30","profile":"car","distance":"6725.832","time":"5694.48"}},{"Shape":175,"Attributes":{"name":"Mia van der Wall-Duyvendakstraat","highway":"residential","maxspeed":"30","profile":"car","distance":"6733.131","time":"5695.649"}},{"Shape":177,"Attributes":{"name":"Mien Sneevliet-Draaijerstraat","highway":"residential","maxspeed":"30","oneway":"yes","profile":"car","distance":"6775.332","time":"5702.401"}},{"Shape":180,"Attributes":{"name":"Petronella Brugsmastraat","highway":"residential","maxspeed":"30","profile":"car","distance":"6799.397","time":"5706.251"}},{"Shape":186,"Attributes":{"name":"Petronella Brugsmastraat","highway":"residential","maxspeed":"30","profile":"car","distance":"6974.642","time":"5914.29"}},{"Shape":194,"Attributes":{"name":"Petronella Brugsmastraat","highway":"residential","maxspeed":"30","profile":"car","distance":"7173.953","time":"6126.18"}},{"Shape":196,"Attributes":{"name":"Mien Sneevliet-Draaijerstraat","highway":"residential","maxspeed":"30","oneway":"yes","profile":"car","distance":"7216.353","time":"6132.964"}},{"Shape":198,"Attributes":{"name":"Mien Sneevliet-Draaijerstraat","highway":"residential","maxspeed":"30","oneway":"yes","profile":"car","distance":"7278.353","time":"6142.884"}},{"Shape":199,"Attributes":{"name":"Etty Hillesumstraat","highway":"residential","maxspeed":"30","profile":"car","distance":"7283.353","time":"6143.684"}},{"Shape":203,"Attributes":{"name":"Etty Hillesumstraat","highway":"residential","maxspeed":"30","profile":"car","distance":"7467.831","time":"6173.2"}},{"Shape":207,"Attributes":{"name":"Etty Hillesumstraat","highway":"residential","maxspeed":"30","profile":"car","distance":"7652.309","time":"6382.717"}},{"Shape":212,"Attributes":{"name":"Mien Sneevliet-Draaijerstraat","highway":"residential","maxspeed":"30","profile":"car","distance":"7767.209","time":"6401.101"}},{"Shape":214,"Attributes":{"name":"Willemijn Posthumusstraat","highway":"residential","maxspeed":"30","profile":"car","distance":"7783.686","time":"6403.737"}},{"Shape":216,"Attributes":{"name":"Willemijn Posthumusstraat","highway":"residential","maxspeed":"30","profile":"car","distance":"7800.164","time":"6586.373"}},{"Shape":217,"Attributes":{"name":"Maria Doorman-Kielstrastraat","highway":"residential","maxspeed":"30","profile":"car","distance":"7838.164","time":"6592.453"}},{"Shape":219,"Attributes":{"name":"Maria Doorman-Kielstrastraat","highway":"residential","maxspeed":"30","profile":"car","distance":"7862.664","time":"6596.373"}},{"Shape":221,"Attributes":{"name":"Maria Doorman-Kielstrastraat","highway":"residential","maxspeed":"30","profile":"car","distance":"7996.264","time":"6617.749"}},{"Shape":222,"Attributes":{"name":"Maria Doorman-Kielstrastraat","highway":"residential","maxspeed":"30","profile":"car","distance":"8012.264","time":"6620.309"}},{"Shape":223,"Attributes":{"name":"Maria Doorman-Kielstrastraat","highway":"residential","maxspeed":"30","profile":"car","distance":"8046.764","time":"6625.829"}},{"Shape":224,"Attributes":{"name":"Maria Doorman-Kielstrastraat","highway":"residential","maxspeed":"30","profile":"car","distance":"8057.863","time":"6627.605"}},{"Shape":225,"Attributes":{"name":"Maria Doorman-Kielstrastraat","highway":"residential","maxspeed":"30","profile":"car","distance":"8062.963","time":"6628.421"}},{"Shape":229,"Attributes":{"name":"Joke Smitlaan","maxspeed":"50","highway":"tertiary","oneway":"yes","profile":"car","distance":"8192.264","time":"6640.834"}},{"Shape":233,"Attributes":{"name":"Joke Smitlaan","maxspeed":"50","highway":"tertiary","oneway":"yes","profile":"car","distance":"8306.964","time":"6651.845"}},{"Shape":234,"Attributes":{"name":"Wilhelmina Hofman-Pootstraat","highway":"residential","maxspeed":"30","profile":"car","distance":"8313.363","time":"6652.869"}},{"Shape":235,"Attributes":{"name":"Wilhelmina Hofman-Pootstraat","highway":"residential","maxspeed":"30","profile":"car","distance":"8323.363","time":"6654.469"}},{"Shape":237,"Attributes":{"name":"Suze Groenewegstraat","highway":"residential","maxspeed":"30","profile":"car","distance":"8404.363","time":"6667.429"}},{"Shape":238,"Attributes":{"name":"Suze Groenewegstraat","highway":"residential","maxspeed":"30","profile":"car","distance":"8460.455","time":"6676.404"}},{"Shape":239,"Attributes":{"name":"Suze Groenewegstraat","highway":"residential","maxspeed":"30","profile":"car","distance":"8516.546","time":"6865.378"}},{"Shape":240,"Attributes":{"name":"Johanna Engwirda-Agricolastraat","highway":"residential","maxspeed":"30","profile":"car","distance":"8580.846","time":"6875.667"}},{"Shape":243,"Attributes":{"name":"Johanna Engwirda-Agricolastraat","highway":"residential","maxspeed":"30","profile":"car","distance":"8642.446","time":"6885.522"}},{"Shape":244,"Attributes":{"name":"Johanna Engwirda-Agricolastraat","highway":"residential","maxspeed":"30","profile":"car","distance":"8672.646","time":"6890.354"}},{"Shape":245,"Attributes":{"name":"Johanna Engwirda-Agricolastraat","highway":"residential","maxspeed":"30","profile":"car","distance":"8691.405","time":"6893.356"}},{"Shape":246,"Attributes":{"name":"Johanna Engwirda-Agricolastraat","highway":"residential","maxspeed":"30","profile":"car","distance":"8698.22","time":"7074.446"}},{"Shape":247,"Attributes":{"name":"Johanna Engwirda-Agricolastraat","highway":"residential","maxspeed":"30","profile":"car","distance":"8710.164","time":"7256.357"}},{"Shape":248,"Attributes":{"name":"Johanna Engwirda-Agricolastraat","highway":"residential","maxspeed":"30","profile":"car","distance":"8740.364","time":"7261.189"}},{"Shape":251,"Attributes":{"name":"Johanna Engwirda-Agricolastraat","highway":"residential","maxspeed":"30","profile":"car","distance":"8801.964","time":"7271.045"}},{"Shape":257,"Attributes":{"name":"Johanna Engwirda-Agricolastraat","highway":"residential","maxspeed":"30","profile":"car","distance":"8931.269","time":"7291.733"}},{"Shape":263,"Attributes":{"name":"Johanna Engwirda-Agricolastraat","highway":"residential","maxspeed":"30","profile":"car","distance":"9060.573","time":"7492.421"}},{"Shape":264,"Attributes":{"name":"Johanna Engwirda-Agricolastraat","highway":"residential","maxspeed":"30","profile":"car","distance":"9124.873","time":"7502.709"}},{"Shape":266,"Attributes":{"name":"Suze Groenewegstraat","highway":"residential","maxspeed":"30","profile":"car","distance":"9205.873","time":"7515.669"}},{"Shape":267,"Attributes":{"name":"Wilhelmina Hofman-Pootstraat","highway":"residential","maxspeed":"30","profile":"car","distance":"9215.873","time":"7517.27"}},{"Shape":271,"Attributes":{"name":"Joke Smitlaan","maxspeed":"50","highway":"tertiary","oneway":"yes","profile":"car","distance":"9332.173","time":"7528.435"}},{"Shape":272,"Attributes":{"name":"Wilhelmina Druckerstraat","highway":"residential","maxspeed":"30","profile":"car","distance":"9341.873","time":"7529.986"}},{"Shape":273,"Attributes":{"name":"Mina Krusemanstraat","highway":"residential","maxspeed":"30","profile":"car","distance":"9352.596","time":"7531.702"}},{"Shape":276,"Attributes":{"name":"Mina Krusemanstraat","highway":"residential","maxspeed":"30","profile":"car","distance":"9478.773","time":"7731.891"}},{"Shape":277,"Attributes":{"name":"Maria Doorman-Kielstrastraat","highway":"residential","maxspeed":"30","profile":"car","distance":"9513.273","time":"7737.411"}},{"Shape":280,"Attributes":{"highway":"residential","maxspeed":"30","profile":"car","distance":"9585.748","time":"7749.006"}},{"Shape":283,"Attributes":{"highway":"residential","maxspeed":"30","profile":"car","distance":"9658.223","time":"7940.602"}},{"Shape":284,"Attributes":{"name":"Maria Doorman-Kielstrastraat","highway":"residential","maxspeed":"30","profile":"car","distance":"9674.223","time":"7943.162"}},{"Shape":286,"Attributes":{"name":"Maria Doorman-Kielstrastraat","highway":"residential","maxspeed":"30","profile":"car","distance":"9751.382","time":"7955.507"}},{"Shape":288,"Attributes":{"name":"Maria Doorman-Kielstrastraat","highway":"residential","maxspeed":"30","profile":"car","distance":"9828.541","time":"8147.853"}},{"Shape":289,"Attributes":{"name":"Roosje Vosstraat","highway":"residential","maxspeed":"30","profile":"car","distance":"9896.341","time":"8158.7"}},{"Shape":290,"Attributes":{"name":"Roosje Vosstraat","highway":"residential","maxspeed":"30","profile":"car","distance":"9912.741","time":"8161.324"}},{"Shape":293,"Attributes":{"name":"Roosje Vosstraat","highway":"residential","maxspeed":"30","profile":"car","distance":"9942.833","time":"8166.139"}},{"Shape":294,"Attributes":{"name":"Roosje Vosstraat","highway":"residential","maxspeed":"30","profile":"car","distance":"9953.441","time":"8347.836"}},{"Shape":295,"Attributes":{"name":"Roosje Vosstraat","highway":"residential","maxspeed":"30","profile":"car","distance":"10018.84","time":"8358.3"}},{"Shape":297,"Attributes":{"name":"Wilhelmina Druckerstraat","highway":"residential","maxspeed":"30","profile":"car","distance":"10142.25","time":"8378.045"}},{"Shape":299,"Attributes":{"name":"Wilhelmina Druckerstraat","highway":"residential","maxspeed":"30","profile":"car","distance":"10265.66","time":"8577.79"}},{"Shape":300,"Attributes":{"name":"Wilhelmina Druckerstraat","highway":"residential","maxspeed":"30","profile":"car","distance":"10281.26","time":"8580.286"}},{"Shape":301,"Attributes":{"name":"Wilhelmina Druckerstraat","highway":"residential","maxspeed":"30","profile":"car","distance":"10316.96","time":"8585.998"}},{"Shape":302,"Attributes":{"name":"Wilhelmina Druckerstraat","highway":"residential","maxspeed":"30","profile":"car","distance":"10326.66","time":"8587.55"}},{"Shape":303,"Attributes":{"name":"Wilhelmina Druckerstraat","highway":"residential","maxspeed":"30","profile":"car","distance":"10331.76","time":"8588.366"}},{"Shape":307,"Attributes":{"name":"Joke Smitlaan","maxspeed":"50","highway":"tertiary","oneway":"yes","profile":"car","distance":"10446.46","time":"8599.377"}},{"Shape":308,"Attributes":{"name":"Wilhelmina Hofman-Pootstraat","highway":"residential","maxspeed":"30","profile":"car","distance":"10452.86","time":"8600.401"}},{"Shape":309,"Attributes":{"name":"Wilhelmina Hofman-Pootstraat","highway":"residential","maxspeed":"30","profile":"car","distance":"10462.86","time":"8602.001"}},{"Shape":310,"Attributes":{"name":"Suze Groenewegstraat","highway":"residential","maxspeed":"30","profile":"car","distance":"10468.53","time":"8602.909"}},{"Shape":312,"Attributes":{"name":"Suze Groenewegstraat","highway":"residential","maxspeed":"30","profile":"car","distance":"10543.86","time":"8794.962"}},{"Shape":313,"Attributes":{"name":"Suze Groenewegstraat","highway":"residential","maxspeed":"30","profile":"car","distance":"10622.36","time":"8807.521"}},{"Shape":314,"Attributes":{"name":"Marga Klompéstraat","highway":"residential","maxspeed":"30","profile":"car","distance":"10636.36","time":"8809.762"}},{"Shape":318,"Attributes":{"name":"Aletta Jacobsstraat","highway":"residential","maxspeed":"30","profile":"car","distance":"10734.16","time":"8825.41"}},{"Shape":319,"Attributes":{"name":"Wilhelmina Bladergroenstraat","highway":"residential","maxspeed":"30","profile":"car","distance":"10788.46","time":"8834.098"}},{"Shape":320,"Attributes":{"name":"Catharina van Tussenbroekstraat","highway":"residential","maxspeed":"30","profile":"car","distance":"10839.32","time":"8842.235"}},{"Shape":321,"Attributes":{"name":"Catharina van Tussenbroekstraat","highway":"residential","maxspeed":"30","profile":"car","distance":"10890.18","time":"9030.373"}},{"Shape":322,"Attributes":{"name":"Wilhelmina Bladergroenstraat","highway":"residential","maxspeed":"30","profile":"car","distance":"10944.48","time":"9039.061"}},{"Shape":323,"Attributes":{"name":"Aletta Jacobsstraat","highway":"residential","maxspeed":"30","profile":"car","distance":"11006.28","time":"9048.949"}},{"Shape":324,"Attributes":{"name":"Aletta Jacobsstraat","highway":"residential","maxspeed":"30","profile":"car","distance":"11068.38","time":"9058.885"}},{"Shape":326,"Attributes":{"name":"Aletta Jacobsstraat","highway":"residential","maxspeed":"30","profile":"car","distance":"11091.38","time":"9062.564"}},{"Shape":328,"Attributes":{"name":"Aletta Jacobsstraat","highway":"residential","maxspeed":"30","profile":"car","distance":"11114.38","time":"9246.245"}},{"Shape":329,"Attributes":{"name":"Hélène Mercierstraat","highway":"residential","maxspeed":"30","profile":"car","distance":"11169.08","time":"9254.998"}},{"Shape":330,"Attributes":{"name":"Hélène Mercierstraat","highway":"residential","maxspeed":"30","profile":"car","distance":"11232.38","time":"9265.126"}},{"Shape":331,"Attributes":{"name":"Hélène Mercierstraat","highway":"residential","maxspeed":"30","profile":"car","distance":"11291.38","time":"9274.565"}},{"Shape":332,"Attributes":{"name":"Maria Rutgers-Hoitsemastraat","highway":"residential","maxspeed":"30","profile":"car","distance":"11294.7","time":"9275.097"}},{"Shape":335,"Attributes":{"name":"Maria Rutgers-Hoitsemastraat","highway":"residential","maxspeed":"30","profile":"car","distance":"11354.98","time":"9464.741"}},{"Shape":336,"Attributes":{"name":"Maria Rutgers-Hoitsemastraat","highway":"residential","maxspeed":"30","profile":"car","distance":"11411.54","time":"9473.79"}},{"Shape":337,"Attributes":{"name":"Maria Rutgers-Hoitsemastraat","highway":"residential","maxspeed":"30","profile":"car","distance":"11415.88","time":"9654.485"}},{"Shape":339,"Attributes":{"name":"Wilhelmina Bladergroenstraat","highway":"residential","maxspeed":"30","profile":"car","distance":"11456.88","time":"9661.045"}},{"Shape":340,"Attributes":{"name":"Wilhelmina Bladergroenstraat","highway":"residential","maxspeed":"30","profile":"car","distance":"11498.38","time":"9667.686"}},{"Shape":342,"Attributes":{"name":"Wilhelmina Bladergroenstraat","highway":"residential","maxspeed":"30","profile":"car","distance":"11579.29","time":"9680.63"}},{"Shape":343,"Attributes":{"name":"Wilhelmina Bladergroenstraat","highway":"residential","maxspeed":"30","profile":"car","distance":"11580.89","time":"10040.89"}},{"Shape":344,"Attributes":{"name":"Wilhelmina Bladergroenstraat","highway":"residential","maxspeed":"30","profile":"car","distance":"11622.59","time":"10047.56"}},{"Shape":347,"Attributes":{"name":"Wilhelmina Bladergroenstraat","highway":"residential","maxspeed":"30","profile":"car","distance":"11666.39","time":"10054.57"}},{"Shape":350,"Attributes":{"name":"Clara Visserstraat","highway":"residential","maxspeed":"30","profile":"car","distance":"11794.11","time":"10075"}},{"Shape":351,"Attributes":{"name":"Clara Visserstraat","highway":"residential","maxspeed":"30","profile":"car","distance":"11817.89","time":"10258.8"}},{"Shape":352,"Attributes":{"name":"Joke Smitlaan","maxspeed":"50","highway":"tertiary","profile":"car","distance":"11848.49","time":"10261.74"}},{"Shape":354,"Attributes":{"name":"Joke Smitlaan","maxspeed":"50","highway":"tertiary","profile":"car","distance":"11902.79","time":"10266.96"}},{"Shape":355,"Attributes":{"name":"Joke Smitlaan","maxspeed":"50","highway":"tertiary","profile":"car","distance":"11922.19","time":"10268.82"}},{"Shape":356,"Attributes":{"name":"Margaretha Roosenboomstraat","highway":"residential","profile":"car","distance":"11933.59","time":"10269.91"}},{"Shape":360,"Attributes":{"name":"Margaretha Roosenboomstraat","highway":"residential","profile":"car","distance":"11975.39","time":"10273.92"}},{"Shape":361,"Attributes":{"name":"Margaretha Roosenboomstraat","highway":"residential","profile":"car","distance":"11998.69","time":"10276.16"}},{"Shape":362,"Attributes":{"name":"Margaretha Roosenboomstraat","highway":"residential","profile":"car","distance":"12008.43","time":"10277.1"}},{"Shape":363,"Attributes":{"name":"Margaretha Roosenboomstraat","highway":"residential","profile":"car","distance":"12018.17","time":"10458.04"}},{"Shape":364,"Attributes":{"name":"Margaretha Roosenboomstraat","highway":"residential","profile":"car","distance":"12041.47","time":"10460.27"}},{"Shape":368,"Attributes":{"name":"Margaretha Roosenboomstraat","highway":"residential","profile":"car","distance":"12083.27","time":"10464.28"}},{"Shape":369,"Attributes":{"name":"Margaretha Roosenboomstraat","highway":"residential","profile":"car","distance":"12094.67","time":"10465.38"}},{"Shape":370,"Attributes":{"name":"Joke Smitlaan","maxspeed":"50","highway":"tertiary","profile":"car","distance":"12107.07","time":"10466.57"}},{"Shape":373,"Attributes":{"name":"Joke Smitlaan","maxspeed":"50","highway":"tertiary","profile":"car","distance":"12175.47","time":"10473.14"}},{"Shape":374,"Attributes":{"name":"Annie Romein-Verschoorlaan","maxspeed":"50","highway":"tertiary","profile":"car","distance":"12195.97","time":"10475.1"}},{"Shape":376,"Attributes":{"name":"Annie Romein-Verschoorlaan","maxspeed":"50","highway":"tertiary","profile":"car","distance":"12254.27","time":"10480.7"}},{"Shape":378,"Attributes":{"name":"Hadewychplaats","highway":"service","profile":"car","distance":"12275.97","time":"10484.17"}},{"Shape":379,"Attributes":{"name":"Ida Gerhardtplein","highway":"service","profile":"car","distance":"12278.71","time":"10484.61"}},{"Shape":380,"Attributes":{"name":"Ida Gerhardtplein","highway":"service","profile":"car","distance":"12281.45","time":"10665.05"}},{"Shape":382,"Attributes":{"name":"Hadewychplaats","highway":"service","profile":"car","distance":"12303.15","time":"10668.52"}},{"Shape":385,"Attributes":{"name":"Annie Romein-Verschoorlaan","maxspeed":"50","highway":"tertiary","profile":"car","distance":"12470.05","time":"10684.54"}},{"Shape":386,"Attributes":{"name":"Annie Romein-Verschoorlaan","maxspeed":"50","highway":"tertiary","profile":"car","distance":"12509.55","time":"10688.33"}},{"Shape":387,"Attributes":{"name":"Marie van Zeggelenstraat","highway":"residential","maxspeed":"30","profile":"car","distance":"12524.05","time":"10690.66"}},{"Shape":388,"Attributes":{"name":"Lucretia van Merkenstraat","highway":"residential","maxspeed":"30","profile":"car","distance":"12585.55","time":"10700.5"}},{"Shape":391,"Attributes":{"name":"Anke Servaesstraat","highway":"residential","maxspeed":"30","profile":"car","distance":"12681.75","time":"10715.89"}},{"Shape":394,"Attributes":{"name":"Anke Servaesstraat","highway":"residential","maxspeed":"30","profile":"car","distance":"12776.15","time":"10730.99"}},{"Shape":395,"Attributes":{"name":"Beb Vuykstraat","highway":"residential","maxspeed":"30","profile":"car","distance":"12779.26","time":"10731.49"}},{"Shape":396,"Attributes":{"name":"Beb Vuykstraat","highway":"residential","maxspeed":"30","profile":"car","distance":"12782.37","time":"10911.99"}},{"Shape":397,"Attributes":{"name":"Beb Vuykstraat","highway":"residential","maxspeed":"30","profile":"car","distance":"12854.47","time":"10923.52"}},{"Shape":398,"Attributes":{"name":"Beb Vuykstraat","highway":"residential","maxspeed":"30","profile":"car","distance":"12927.37","time":"10935.19"}},{"Shape":399,"Attributes":{"name":"Beb Vuykstraat","highway":"residential","maxspeed":"30","profile":"car","distance":"12987.17","time":"10944.76"}},{"Shape":400,"Attributes":{"name":"Belle van Zuylenstraat","highway":"residential","maxspeed":"30","profile":"car","distance":"13001.97","time":"10947.13"}},{"Shape":401,"Attributes":{"name":"Belle van Zuylenstraat","highway":"residential","maxspeed":"30","profile":"car","distance":"13017.07","time":"10949.54"}},{"Shape":402,"Attributes":{"name":"Else van der Banstraat","highway":"residential","maxspeed":"30","profile":"car","distance":"13072.47","time":"10958.4"}},{"Shape":403,"Attributes":{"name":"Else van der Banstraat","highway":"residential","maxspeed":"30","profile":"car","distance":"13087.33","time":"10960.78"}},{"Shape":404,"Attributes":{"name":"Else van der Banstraat","highway":"residential","maxspeed":"30","profile":"car","distance":"13143.77","time":"11149.81"}},{"Shape":405,"Attributes":{"name":"Else van der Banstraat","highway":"residential","maxspeed":"30","profile":"car","distance":"13216.67","time":"11161.48"}},{"Shape":406,"Attributes":{"name":"Hélène Swarthstraat","highway":"residential","maxspeed":"30","profile":"car","distance":"13225.5","time":"11162.89"}},{"Shape":407,"Attributes":{"name":"Hélène Swarthstraat","highway":"residential","maxspeed":"30","profile":"car","distance":"13234.32","time":"11344.3"}},{"Shape":408,"Attributes":{"name":"Else van der Banstraat","highway":"residential","maxspeed":"30","profile":"car","distance":"13307.22","time":"11355.96"}},{"Shape":409,"Attributes":{"name":"Else van der Banstraat","highway":"residential","maxspeed":"30","profile":"car","distance":"13378.52","time":"11367.37"}},{"Shape":410,"Attributes":{"name":"Else van der Banstraat","highway":"residential","maxspeed":"30","profile":"car","distance":"13433.92","time":"11376.24"}},{"Shape":411,"Attributes":{"name":"Belle van Zuylenstraat","highway":"residential","maxspeed":"30","profile":"car","distance":"13449.02","time":"11378.65"}},{"Shape":413,"Attributes":{"name":"Geertruida Bosboom-Toussaintlaan","maxspeed":"50","highway":"tertiary","profile":"car","distance":"13558.92","time":"11389.2"}},{"Shape":415,"Attributes":{"name":"Geertruida Bosboom-Toussaintlaan","maxspeed":"50","highway":"tertiary","profile":"car","distance":"13666.82","time":"11399.56"}},{"Shape":416,"Attributes":{"name":"Sientje Mesdag-van Houtenstraat","highway":"residential","maxspeed":"30","profile":"car","distance":"13681.62","time":"11401.93"}},{"Shape":417,"Attributes":{"name":"Beb Vuykstraat","highway":"residential","maxspeed":"30","profile":"car","distance":"13684.19","time":"11402.34"}}],"Stops":[{"Shape":0,"Coordinates":[4.3705,51.8359],"Attributes":{"index":"153","distance":"0","time":"0","cost_time":"180"}},{"Shape":8,"Coordinates":[4.3681,51.8348],"Attributes":{"index":"161","distance":"371.1319","time":"59.3811","cost_time":"180"}},{"Shape":22,"Coordinates":[4.3648,51.8346],"Attributes":{"index":"142","distance":"812.6184","time":"310.0189","cost_time":"180"}},{"Shape":27,"Coordinates":[4.36365,51.83393],"Attributes":{"index":"143","distance":"1182.077","time":"549.1322","cost_time":"180"}},{"Shape":30,"Coordinates":[4.3637,51.8356],"Attributes":{"index":"141","distance":"1375.381","time":"760.0609","cost_time":"180"}},{"Shape":35,"Coordinates":[4.3629,51.8352],"Attributes":{"index":"140","distance":"1487.03","time":"957.9246","cost_time":"180"}},{"Shape":42,"Coordinates":[4.3622,51.8361],"Attributes":{"index":"137","distance":"1709.852","time":"1170.063","cost_time":"180"}},{"Shape":46,"Coordinates":[4.362184,51.8364],"Attributes":{"index":"139","distance":"1867.883","time":"1371.834","cost_time":"180"}},{"Shape":48,"Coordinates":[4.3624,51.8378],"Attributes":{"index":"138","distance":"2023.76","time":"1576.774","cost_time":"180"}},{"Shape":55,"Coordinates":[4.36272,51.83775],"Attributes":{"index":"157","distance":"2254.298","time":"1793.66","cost_time":"180"}},{"Shape":63,"Coordinates":[4.3645,51.8389],"Attributes":{"index":"156","distance":"2458.094","time":"2006.267","cost_time":"180"}},{"Shape":67,"Coordinates":[4.3679,51.839],"Attributes":{"index":"155","distance":"2694.398","time":"2224.076","cost_time":"180"}},{"Shape":76,"Coordinates":[4.366,51.8376],"Attributes":{"index":"158","distance":"3146.553","time":"2476.421","cost_time":"180"}},{"Shape":80,"Coordinates":[4.3652,51.8366],"Attributes":{"index":"159","distance":"3308.635","time":"2682.354","cost_time":"180"}},{"Shape":86,"Coordinates":[4.3666,51.8359],"Attributes":{"index":"160","distance":"3527.437","time":"2897.362","cost_time":"180"}},{"Shape":93,"Coordinates":[4.3684,51.837],"Attributes":{"index":"154","distance":"3798.05","time":"3120.66","cost_time":"180"}},{"Shape":98,"Coordinates":[4.3699,51.8377],"Attributes":{"index":"151","distance":"4020.83","time":"3336.305","cost_time":"180"}},{"Shape":111,"Coordinates":[4.3725,51.8371],"Attributes":{"index":"164","distance":"4452.152","time":"3582.462","cost_time":"180"}},{"Shape":116,"Coordinates":[4.3713,51.8388],"Attributes":{"index":"163","distance":"4680.113","time":"3798.936","cost_time":"180"}},{"Shape":124,"Coordinates":[4.3702,51.8376],"Attributes":{"index":"162","distance":"4884.119","time":"4004.628","cost_time":"180"}},{"Shape":127,"Coordinates":[4.370707,51.83658],"Attributes":{"index":"152","distance":"5016.25","time":"4201.345","cost_time":"180"}},{"Shape":132,"Coordinates":[4.37083,51.83531],"Attributes":{"index":"150","distance":"5162.249","time":"4404.705","cost_time":"180"}},{"Shape":138,"Coordinates":[4.36964,51.83403],"Attributes":{"index":"147","distance":"5353.378","time":"4608.252","cost_time":"180"}},{"Shape":142,"Coordinates":[4.3676,51.8338],"Attributes":{"index":"145","distance":"5534.803","time":"4817.28","cost_time":"180"}},{"Shape":145,"Coordinates":[4.3661,51.8336],"Attributes":{"index":"144","distance":"5656.506","time":"5016.752","cost_time":"180"}},{"Shape":167,"Coordinates":[4.3593,51.834],"Attributes":{"index":"124","distance":"6305.026","time":"5267.152","cost_time":"180"}},{"Shape":171,"Coordinates":[4.3575,51.83281],"Attributes":{"index":"125","distance":"6553.476","time":"5486.904","cost_time":"180"}},{"Shape":180,"Coordinates":[4.3565,51.8323],"Attributes":{"index":"126","distance":"6799.397","time":"5706.251","cost_time":"180"}},{"Shape":186,"Coordinates":[4.3582,51.8318],"Attributes":{"index":"127","distance":"6974.642","time":"5914.29","cost_time":"180"}},{"Shape":203,"Coordinates":[4.3541,51.8314],"Attributes":{"index":"128","distance":"7467.831","time":"6173.2","cost_time":"180"}},{"Shape":214,"Coordinates":[4.3536,51.8334],"Attributes":{"index":"129","distance":"7783.686","time":"6403.737","cost_time":"180"}},{"Shape":238,"Coordinates":[4.3558,51.8385],"Attributes":{"index":"112","distance":"8460.455","time":"6676.404","cost_time":"180"}},{"Shape":245,"Coordinates":[4.3534,51.8379],"Attributes":{"index":"114","distance":"8691.405","time":"6893.356","cost_time":"180"}},{"Shape":246,"Coordinates":[4.3535,51.8379],"Attributes":{"index":"113","distance":"8698.22","time":"7074.446","cost_time":"180"}},{"Shape":257,"Coordinates":[4.3535,51.839],"Attributes":{"index":"115","distance":"8931.269","time":"7291.733","cost_time":"180"}},{"Shape":273,"Coordinates":[4.35533,51.83625],"Attributes":{"index":"133","distance":"9352.596","time":"7531.702","cost_time":"180"}},{"Shape":280,"Coordinates":[4.3565,51.8346],"Attributes":{"index":"134","distance":"9585.748","time":"7749.006","cost_time":"180"}},{"Shape":286,"Coordinates":[4.35483,51.83439],"Attributes":{"index":"130","distance":"9751.382","time":"7955.507","cost_time":"180"}},{"Shape":293,"Coordinates":[4.3546,51.8356],"Attributes":{"index":"131","distance":"9942.833","time":"8166.139","cost_time":"180"}},{"Shape":297,"Coordinates":[4.3527,51.8362],"Attributes":{"index":"132","distance":"10142.25","time":"8378.045","cost_time":"180"}},{"Shape":310,"Coordinates":[4.3552,51.8374],"Attributes":{"index":"116","distance":"10468.53","time":"8602.909","cost_time":"180"}},{"Shape":320,"Coordinates":[4.3567,51.838],"Attributes":{"index":"117","distance":"10839.32","time":"8842.235","cost_time":"180"}},{"Shape":326,"Coordinates":[4.3595,51.8387],"Attributes":{"index":"118","distance":"11091.38","time":"9062.564","cost_time":"180"}},{"Shape":332,"Coordinates":[4.3593,51.8369],"Attributes":{"index":"119","distance":"11294.7","time":"9275.097","cost_time":"180"}},{"Shape":336,"Coordinates":[4.3576,51.8369],"Attributes":{"index":"120","distance":"11411.54","time":"9473.79","cost_time":"180"}},{"Shape":342,"Coordinates":[4.3588,51.8358],"Attributes":{"index":"122","distance":"11579.29","time":"9680.63","cost_time":"180"}},{"Shape":342,"Coordinates":[4.3588,51.8358],"Attributes":{"index":"121","distance":"11579.29","time":"9860.63","cost_time":"180"}},{"Shape":350,"Coordinates":[4.36006,51.83444],"Attributes":{"index":"123","distance":"11794.11","time":"10075","cost_time":"180"}},{"Shape":362,"Coordinates":[4.36169,51.83494],"Attributes":{"index":"135","distance":"12008.43","time":"10277.1","cost_time":"180"}},{"Shape":379,"Coordinates":[4.362908,51.83392],"Attributes":{"index":"136","distance":"12278.71","time":"10484.61","cost_time":"180"}},{"Shape":395,"Coordinates":[4.3678,51.8326],"Attributes":{"index":"146","distance":"12779.26","time":"10731.49","cost_time":"180"}},{"Shape":403,"Coordinates":[4.36933,51.83347],"Attributes":{"index":"148","distance":"13087.33","time":"10960.78","cost_time":"180"}},{"Shape":406,"Coordinates":[4.3683,51.8325],"Attributes":{"index":"149","distance":"13225.5","time":"11162.89","cost_time":"180"}},{"Shape":417,"Coordinates":[4.3705,51.8359],"Attributes":{"index":"153","distance":"13684.19","time":"11402.34","cost_time":"180"}}],"Branches":[{"Shape":1,"Coordinates":[4.370476,51.83536],"Attributes":{"name":"Beb Vuykstraat","highway":"residential","maxspeed":"30"}},{"Shape":1,"Coordinates":[4.370678,51.83587],"Attributes":{"name":"Sientje Mesdag-van Houtenstraat","highway":"residential","maxspeed":"30"}},{"Shape":2,"Coordinates":[4.3684,51.835],"Attributes":{"name":"Harriët Freezerstraat","highway":"residential","maxspeed":"30"}},{"Shape":3,"Coordinates":[4.367617,51.8368],"Attributes":{"name":"Rosa Spierstraat","highway":"residential","maxspeed":"30"}},{"Shape":4,"Coordinates":[4.366899,51.83581],"Attributes":{"name":"Sientje Mesdag-van Houtenstraat","highway":"residential","maxspeed":"30"}},{"Shape":4,"Coordinates":[4.367445,51.83514],"Attributes":{"name":"Martina Kramersstraat","highway":"residential","maxspeed":"30"}},{"Shape":12,"Coordinates":[4.367727,51.83575],"Attributes":{"name":"Sientje Mesdag-van Houtenstraat","highway":"residential","maxspeed":"30"}},{"Shape":18,"Coordinates":[4.365564,51.83504],"Attributes":{"name":"Emmy Belinfantestraat","highway":"residential","maxspeed":"30"}},{"Shape":19,"Coordinates":[4.36506,51.8367],"Attributes":{"name":"Suze Robertsonstraat","highway":"residential","maxspeed":"30"}},{"Shape":20,"Coordinates":[4.363756,51.83563],"Attributes":{"name":"Sientje Mesdag-van Houtenstraat","highway":"residential","maxspeed":"30"}},{"Shape":20,"Coordinates":[4.3645,51.8348],"Attributes":{"name":"Harriët Freezerstraat","highway":"residential","maxspeed":"30"}},{"Shape":24,"Coordinates":[4.365098,51.83566],"Attributes":{"name":"Sientje Mesdag-van Houtenstraat","highway":"residential","maxspeed":"30"}},{"Shape":25,"Coordinates":[4.363351,51.83562],"Attributes":{"name":"Sientje Mesdag-van Houtenstraat","highway":"residential","maxspeed":"30"}},{"Shape":25,"Coordinates":[4.36375,51.83378],"Attributes":{"name":"Henriëtte van der Meijstraat","highway":"residential","maxspeed":"30"}},{"Shape":29,"Coordinates":[4.363351,51.83562],"Attributes":{"name":"Sientje Mesdag-van Houtenstraat","highway":"residential","maxspeed":"30"}},{"Shape":29,"Coordinates":[4.364598,51.83564],"Attributes":{"name":"Sientje Mesdag-van Houtenstraat","highway":"residential","maxspeed":"30"}},{"Shape":31,"Coordinates":[4.362383,51.8356],"Attributes":{"name":"Sientje Mesdag-van Houtenstraat","highway":"residential","maxspeed":"30"}},{"Shape":32,"Coordinates":[4.362867,51.83527],"Attributes":{"name":"Lizzy Ansinghstraat","highway":"unclassified","maxspeed":"30"}},{"Shape":33,"Coordinates":[4.362886,51.83512],"Attributes":{"name":"Lizzy Ansinghstraat","highway":"unclassified","maxspeed":"30"}},{"Shape":38,"Coordinates":[4.362867,51.83527],"Attributes":{"name":"Lizzy Ansinghstraat","highway":"unclassified","maxspeed":"30"}},{"Shape":39,"Coordinates":[4.363756,51.83563],"Attributes":{"name":"Sientje Mesdag-van Houtenstraat","highway":"residential","maxspeed":"30"}},{"Shape":40,"Coordinates":[4.362482,51.83507],"Attributes":{"name":"Lizzy Ansinghstraat","highway":"residential","maxspeed":"30"}},{"Shape":40,"Coordinates":[4.362459,51.83624],"Attributes":{"name":"Lizzy Ansinghstraat","highway":"residential","maxspeed":"30"}},{"Shape":41,"Coordinates":[4.362,51.83559],"Attributes":{"name":"Marie van Regteren Altenastraat","highway":"residential","maxspeed":"30"}},{"Shape":41,"Coordinates":[4.362295,51.83504],"Attributes":{"name":"Annie Romein-Verschoorlaan","maxspeed":"50","highway":"tertiary"}},{"Shape":41,"Coordinates":[4.362269,51.83624],"Attributes":{"name":"Annie Romein-Verschoorlaan","maxspeed":"50","highway":"tertiary"}},{"Shape":43,"Coordinates":[4.362383,51.8356],"Attributes":{"name":"Sientje Mesdag-van Houtenstraat","highway":"residential","maxspeed":"30"}},{"Shape":43,"Coordinates":[4.362295,51.83504],"Attributes":{"name":"Annie Romein-Verschoorlaan","maxspeed":"50","highway":"tertiary"}},{"Shape":44,"Coordinates":[4.361133,51.83561],"Attributes":{"name":"Marie van Regteren Altenastraat","highway":"residential","maxspeed":"30"}},{"Shape":44,"Coordinates":[4.361462,51.83443],"Attributes":{"name":"Margaretha Roosenboomstraat","highway":"residential","maxspeed":"30"}},{"Shape":44,"Coordinates":[4.36209,51.83628],"Attributes":{"name":"Margaretha Roosenboomstraat","highway":"residential","maxspeed":"30"}},{"Shape":47,"Coordinates":[4.362408,51.83788],"Attributes":{"name":"Ida Wassermanstraat","highway":"residential","maxspeed":"30"}},{"Shape":47,"Coordinates":[4.361285,51.83695],"Attributes":{"name":"Mimi Boesnachstraat","highway":"residential","maxspeed":"30"}},{"Shape":47,"Coordinates":[4.362395,51.83686],"Attributes":{"name":"Mimi Boesnachstraat","highway":"residential","maxspeed":"30"}},{"Shape":49,"Coordinates":[4.361285,51.83695],"Attributes":{"name":"Mimi Boesnachstraat","highway":"residential","maxspeed":"30"}},{"Shape":49,"Coordinates":[4.36209,51.83628],"Attributes":{"name":"Margaretha Roosenboomstraat","highway":"residential","maxspeed":"30"}},{"Shape":50,"Coordinates":[4.362269,51.83624],"Attributes":{"name":"Annie Romein-Verschoorlaan","maxspeed":"50","highway":"tertiary"}},{"Shape":50,"Coordinates":[4.362519,51.83747],"Attributes":{"name":"Annie Romein-Verschoorlaan","maxspeed":"50","highway":"tertiary"}},{"Shape":51,"Coordinates":[4.363842,51.83675],"Attributes":{"name":"Theo Mann-Bouwmeesterstraat","highway":"residential","maxspeed":"30"}},{"Shape":51,"Coordinates":[4.362459,51.83624],"Attributes":{"name":"Lizzy Ansinghstraat","highway":"residential","maxspeed":"30"}},{"Shape":52,"Coordinates":[4.363731,51.83709],"Attributes":{"name":"Magda Janssenstraat","highway":"residential","maxspeed":"30","oneway":"yes"}},{"Shape":53,"Coordinates":[4.363787,51.83738],"Attributes":{"name":"Fie Carelsenstraat","highway":"residential","maxspeed":"30","oneway":"yes"}},{"Shape":54,"Coordinates":[4.362813,51.83805],"Attributes":{"name":"Maria Kleine-Gartmanstraat","highway":"residential","maxspeed":"30"}},{"Shape":54,"Coordinates":[4.363823,51.83765],"Attributes":{"name":"Annie van Eesstraat","highway":"residential","maxspeed":"30","oneway":"yes"}},{"Shape":56,"Coordinates":[4.363896,51.83796],"Attributes":{"name":"Charlotte Köhlerstraat","highway":"residential","maxspeed":"30","oneway":"yes"}},{"Shape":57,"Coordinates":[4.363446,51.83828],"Attributes":{"name":"Fien de la Marstraat","highway":"residential","maxspeed":"30"}},{"Shape":62,"Coordinates":[4.364714,51.83876],"Attributes":{"name":"Maria Kleine-Gartmanstraat","highway":"residential","maxspeed":"30"}},{"Shape":62,"Coordinates":[4.363836,51.83839],"Attributes":{"name":"Fien de la Marstraat","highway":"residential","maxspeed":"30"}},{"Shape":64,"Coordinates":[4.364704,51.83848],"Attributes":{"name":"Esther de Boer-van Rijkstraat","highway":"residential","maxspeed":"30"}},{"Shape":64,"Coordinates":[4.36481,51.83882],"Attributes":{"name":"Maria Kleine-Gartmanstraat","highway":"residential","maxspeed":"30"}},{"Shape":70,"Coordinates":[4.363814,51.83873],"Attributes":{"name":"Maria Kleine-Gartmanstraat","highway":"residential","maxspeed":"30"}},{"Shape":71,"Coordinates":[4.365851,51.83851],"Attributes":{"name":"Vera Bondamstraat","highway":"residential","maxspeed":"30"}},{"Shape":72,"Coordinates":[4.36574,51.83821],"Attributes":{"name":"Else Mauhsstraat","highway":"residential","maxspeed":"30"}},{"Shape":73,"Coordinates":[4.364458,51.83731],"Attributes":{"name":"Esther de Boer-van Rijkstraat","highway":"residential","maxspeed":"30"}},{"Shape":74,"Coordinates":[4.365455,51.83734],"Attributes":{"name":"Ronnie Biermanstraat","highway":"residential","maxspeed":"30"}},{"Shape":75,"Coordinates":[4.365883,51.83719],"Attributes":{"name":"Corrie Vonkplantsoen","highway":"residential","maxspeed":"30"}},{"Shape":75,"Coordinates":[4.365971,51.83768],"Attributes":{"name":"Corrie Vonkplantsoen","highway":"residential","maxspeed":"30"}},{"Shape":78,"Coordinates":[4.36585,51.83667],"Attributes":{"name":"Theo Mann-Bouwmeesterstraat","highway":"residential","maxspeed":"30"}},{"Shape":79,"Coordinates":[4.364371,51.83671],"Attributes":{"name":"Theo Mann-Bouwmeesterstraat","highway":"residential","maxspeed":"30"}},{"Shape":79,"Coordinates":[4.365098,51.83566],"Attributes":{"name":"Suze Robertsonstraat","highway":"residential","maxspeed":"30"}},{"Shape":81,"Coordinates":[4.364598,51.83564],"Attributes":{"name":"Sientje Mesdag-van Houtenstraat","highway":"residential","maxspeed":"30"}},{"Shape":82,"Coordinates":[4.365564,51.83504],"Attributes":{"name":"Emmy Belinfantestraat","highway":"residential","maxspeed":"30"}},{"Shape":85,"Coordinates":[4.366899,51.83581],"Attributes":{"name":"Sientje Mesdag-van Houtenstraat","highway":"residential","maxspeed":"30"}},{"Shape":89,"Coordinates":[4.367445,51.83514],"Attributes":{"name":"Martina Kramersstraat","highway":"residential","maxspeed":"30"}},{"Shape":90,"Coordinates":[4.368702,51.83578],"Attributes":{"name":"Sientje Mesdag-van Houtenstraat","highway":"residential","maxspeed":"30"}},{"Shape":91,"Coordinates":[4.36686,51.83676],"Attributes":{"name":"Theo Mann-Bouwmeesterstraat","highway":"residential","maxspeed":"30"}},{"Shape":92,"Coordinates":[4.368241,51.83746],"Attributes":{"name":"Top Naeffstraat","highway":"residential","maxspeed":"30"}},{"Shape":92,"Coordinates":[4.368972,51.8369],"Attributes":{"name":"Theo Mann-Bouwmeesterstraat","highway":"residential","maxspeed":"30"}},{"Shape":94,"Coordinates":[4.367617,51.8368],"Attributes":{"name":"Theo Mann-Bouwmeesterstraat","highway":"residential","maxspeed":"30"}},{"Shape":96,"Coordinates":[4.370326,51.83643],"Attributes":{"name":"Beb Vuykstraat","highway":"residential","maxspeed":"30"}},{"Shape":96,"Coordinates":[4.3704,51.837],"Attributes":{"name":"Theo Mann-Bouwmeesterstraat","highway":"residential","maxspeed":"30"}},{"Shape":97,"Coordinates":[4.369893,51.83816],"Attributes":{"name":"Beb Vuykstraat","highway":"residential","maxspeed":"30"}},{"Shape":97,"Coordinates":[4.369532,51.83755],"Attributes":{"name":"Maria Dermoûtstraat","highway":"residential","maxspeed":"30"}},{"Shape":99,"Coordinates":[4.368901,51.83807],"Attributes":{"name":"Maria Tesselschadestraat","highway":"residential","maxspeed":"30"}},{"Shape":100,"Coordinates":[4.370308,51.83821],"Attributes":{"name":"Maria Tesselschadestraat","highway":"residential","maxspeed":"30"}},{"Shape":100,"Coordinates":[4.3704,51.837],"Attributes":{"name":"Geertruida Bosboom-Toussaintlaan","maxspeed":"50","highway":"tertiary"}},{"Shape":101,"Coordinates":[4.369864,51.83901],"Attributes":{"name":"Geertruida Bosboom-Toussaintlaan","maxspeed":"50","highway":"tertiary"}},{"Shape":101,"Coordinates":[4.369776,51.83852],"Attributes":{"name":"Maria Kleine-Gartmanstraat","highway":"residential","maxspeed":"30"}},{"Shape":103,"Coordinates":[4.37021,51.83849],"Attributes":{"name":"Henriëtte Roland Holststraat","highway":"residential","maxspeed":"30"}},{"Shape":109,"Coordinates":[4.372942,51.83545],"Attributes":{"name":"Lange Groeneweg","highway":"residential","maxspeed":"30"}},{"Shape":113,"Coordinates":[4.370436,51.83859],"Attributes":{"name":"Henriëtte Roland Holststraat","highway":"residential","maxspeed":"30"}},{"Shape":120,"Coordinates":[4.37021,51.83849],"Attributes":{"name":"Henriëtte Roland Holststraat","highway":"residential","maxspeed":"30"}},{"Shape":122,"Coordinates":[4.369864,51.83901],"Attributes":{"name":"Geertruida Bosboom-Toussaintlaan","maxspeed":"50","highway":"tertiary"}},{"Shape":122,"Coordinates":[4.369776,51.83852],"Attributes":{"name":"Maria Kleine-Gartmanstraat","highway":"residential","maxspeed":"30"}},{"Shape":123,"Coordinates":[4.369893,51.83816],"Attributes":{"name":"Maria Tesselschadestraat","highway":"residential","maxspeed":"30"}},{"Shape":123,"Coordinates":[4.370308,51.83821],"Attributes":{"name":"Maria Tesselschadestraat","highway":"residential","maxspeed":"30"}},{"Shape":123,"Coordinates":[4.3704,51.837],"Attributes":{"name":"Geertruida Bosboom-Toussaintlaan","maxspeed":"50","highway":"tertiary"}},{"Shape":125,"Coordinates":[4.370177,51.83698],"Attributes":{"name":"Theo Mann-Bouwmeesterstraat","highway":"residential","maxspeed":"30"}},{"Shape":125,"Coordinates":[4.370606,51.8362],"Attributes":{"name":"Geertruida Bosboom-Toussaintlaan","maxspeed":"50","highway":"tertiary"}},{"Shape":126,"Coordinates":[4.370763,51.83647],"Attributes":{"name":"Else van der Banstraat","highway":"residential","maxspeed":"30"}},{"Shape":126,"Coordinates":[4.370445,51.83764],"Attributes":{"name":"Else van der Banstraat","highway":"residential","maxspeed":"30"}},{"Shape":126,"Coordinates":[4.372372,51.83723],"Attributes":{"name":"Theo Mann-Bouwmeesterstraat","highway":"residential","maxspeed":"30"}},{"Shape":128,"Coordinates":[4.37202,51.83661],"Attributes":{"name":"Annie van Hattemstraat","highway":"residential","maxspeed":"30"}},{"Shape":130,"Coordinates":[4.370678,51.83587],"Attributes":{"name":"Sientje Mesdag-van Houtenstraat","highway":"residential","maxspeed":"30"}},{"Shape":130,"Coordinates":[4.372729,51.83594],"Attributes":{"name":"Sientje Mesdag-van Houtenstraat","highway":"residential","maxspeed":"30"}},{"Shape":131,"Coordinates":[4.370724,51.83487],"Attributes":{"name":"Else van der Banstraat","highway":"residential","maxspeed":"30"}},{"Shape":131,"Coordinates":[4.3717,51.8353],"Attributes":{"name":"Lotte Beesestraat","highway":"residential","maxspeed":"30"}},{"Shape":133,"Coordinates":[4.37044,51.83441],"Attributes":{"name":"Else van der Banstraat","highway":"residential","maxspeed":"30"}},{"Shape":133,"Coordinates":[4.371654,51.83469],"Attributes":{"name":"Truus Schröderstraat","highway":"residential","maxspeed":"30"}},{"Shape":134,"Coordinates":[4.370315,51.83495],"Attributes":{"name":"Truus Schröderstraat","highway":"unclassified","maxspeed":"30"}},{"Shape":134,"Coordinates":[4.370679,51.83535],"Attributes":{"name":"Geertruida Bosboom-Toussaintlaan","maxspeed":"50","highway":"tertiary"}},{"Shape":136,"Coordinates":[4.369971,51.83395],"Attributes":{"name":"Belle van Zuylenstraat","highway":"residential","maxspeed":"30"}},{"Shape":136,"Coordinates":[4.367404,51.83212],"Attributes":{"name":"Geertruida Bosboom-Toussaintlaan","maxspeed":"50","highway":"tertiary"}},{"Shape":137,"Coordinates":[4.369088,51.83369],"Attributes":{"name":"Beb Vuykstraat","highway":"residential","maxspeed":"30"}},{"Shape":137,"Coordinates":[4.370059,51.83451],"Attributes":{"name":"Beb Vuykstraat","highway":"residential","maxspeed":"30"}},{"Shape":137,"Coordinates":[4.368752,51.83453],"Attributes":{"name":"Belle van Zuylenstraat","highway":"residential","maxspeed":"30"}},{"Shape":139,"Coordinates":[4.368437,51.83317],"Attributes":{"name":"Beb Vuykstraat","highway":"residential","maxspeed":"30"}},{"Shape":140,"Coordinates":[4.3685,51.8342],"Attributes":{"name":"Madelon Lulofsstraat","highway":"residential","maxspeed":"30"}},{"Shape":141,"Coordinates":[4.366846,51.83372],"Attributes":{"name":"Madelon Lulofsstraat","highway":"residential","maxspeed":"30"}},{"Shape":141,"Coordinates":[4.368081,51.83335],"Attributes":{"name":"Madelon Lulofsstraat","highway":"residential","maxspeed":"30"}},{"Shape":143,"Coordinates":[4.366941,51.83331],"Attributes":{"name":"Anke Servaesstraat","highway":"residential","maxspeed":"30"}},{"Shape":144,"Coordinates":[4.365298,51.83384],"Attributes":{"name":"Marie van Zeggelenstraat","highway":"residential","maxspeed":"30"}},{"Shape":144,"Coordinates":[4.365887,51.8331],"Attributes":{"name":"Marie van Zeggelenstraat","highway":"residential","maxspeed":"30"}},{"Shape":147,"Coordinates":[4.364795,51.83329],"Attributes":{"name":"Lucretia van Merkenstraat","highway":"residential","maxspeed":"30"}},{"Shape":147,"Coordinates":[4.366334,51.83255],"Attributes":{"name":"Lucretia van Merkenstraat","highway":"residential","maxspeed":"30"}},{"Shape":148,"Coordinates":[4.366881,51.83212],"Attributes":{"name":"Annie Romein-Verschoorlaan","maxspeed":"50","highway":"tertiary"}},{"Shape":149,"Coordinates":[4.364963,51.83293],"Attributes":{"name":"Beylshoflaan","highway":"residential","maxspeed":"30"}},{"Shape":152,"Coordinates":[4.363072,51.8339],"Attributes":{"name":"Hadewychplaats","highway":"service"}},{"Shape":155,"Coordinates":[4.362295,51.83504],"Attributes":{"name":"Annie Romein-Verschoorlaan","maxspeed":"50","highway":"tertiary"}},{"Shape":159,"Coordinates":[4.361445,51.8344],"Attributes":{"name":"Margaretha Roosenboomstraat","highway":"residential"}},{"Shape":160,"Coordinates":[4.361255,51.83418],"Attributes":{"name":"Hadewychplaats","highway":"service"}},{"Shape":162,"Coordinates":[4.36026,51.83197],"Attributes":{"name":"Drogendijk","highway":"unclassified","maxspeed":"30"}},{"Shape":162,"Coordinates":[4.360504,51.83558],"Attributes":{"name":"Drogendijk","highway":"unclassified","maxspeed":"30"}},{"Shape":163,"Coordinates":[4.359956,51.83451],"Attributes":{"name":"Clara Visserstraat","highway":"residential","maxspeed":"30"}},{"Shape":165,"Coordinates":[4.358867,51.83425],"Attributes":{"name":"Joke Smitlaan","maxspeed":"50","highway":"tertiary"}},{"Shape":166,"Coordinates":[4.3593,51.8334],"Attributes":{"name":"Anne Frankstraat","highway":"residential","maxspeed":"30"}},{"Shape":166,"Coordinates":[4.358588,51.83418],"Attributes":{"name":"Mies van Oort-Laustraat","highway":"residential","maxspeed":"30"}},{"Shape":169,"Coordinates":[4.359152,51.83241],"Attributes":{"name":"Anne Frankstraat","highway":"residential","maxspeed":"30"}},{"Shape":170,"Coordinates":[4.357482,51.83284],"Attributes":{"name":"Hannie Schaftstraat","highway":"residential","maxspeed":"30"}},{"Shape":170,"Coordinates":[4.358418,51.83335],"Attributes":{"name":"Trix Terwindtstraat","highway":"residential","maxspeed":"30"}},{"Shape":173,"Coordinates":[4.35606,51.83361],"Attributes":{"name":"Hannie Schaftstraat","highway":"residential","maxspeed":"30"}},{"Shape":173,"Coordinates":[4.35724,51.83361],"Attributes":{"name":"Trix Terwindtstraat","highway":"residential","maxspeed":"30"}},{"Shape":174,"Coordinates":[4.355162,51.83287],"Attributes":{"name":"Mien Sneevliet-Draaijerstraat","highway":"residential","maxspeed":"30","oneway":"yes"}},{"Shape":174,"Coordinates":[4.356112,51.83237],"Attributes":{"name":"Mien Sneevliet-Draaijerstraat","highway":"residential","maxspeed":"30","oneway":"yes"}},{"Shape":175,"Coordinates":[4.355034,51.83205],"Attributes":{"name":"Mia van der Wall-Duyvendakstraat","highway":"residential","maxspeed":"30"}},{"Shape":175,"Coordinates":[4.355093,51.83282],"Attributes":{"name":"Mien Sneevliet-Draaijerstraat","highway":"residential","maxspeed":"30","oneway":"yes"}},{"Shape":177,"Coordinates":[4.358144,51.83232],"Attributes":{"name":"Petronella Brugsmastraat","highway":"residential","maxspeed":"30"}},{"Shape":177,"Coordinates":[4.356006,51.83215],"Attributes":{"name":"Petronella Brugsmastraat","highway":"residential","maxspeed":"30"}},{"Shape":177,"Coordinates":[4.356112,51.83237],"Attributes":{"name":"Mien Sneevliet-Draaijerstraat","highway":"residential","maxspeed":"30","oneway":"yes"}},{"Shape":194,"Coordinates":[4.356006,51.83215],"Attributes":{"name":"Petronella Brugsmastraat","highway":"residential","maxspeed":"30"}},{"Shape":194,"Coordinates":[4.35604,51.83231],"Attributes":{"name":"Mien Sneevliet-Draaijerstraat","highway":"residential","maxspeed":"30","oneway":"yes"}},{"Shape":196,"Coordinates":[4.355672,51.83251],"Attributes":{"name":"Mia van der Wall-Duyvendakstraat","highway":"residential","maxspeed":"30"}},{"Shape":196,"Coordinates":[4.35673,51.83325],"Attributes":{"name":"Jacoba Pulskensstraat","highway":"residential","maxspeed":"30"}},{"Shape":198,"Coordinates":[4.355329,51.8331],"Attributes":{"name":"Etty Hillesumstraat","highway":"residential","maxspeed":"30"}},{"Shape":198,"Coordinates":[4.355093,51.83282],"Attributes":{"name":"Mien Sneevliet-Draaijerstraat","highway":"residential","maxspeed":"30","oneway":"yes"}},{"Shape":199,"Coordinates":[4.354129,51.83141],"Attributes":{"name":"Etty Hillesumstraat","highway":"residential","maxspeed":"30"}},{"Shape":199,"Coordinates":[4.354767,51.83298],"Attributes":{"name":"Mien Sneevliet-Draaijerstraat","highway":"residential","maxspeed":"30"}},{"Shape":207,"Coordinates":[4.355031,51.83289],"Attributes":{"name":"Etty Hillesumstraat","highway":"residential","maxspeed":"30"}},{"Shape":212,"Coordinates":[4.354132,51.83377],"Attributes":{"name":"Maria Doorman-Kielstrastraat","highway":"residential","maxspeed":"30"}},{"Shape":212,"Coordinates":[4.353489,51.83369],"Attributes":{"name":"Johanna Naberstraat","highway":"residential","maxspeed":"30"}},{"Shape":212,"Coordinates":[4.353667,51.83348],"Attributes":{"name":"Willemijn Posthumusstraat","highway":"residential","maxspeed":"30"}},{"Shape":216,"Coordinates":[4.353489,51.83369],"Attributes":{"name":"Johanna Naberstraat","highway":"residential","maxspeed":"30"}},{"Shape":216,"Coordinates":[4.354767,51.83298],"Attributes":{"name":"Mien Sneevliet-Draaijerstraat","highway":"residential","maxspeed":"30"}},{"Shape":217,"Coordinates":[4.355028,51.83327],"Attributes":{"highway":"residential","maxspeed":"30"}},{"Shape":219,"Coordinates":[4.353589,51.83436],"Attributes":{"name":"Annette Versluys-Poelmanstraat","highway":"residential","maxspeed":"30"}},{"Shape":221,"Coordinates":[4.354878,51.83525],"Attributes":{"name":"Roosje Vosstraat","highway":"residential","maxspeed":"30"}},{"Shape":222,"Coordinates":[4.356722,51.83442],"Attributes":{"highway":"residential","maxspeed":"30"}},{"Shape":223,"Coordinates":[4.355661,51.83566],"Attributes":{"name":"Mina Krusemanstraat","highway":"residential","maxspeed":"30"}},{"Shape":224,"Coordinates":[4.355559,51.83603],"Attributes":{"name":"Joke Smitlaan","maxspeed":"50","highway":"tertiary","oneway":"yes"}},{"Shape":224,"Coordinates":[4.356462,51.83506],"Attributes":{"name":"Joke Smitlaan","maxspeed":"50","highway":"tertiary","oneway":"yes"}},{"Shape":225,"Coordinates":[4.357141,51.83475],"Attributes":{"name":"Joke Smitlaan","maxspeed":"50","highway":"tertiary","oneway":"yes"}},{"Shape":229,"Coordinates":[4.355383,51.83632],"Attributes":{"name":"Wilhelmina Druckerstraat","highway":"residential","maxspeed":"30"}},{"Shape":233,"Coordinates":[4.35544,51.83759],"Attributes":{"name":"Joke Smitlaan","maxspeed":"50","highway":"tertiary","oneway":"yes"}},{"Shape":234,"Coordinates":[4.355592,51.83804],"Attributes":{"name":"Joke Smitlaan","maxspeed":"50","highway":"tertiary","oneway":"yes"}},{"Shape":234,"Coordinates":[4.355234,51.83709],"Attributes":{"name":"Joke Smitlaan","maxspeed":"50","highway":"tertiary","oneway":"yes"}},{"Shape":235,"Coordinates":[4.354631,51.83735],"Attributes":{"name":"Wilhelmina Hofman-Pootstraat","highway":"residential","maxspeed":"30"}},{"Shape":237,"Coordinates":[4.355865,51.83872],"Attributes":{"name":"Suze Groenewegstraat","highway":"residential","maxspeed":"30"}},{"Shape":237,"Coordinates":[4.354567,51.83827],"Attributes":{"name":"Johanna Engwirda-Agricolastraat","highway":"residential","maxspeed":"30"}},{"Shape":239,"Coordinates":[4.355262,51.83775],"Attributes":{"name":"Suze Groenewegstraat","highway":"residential","maxspeed":"30"}},{"Shape":240,"Coordinates":[4.354502,51.83861],"Attributes":{"name":"Johanna Engwirda-Agricolastraat","highway":"residential","maxspeed":"30"}},{"Shape":243,"Coordinates":[4.354056,51.83848],"Attributes":{"name":"Liesbeth Ribbius Peletierpad","highway":"residential","maxspeed":"30"}},{"Shape":244,"Coordinates":[4.353249,51.83786],"Attributes":{"name":"Johanna Engwirda-Agricolastraat","highway":"residential","maxspeed":"30"}},{"Shape":244,"Coordinates":[4.353606,51.83847],"Attributes":{"name":"Anna de Waalpad","highway":"residential","maxspeed":"30"}},{"Shape":247,"Coordinates":[4.353606,51.83847],"Attributes":{"name":"Anna de Waalpad","highway":"residential","maxspeed":"30"}},{"Shape":248,"Coordinates":[4.354056,51.83848],"Attributes":{"name":"Liesbeth Ribbius Peletierpad","highway":"residential","maxspeed":"30"}},{"Shape":251,"Coordinates":[4.354502,51.83861],"Attributes":{"name":"Johanna Engwirda-Agricolastraat","highway":"residential","maxspeed":"30"}},{"Shape":251,"Coordinates":[4.355442,51.83807],"Attributes":{"name":"Johanna Engwirda-Agricolastraat","highway":"residential","maxspeed":"30"}},{"Shape":263,"Coordinates":[4.354358,51.83789],"Attributes":{"name":"Johanna Engwirda-Agricolastraat","highway":"residential","maxspeed":"30"}},{"Shape":264,"Coordinates":[4.355865,51.83872],"Attributes":{"name":"Suze Groenewegstraat","highway":"residential","maxspeed":"30"}},{"Shape":266,"Coordinates":[4.354631,51.83735],"Attributes":{"name":"Wilhelmina Hofman-Pootstraat","highway":"residential","maxspeed":"30"}},{"Shape":267,"Coordinates":[4.355372,51.83736],"Attributes":{"name":"Wilhelmina Hofman-Pootstraat","highway":"residential","maxspeed":"30"}},{"Shape":267,"Coordinates":[4.355592,51.83804],"Attributes":{"name":"Joke Smitlaan","maxspeed":"50","highway":"tertiary","oneway":"yes"}},{"Shape":271,"Coordinates":[4.355457,51.83633],"Attributes":{"name":"Wilhelmina Druckerstraat","highway":"residential","maxspeed":"30"}},{"Shape":271,"Coordinates":[4.355559,51.83603],"Attributes":{"name":"Joke Smitlaan","maxspeed":"50","highway":"tertiary","oneway":"yes"}},{"Shape":272,"Coordinates":[4.354723,51.8363],"Attributes":{"name":"Wilhelmina Druckerstraat","highway":"residential","maxspeed":"30"}},{"Shape":272,"Coordinates":[4.355661,51.83566],"Attributes":{"name":"Mina Krusemanstraat","highway":"residential","maxspeed":"30"}},{"Shape":276,"Coordinates":[4.35621,51.83526],"Attributes":{"name":"Maria Doorman-Kielstrastraat","highway":"residential","maxspeed":"30"}},{"Shape":277,"Coordinates":[4.355624,51.83485],"Attributes":{"name":"Maria Doorman-Kielstrastraat","highway":"residential","maxspeed":"30"}},{"Shape":277,"Coordinates":[4.356722,51.83442],"Attributes":{"highway":"residential","maxspeed":"30"}},{"Shape":283,"Coordinates":[4.356078,51.83521],"Attributes":{"name":"Maria Doorman-Kielstrastraat","highway":"residential","maxspeed":"30"}},{"Shape":284,"Coordinates":[4.354878,51.83525],"Attributes":{"name":"Roosje Vosstraat","highway":"residential","maxspeed":"30"}},{"Shape":284,"Coordinates":[4.35489,51.83435],"Attributes":{"name":"Maria Doorman-Kielstrastraat","highway":"residential","maxspeed":"30"}},{"Shape":288,"Coordinates":[4.355773,51.83496],"Attributes":{"name":"Maria Doorman-Kielstrastraat","highway":"residential","maxspeed":"30"}},{"Shape":289,"Coordinates":[4.3546,51.8357],"Attributes":{"name":"Roosje Vosstraat","highway":"residential","maxspeed":"30"}},{"Shape":289,"Coordinates":[4.354136,51.83476],"Attributes":{"name":"Theodora Haverstraat","highway":"residential","maxspeed":"30"}},{"Shape":290,"Coordinates":[4.3546,51.83545],"Attributes":{"name":"Roosje Vosstraat","highway":"residential","maxspeed":"30"}},{"Shape":294,"Coordinates":[4.3546,51.8357],"Attributes":{"name":"Roosje Vosstraat","highway":"residential","maxspeed":"30"}},{"Shape":294,"Coordinates":[4.353442,51.83566],"Attributes":{"name":"Clara Wichmannstraat","highway":"residential","maxspeed":"30"}},{"Shape":295,"Coordinates":[4.353416,51.83625],"Attributes":{"name":"Wilhelmina Druckerstraat","highway":"residential","maxspeed":"30"}},{"Shape":295,"Coordinates":[4.354723,51.8363],"Attributes":{"name":"Wilhelmina Druckerstraat","highway":"residential","maxspeed":"30"}},{"Shape":299,"Coordinates":[4.354549,51.83569],"Attributes":{"name":"Roosje Vosstraat","highway":"residential","maxspeed":"30"}},{"Shape":300,"Coordinates":[4.35471,51.83656],"Attributes":{"highway":"residential","maxspeed":"30"}},{"Shape":301,"Coordinates":[4.355661,51.83566],"Attributes":{"name":"Mina Krusemanstraat","highway":"residential","maxspeed":"30"}},{"Shape":302,"Coordinates":[4.355234,51.83709],"Attributes":{"name":"Joke Smitlaan","maxspeed":"50","highway":"tertiary","oneway":"yes"}},{"Shape":302,"Coordinates":[4.355559,51.83603],"Attributes":{"name":"Joke Smitlaan","maxspeed":"50","highway":"tertiary","oneway":"yes"}},{"Shape":303,"Coordinates":[4.355987,51.83555],"Attributes":{"name":"Joke Smitlaan","maxspeed":"50","highway":"tertiary","oneway":"yes"}},{"Shape":307,"Coordinates":[4.35544,51.83759],"Attributes":{"name":"Joke Smitlaan","maxspeed":"50","highway":"tertiary","oneway":"yes"}},{"Shape":308,"Coordinates":[4.355592,51.83804],"Attributes":{"name":"Joke Smitlaan","maxspeed":"50","highway":"tertiary","oneway":"yes"}},{"Shape":308,"Coordinates":[4.355234,51.83709],"Attributes":{"name":"Joke Smitlaan","maxspeed":"50","highway":"tertiary","oneway":"yes"}},{"Shape":309,"Coordinates":[4.354631,51.83735],"Attributes":{"name":"Wilhelmina Hofman-Pootstraat","highway":"residential","maxspeed":"30"}},{"Shape":309,"Coordinates":[4.355262,51.83775],"Attributes":{"name":"Suze Groenewegstraat","highway":"residential","maxspeed":"30"}},{"Shape":312,"Coordinates":[4.354567,51.83827],"Attributes":{"name":"Johanna Engwirda-Agricolastraat","highway":"residential","maxspeed":"30"}},{"Shape":313,"Coordinates":[4.355413,51.83882],"Attributes":{"name":"Marga Klompéstraat","highway":"residential","maxspeed":"30"}},{"Shape":314,"Coordinates":[4.355722,51.83817],"Attributes":{"name":"Joke Smitlaan","maxspeed":"50","highway":"tertiary"}},{"Shape":314,"Coordinates":[4.356095,51.83873],"Attributes":{"name":"Joke Smitlaan","maxspeed":"50","highway":"tertiary"}},{"Shape":318,"Coordinates":[4.358305,51.83854],"Attributes":{"name":"Aletta Jacobsstraat","highway":"residential","maxspeed":"30"}},{"Shape":319,"Coordinates":[4.357479,51.83744],"Attributes":{"name":"Wilhelmina Bladergroenstraat","highway":"residential","maxspeed":"30"}},{"Shape":319,"Coordinates":[4.356625,51.83799],"Attributes":{"name":"Catharina van Tussenbroekstraat","highway":"residential","maxspeed":"30"}},{"Shape":321,"Coordinates":[4.357479,51.83744],"Attributes":{"name":"Wilhelmina Bladergroenstraat","highway":"residential","maxspeed":"30"}},{"Shape":322,"Coordinates":[4.356521,51.83856],"Attributes":{"name":"Aletta Jacobsstraat","highway":"residential","maxspeed":"30"}},{"Shape":323,"Coordinates":[4.358421,51.83695],"Attributes":{"name":"Mary Zeldenrust-Noordanusstraat","highway":"residential","maxspeed":"30"}},{"Shape":324,"Coordinates":[4.359249,51.83808],"Attributes":{"name":"Hélène Mercierstraat","highway":"residential","maxspeed":"30"}},{"Shape":324,"Coordinates":[4.359298,51.83863],"Attributes":{"name":"Aletta Jacobsstraat","highway":"residential","maxspeed":"30"}},{"Shape":328,"Coordinates":[4.358305,51.83854],"Attributes":{"name":"Aletta Jacobsstraat","highway":"residential","maxspeed":"30"}},{"Shape":329,"Coordinates":[4.36062,51.83812],"Attributes":{"name":"Cornelia de Langestraat","highway":"residential","maxspeed":"30"}},{"Shape":330,"Coordinates":[4.360465,51.83755],"Attributes":{"name":"Liesbeth Tilanusstraat","highway":"residential","maxspeed":"30"}},{"Shape":331,"Coordinates":[4.358706,51.83696],"Attributes":{"name":"Maria Rutgers-Hoitsemastraat","highway":"residential","maxspeed":"30"}},{"Shape":331,"Coordinates":[4.360314,51.83701],"Attributes":{"name":"Maria Rutgers-Hoitsemastraat","highway":"residential","maxspeed":"30"}},{"Shape":335,"Coordinates":[4.358305,51.83854],"Attributes":{"name":"Mary Zeldenrust-Noordanusstraat","highway":"residential","maxspeed":"30"}},{"Shape":335,"Coordinates":[4.357536,51.83692],"Attributes":{"name":"Maria Rutgers-Hoitsemastraat","highway":"residential","maxspeed":"30"}},{"Shape":337,"Coordinates":[4.357479,51.83744],"Attributes":{"name":"Wilhelmina Bladergroenstraat","highway":"residential","maxspeed":"30"}},{"Shape":339,"Coordinates":[4.356021,51.83622],"Attributes":{"name":"Lau Mazirelstraat","highway":"residential","maxspeed":"30"}},{"Shape":340,"Coordinates":[4.358304,51.83594],"Attributes":{"name":"Wilhelmina Bladergroenstraat","highway":"residential","maxspeed":"30"}},{"Shape":340,"Coordinates":[4.356453,51.83565],"Attributes":{"name":"Johanna Westerdijkstraat","highway":"residential","maxspeed":"30"}},{"Shape":343,"Coordinates":[4.358029,51.83479],"Attributes":{"name":"Anna Storm-van der Chijsstraat","highway":"residential","maxspeed":"30"}},{"Shape":344,"Coordinates":[4.359009,51.83457],"Attributes":{"name":"Annie Mankes-Zernikestraat","highway":"residential","maxspeed":"30"}},{"Shape":347,"Coordinates":[4.359956,51.83451],"Attributes":{"name":"Clara Visserstraat","highway":"residential","maxspeed":"30"}},{"Shape":351,"Coordinates":[4.359355,51.83421],"Attributes":{"name":"Joke Smitlaan","maxspeed":"50","highway":"tertiary"}},{"Shape":352,"Coordinates":[4.36026,51.83197],"Attributes":{"name":"Drogendijk","highway":"unclassified","maxspeed":"30"}},{"Shape":352,"Coordinates":[4.360504,51.83558],"Attributes":{"name":"Drogendijk","highway":"unclassified","maxspeed":"30"}},{"Shape":354,"Coordinates":[4.361255,51.83418],"Attributes":{"name":"Hadewychplaats","highway":"service"}},{"Shape":355,"Coordinates":[4.361663,51.83434],"Attributes":{"name":"Joke Smitlaan","maxspeed":"50","highway":"tertiary"}},{"Shape":356,"Coordinates":[4.361462,51.83443],"Attributes":{"name":"Margaretha Roosenboomstraat","highway":"residential","maxspeed":"30"}},{"Shape":360,"Coordinates":[4.361384,51.83525],"Attributes":{"name":"Margaretha Roosenboomstraat","highway":"residential"}},{"Shape":361,"Coordinates":[4.361636,51.83525],"Attributes":{"name":"Margaretha Roosenboomstraat","highway":"residential"}},{"Shape":364,"Coordinates":[4.361384,51.83525],"Attributes":{"name":"Margaretha Roosenboomstraat","highway":"residential"}},{"Shape":368,"Coordinates":[4.361462,51.83443],"Attributes":{"name":"Margaretha Roosenboomstraat","highway":"residential","maxspeed":"30"}},{"Shape":369,"Coordinates":[4.361216,51.83426],"Attributes":{"name":"Joke Smitlaan","maxspeed":"50","highway":"tertiary"}},{"Shape":373,"Coordinates":[4.362295,51.83504],"Attributes":{"name":"Annie Romein-Verschoorlaan","maxspeed":"50","highway":"tertiary"}},{"Shape":376,"Coordinates":[4.363766,51.83361],"Attributes":{"name":"Annie Romein-Verschoorlaan","maxspeed":"50","highway":"tertiary"}},{"Shape":378,"Coordinates":[4.362726,51.83382],"Attributes":{"name":"Ida Gerhardtplein","highway":"service"}},{"Shape":378,"Coordinates":[4.363036,51.83369],"Attributes":{"name":"Ida Gerhardtplein","highway":"service"}},{"Shape":380,"Coordinates":[4.363036,51.83369],"Attributes":{"name":"Ida Gerhardtplein","highway":"service"}},{"Shape":382,"Coordinates":[4.362961,51.83414],"Attributes":{"name":"Annie Romein-Verschoorlaan","maxspeed":"50","highway":"tertiary"}},{"Shape":385,"Coordinates":[4.364963,51.83293],"Attributes":{"name":"Beylshoflaan","highway":"residential","maxspeed":"30"}},{"Shape":386,"Coordinates":[4.366881,51.83212],"Attributes":{"name":"Annie Romein-Verschoorlaan","maxspeed":"50","highway":"tertiary"}},{"Shape":387,"Coordinates":[4.365887,51.8331],"Attributes":{"name":"Marie van Zeggelenstraat","highway":"residential","maxspeed":"30"}},{"Shape":387,"Coordinates":[4.364795,51.83329],"Attributes":{"name":"Lucretia van Merkenstraat","highway":"residential","maxspeed":"30"}},{"Shape":388,"Coordinates":[4.367011,51.83223],"Attributes":{"name":"Lucretia van Merkenstraat","highway":"residential","maxspeed":"30"}},{"Shape":391,"Coordinates":[4.366846,51.83372],"Attributes":{"name":"Anke Servaesstraat","highway":"residential","maxspeed":"30"}},{"Shape":394,"Coordinates":[4.367285,51.83224],"Attributes":{"name":"Beb Vuykstraat","highway":"residential","maxspeed":"30"}},{"Shape":394,"Coordinates":[4.368437,51.83317],"Attributes":{"name":"Beb Vuykstraat","highway":"residential","maxspeed":"30"}},{"Shape":396,"Coordinates":[4.367129,51.83322],"Attributes":{"name":"Anke Servaesstraat","highway":"residential","maxspeed":"30"}},{"Shape":397,"Coordinates":[4.368081,51.83335],"Attributes":{"name":"Madelon Lulofsstraat","highway":"residential","maxspeed":"30"}},{"Shape":398,"Coordinates":[4.368303,51.83408],"Attributes":{"name":"Madelon Lulofsstraat","highway":"residential","maxspeed":"30"}},{"Shape":399,"Coordinates":[4.370059,51.83451],"Attributes":{"name":"Beb Vuykstraat","highway":"residential","maxspeed":"30"}},{"Shape":399,"Coordinates":[4.368752,51.83453],"Attributes":{"name":"Belle van Zuylenstraat","highway":"residential","maxspeed":"30"}},{"Shape":400,"Coordinates":[4.367404,51.83212],"Attributes":{"name":"Geertruida Bosboom-Toussaintlaan","maxspeed":"50","highway":"tertiary"}},{"Shape":400,"Coordinates":[4.370261,51.83447],"Attributes":{"name":"Geertruida Bosboom-Toussaintlaan","maxspeed":"50","highway":"tertiary"}},{"Shape":401,"Coordinates":[4.37044,51.83441],"Attributes":{"name":"Else van der Banstraat","highway":"residential","maxspeed":"30"}},{"Shape":401,"Coordinates":[4.370699,51.83359],"Attributes":{"name":"Belle van Zuylenstraat","highway":"residential","maxspeed":"30"}},{"Shape":402,"Coordinates":[4.368838,51.83305],"Attributes":{"name":"Else van der Banstraat","highway":"residential","maxspeed":"30"}},{"Shape":402,"Coordinates":[4.369666,51.83346],"Attributes":{"name":"Clare Lennartstraat","highway":"residential","maxspeed":"30"}},{"Shape":404,"Coordinates":[4.369786,51.8326],"Attributes":{"name":"Jeanne van Schaik-Willingstraat","highway":"residential","maxspeed":"30"}},{"Shape":405,"Coordinates":[4.367612,51.83207],"Attributes":{"name":"Else van der Banstraat","highway":"residential","maxspeed":"30"}},{"Shape":405,"Coordinates":[4.368486,51.83239],"Attributes":{"name":"Hélène Swarthstraat","highway":"residential","maxspeed":"30"}},{"Shape":407,"Coordinates":[4.367612,51.83207],"Attributes":{"name":"Else van der Banstraat","highway":"residential","maxspeed":"30"}},{"Shape":408,"Coordinates":[4.369786,51.8326],"Attributes":{"name":"Jeanne van Schaik-Willingstraat","highway":"residential","maxspeed":"30"}},{"Shape":409,"Coordinates":[4.369666,51.83346],"Attributes":{"name":"Clare Lennartstraat","highway":"residential","maxspeed":"30"}},{"Shape":410,"Coordinates":[4.37044,51.83441],"Attributes":{"name":"Else van der Banstraat","highway":"residential","maxspeed":"30"}},{"Shape":410,"Coordinates":[4.370699,51.83359],"Attributes":{"name":"Belle van Zuylenstraat","highway":"residential","maxspeed":"30"}},{"Shape":411,"Coordinates":[4.369626,51.83411],"Attributes":{"name":"Belle van Zuylenstraat","highway":"residential","maxspeed":"30"}},{"Shape":411,"Coordinates":[4.367404,51.83212],"Attributes":{"name":"Geertruida Bosboom-Toussaintlaan","maxspeed":"50","highway":"tertiary"}},{"Shape":413,"Coordinates":[4.370315,51.83495],"Attributes":{"name":"Truus Schröderstraat","highway":"unclassified","maxspeed":"30"}},{"Shape":413,"Coordinates":[4.370724,51.83487],"Attributes":{"name":"Truus Schröderstraat","highway":"unclassified","maxspeed":"30"}},{"Shape":415,"Coordinates":[4.370903,51.83588],"Attributes":{"name":"Sientje Mesdag-van Houtenstraat","highway":"residential","maxspeed":"30"}},{"Shape":415,"Coordinates":[4.370606,51.8362],"Attributes":{"name":"Geertruida Bosboom-Toussaintlaan","maxspeed":"50","highway":"tertiary"}},{"Shape":416,"Coordinates":[4.370476,51.83536],"Attributes":{"name":"Beb Vuykstraat","highway":"residential","maxspeed":"30"}},{"Shape":416,"Coordinates":[4.370326,51.83643],"Attributes":{"name":"Beb Vuykstraat","highway":"residential","maxspeed":"30"}},{"Shape":416,"Coordinates":[4.368702,51.83578],"Attributes":{"name":"Sientje Mesdag-van Houtenstraat","highway":"residential","maxspeed":"30"}}]}