{"Shape":[[4.370728,51.8366],[4.370763,51.83647],[4.370826,51.8362],[4.370903,51.83588],[4.370893,51.83534],[4.370876,51.83529],[4.370724,51.83487],[4.370527,51.83491],[4.370261,51.83447],[4.369798,51.83403],[4.369626,51.83411],[4.369594,51.83409],[4.369088,51.83369],[4.368303,51.83408],[4.367658,51.83384],[4.367596,51.83383],[4.366846,51.83372],[4.365999,51.83372],[4.365982,51.83362],[4.365999,51.83372],[4.366846,51.83372],[4.366941,51.83331],[4.367129,51.83322],[4.367483,51.83282],[4.367792,51.83266],[4.367764,51.83264],[4.367792,51.83266],[4.368437,51.83317],[4.369088,51.83369],[4.369626,51.83411],[4.369798,51.83403],[4.369971,51.83395],[4.369474,51.83356],[4.369341,51.83345],[4.368838,51.83305],[4.368187,51.83253],[4.368289,51.83248],[4.368187,51.83253],[4.368838,51.83305],[4.369474,51.83356],[4.369971,51.83395],[4.369798,51.83403],[4.370261,51.83447],[4.370527,51.83491],[4.370679,51.83535],[4.370678,51.83587],[4.370462,51.83586],[4.370457,51.83588],[4.370462,51.83586],[4.368702,51.83578],[4.367727,51.83575],[4.367046,51.8357],[4.367049,51.83558],[4.367056,51.83533],[4.367445,51.83514],[4.368117,51.83483],[4.367445,51.83514],[4.367056,51.83533],[4.367049,51.83558],[4.367046,51.8357],[4.366899,51.83581],[4.366675,51.83588],[4.366599,51.83589],[4.366416,51.83591],[4.366209,51.83587],[4.365995,51.83579],[4.365858,51.83567],[4.365098,51.83566],[4.364598,51.83564],[4.3645,51.8348],[4.364818,51.83464],[4.3645,51.8348],[4.364598,51.83564],[4.363756,51.83563],[4.363647,51.83459],[4.363661,51.83393],[4.363647,51.83459],[4.363756,51.83563],[4.363699,51.83563],[4.363351,51.83562],[4.363294,51.83529],[4.363256,51.83514],[4.362886,51.83512],[4.362876,51.8352],[4.362886,51.83512],[4.363256,51.83514],[4.363294,51.83529],[4.363351,51.83562],[4.362383,51.8356],[4.362183,51.8356],[4.362207,51.83537],[4.362295,51.83504],[4.36259,51.83456],[4.362716,51.8344],[4.362961,51.83414],[4.363196,51.83397],[4.363072,51.8339],[4.362954,51.83384],[4.362914,51.83384],[4.362954,51.83384],[4.363072,51.8339],[4.363196,51.83397],[4.362961,51.83414],[4.362716,51.8344],[4.36259,51.83456],[4.362263,51.83449],[4.36189,51.8344],[4.361663,51.83434],[4.36149,51.8343],[4.361216,51.83426],[4.360715,51.83423],[4.360428,51.83422],[4.359982,51.83422],[4.359963,51.83443],[4.359956,51.83451],[4.360041,51.83551],[4.360006,51.83558],[4.359909,51.83559],[4.359545,51.83559],[4.359371,51.83561],[4.358798,51.83573],[4.358778,51.83574],[4.358304,51.83594],[4.357912,51.83622],[4.357645,51.83656],[4.357581,51.83673],[4.357536,51.83692],[4.357599,51.83693],[4.358421,51.83695],[4.358706,51.83696],[4.359236,51.83698],[4.359298,51.83698],[4.359346,51.83698],[4.359304,51.83751],[4.359249,51.83808],[4.359207,51.83857],[4.359298,51.83863],[4.359503,51.83864],[4.359298,51.83863],[4.359207,51.83857],[4.358305,51.83854],[4.357405,51.83851],[4.35744,51.83802],[4.3567,51.838],[4.35744,51.83802],[4.357405,51.83851],[4.357304,51.83856],[4.356604,51.83854],[4.356521,51.83856],[4.356054,51.83867],[4.355865,51.83872],[4.355744,51.83854],[4.355442,51.83807],[4.355262,51.83775],[4.355149,51.83741],[4.355262,51.83775],[4.355442,51.83807],[4.354567,51.83827],[4.354502,51.83861],[4.354394,51.83879],[4.354266,51.83889],[4.353954,51.83899],[4.353641,51.83902],[4.353499,51.83899],[4.353641,51.83902],[4.353954,51.83899],[4.354266,51.83889],[4.354394,51.83879],[4.354502,51.83861],[4.354567,51.83827],[4.354431,51.83799],[4.354358,51.83789],[4.354114,51.83788],[4.353674,51.83787],[4.3535,51.83787],[4.353401,51.83786],[4.353249,51.83786],[4.353267,51.83731],[4.352183,51.83727],[4.35223,51.83674],[4.352281,51.83624],[4.352559,51.83624],[4.3527,51.83624],[4.353416,51.83625],[4.354496,51.83628],[4.354723,51.8363],[4.355241,51.83632],[4.355292,51.83623],[4.355379,51.83607],[4.355661,51.83566],[4.356078,51.83521],[4.355773,51.83496],[4.355624,51.83485],[4.35489,51.83435],[4.354307,51.83396],[4.354263,51.83387],[4.354132,51.83377],[4.353737,51.83353],[4.353667,51.83348],[4.35358,51.83342],[4.353667,51.83348],[4.353737,51.83353],[4.354132,51.83377],[4.354263,51.83387],[4.354307,51.83396],[4.354862,51.83434],[4.35489,51.83435],[4.355624,51.83485],[4.354878,51.83525],[4.354701,51.83535],[4.3546,51.83545],[4.354561,51.83556],[4.354558,51.8356],[4.354561,51.83556],[4.3546,51.83545],[4.354701,51.83535],[4.354878,51.83525],[4.355624,51.83485],[4.355773,51.83496],[4.35603,51.8348],[4.356064,51.83468],[4.356438,51.83448],[4.35656,51.83442],[4.356722,51.83442],[4.357036,51.83429],[4.357344,51.83449],[4.357435,51.83458],[4.35772,51.83448],[4.358244,51.83437],[4.358519,51.8343],[4.358867,51.83425],[4.359239,51.83422],[4.359233,51.8341],[4.359243,51.83399],[4.3593,51.8334],[4.359339,51.8329],[4.359152,51.83241],[4.359224,51.83157],[4.358534,51.83154],[4.358211,51.83153],[4.358202,51.83168],[4.358144,51.83232],[4.357605,51.83242],[4.357409,51.83244],[4.357197,51.83241],[4.3567,51.8323],[4.356502,51.83228],[4.3567,51.8323],[4.357197,51.83241],[4.357409,51.83244],[4.357605,51.83242],[4.358144,51.83232],[4.358191,51.8318],[4.358144,51.83232],[4.357605,51.83242],[4.357409,51.83244],[4.357197,51.83241],[4.3567,51.8323],[4.356392,51.83227],[4.356239,51.83227],[4.356162,51.83229],[4.356112,51.83237],[4.355743,51.83256],[4.355162,51.83287],[4.355031,51.83289],[4.354982,51.83286],[4.354829,51.83276],[4.354083,51.83223],[4.354129,51.83141],[4.354129,51.83141],[4.354129,51.83141],[4.354083,51.83223],[4.354829,51.83276],[4.354982,51.83286],[4.355031,51.83289],[4.355329,51.8331],[4.35606,51.83361],[4.35673,51.83325],[4.357482,51.83284],[4.3575,51.83284],[4.358464,51.83288],[4.359339,51.8329],[4.3593,51.8334],[4.359233,51.8341],[4.359239,51.83422],[4.359355,51.83421],[4.359982,51.83422],[4.360428,51.83422],[4.360715,51.83423],[4.361216,51.83426],[4.36149,51.8343],[4.361445,51.8344],[4.361368,51.83445],[4.361287,51.83451],[4.361287,51.83468],[4.361362,51.83472],[4.361629,51.83485],[4.36163,51.83494],[4.361629,51.83485],[4.361362,51.83472],[4.361287,51.83468],[4.361287,51.83451],[4.361368,51.83445],[4.361445,51.8344],[4.36149,51.8343],[4.361663,51.83434],[4.36189,51.8344],[4.362263,51.83449],[4.36259,51.83456],[4.362295,51.83504],[4.362207,51.83537],[4.362183,51.8356],[4.362249,51.83609],[4.362183,51.8356],[4.362,51.83559],[4.36209,51.83628],[4.362113,51.83641],[4.362199,51.83688],[4.362391,51.8378],[4.362199,51.83688],[4.362395,51.83686],[4.362588,51.83685],[4.362637,51.83716],[4.362693,51.83744],[4.362755,51.83772],[4.362759,51.83774],[4.362813,51.83805],[4.362897,51.83831],[4.362933,51.83848],[4.363002,51.83858],[4.36314,51.83867],[4.363311,51.83872],[4.363814,51.83873],[4.364505,51.83876],[4.364714,51.83876],[4.36481,51.83882],[4.366362,51.83887],[4.367903,51.83892],[4.366362,51.83887],[4.36481,51.83882],[4.364714,51.83876],[4.364704,51.83848],[4.36464,51.83818],[4.364522,51.83761],[4.364458,51.83731],[4.364371,51.83671],[4.36506,51.8367],[4.365064,51.8366],[4.36506,51.8367],[4.365823,51.83672],[4.365883,51.83719],[4.365939,51.8376],[4.365883,51.83719],[4.365823,51.83672],[4.36585,51.83667],[4.365958,51.83659],[4.366187,51.83652],[4.366364,51.83651],[4.366499,51.83652],[4.366606,51.83655],[4.366833,51.83669],[4.36686,51.83676],[4.367617,51.8368],[4.368389,51.83685],[4.368356,51.83699],[4.368389,51.83685],[4.368972,51.8369],[4.370177,51.83698],[4.370038,51.8376],[4.370005,51.83772],[4.369893,51.83816],[4.370094,51.83818],[4.36999,51.83858],[4.370255,51.83857],[4.370311,51.83854],[4.370436,51.83859],[4.370712,51.83867],[4.37106,51.83872],[4.371407,51.83873],[4.3717,51.83871],[4.372097,51.83863],[4.372175,51.83837],[4.372507,51.8371],[4.372175,51.83837],[4.372097,51.83863],[4.3717,51.83871],[4.371407,51.83873],[4.371304,51.83873],[4.37106,51.83872],[4.370712,51.83867],[4.370436,51.83859],[4.370311,51.83854],[4.370255,51.83857],[4.36999,51.83858],[4.370094,51.83818],[4.370241,51.83762],[4.3704,51.837],[4.370615,51.83702],[4.370728,51.8366]],"ShapeMeta":[{"Shape":0,"Attributes":{"profile":"car"}},{"Shape":1,"Attributes":{"name":"Else van der Banstraat","highway":"residential","maxspeed":"30","profile":"car","distance":"14.58264","time":"2.333223"}},{"Shape":3,"Attributes":{"name":"Else van der Banstraat","highway":"residential","maxspeed":"30","profile":"car","distance":"80.58264","time":"12.89322"}},{"Shape":4,"Attributes":{"name":"Else van der Banstraat","highway":"residential","maxspeed":"30","profile":"car","distance":"140.3826","time":"22.46122"}},{"Shape":5,"Attributes":{"name":"Else van der Banstraat","highway":"residential","maxspeed":"30","profile":"car","distance":"145.999","time":"23.35985"}},{"Shape":6,"Attributes":{"name":"Else van der Banstraat","highway":"residential","maxspeed":"30","profile":"car","distance":"194.5826","time":"211.1332"}},{"Shape":7,"Attributes":{"name":"Truus Schröderstraat","highway":"unclassified","maxspeed":"30","profile":"car","distance":"208.8826","time":"213.4212"}},{"Shape":9,"Attributes":{"name":"Geertruida Bosboom-Toussaintlaan","maxspeed":"50","highway":"tertiary","profile":"car","distance":"318.7826","time":"223.9716"}},{"Shape":10,"Attributes":{"name":"Belle van Zuylenstraat","highway":"residential","maxspeed":"30","profile":"car","distance":"333.5826","time":"226.3396"}},{"Shape":11,"Attributes":{"name":"Beb Vuykstraat","highway":"residential","maxspeed":"30","profile":"car","distance":"337.1285","time":"226.9069"}},{"Shape":12,"Attributes":{"name":"Beb Vuykstraat","highway":"residential","maxspeed":"30","profile":"car","distance":"393.3826","time":"415.9075"}},{"Shape":13,"Attributes":{"name":"Madelon Lulofsstraat","highway":"residential","maxspeed":"30","profile":"car","distance":"462.4826","time":"426.9635"}},{"Shape":14,"Attributes":{"name":"Madelon Lulofsstraat","highway":"residential","maxspeed":"30","profile":"car","distance":"514.1826","time":"435.2355"}},{"Shape":15,"Attributes":{"name":"Madelon Lulofsstraat","highway":"residential","maxspeed":"30","profile":"car","distance":"518.5534","time":"435.9349"}},{"Shape":16,"Attributes":{"name":"Madelon Lulofsstraat","highway":"residential","maxspeed":"30","profile":"car","distance":"571.4825","time":"624.4036"}},{"Shape":17,"Attributes":{"name":"Marie van Zeggelenstraat","highway":"residential","maxspeed":"30","profile":"car","distance":"629.5826","time":"633.6995"}},{"Shape":18,"Attributes":{"name":"Marie van Zeggelenstraat","highway":"residential","maxspeed":"30","profile":"car","distance":"640.2567","time":"635.4074"}},{"Shape":19,"Attributes":{"name":"Marie van Zeggelenstraat","highway":"residential","maxspeed":"30","profile":"car","distance":"650.9308","time":"817.1151"}},{"Shape":20,"Attributes":{"name":"Marie van Zeggelenstraat","highway":"residential","maxspeed":"30","profile":"car","distance":"709.0308","time":"826.4111"}},{"Shape":21,"Attributes":{"name":"Anke Servaesstraat","highway":"residential","maxspeed":"30","profile":"car","distance":"755.6308","time":"833.8671"}},{"Shape":24,"Attributes":{"name":"Anke Servaesstraat","highway":"residential","maxspeed":"30","profile":"car","distance":"850.0308","time":"848.9711"}},{"Shape":25,"Attributes":{"name":"Beb Vuykstraat","highway":"residential","maxspeed":"30","profile":"car","distance":"853.145","time":"849.4694"}},{"Shape":26,"Attributes":{"name":"Beb Vuykstraat","highway":"residential","maxspeed":"30","profile":"car","distance":"856.2593","time":"1029.967"}},{"Shape":27,"Attributes":{"name":"Beb Vuykstraat","highway":"residential","maxspeed":"30","profile":"car","distance":"928.3593","time":"1041.503"}},{"Shape":28,"Attributes":{"name":"Beb Vuykstraat","highway":"residential","maxspeed":"30","profile":"car","distance":"1001.259","time":"1053.167"}},{"Shape":29,"Attributes":{"name":"Beb Vuykstraat","highway":"residential","maxspeed":"30","profile":"car","distance":"1061.059","time":"1062.735"}},{"Shape":30,"Attributes":{"name":"Belle van Zuylenstraat","highway":"residential","maxspeed":"30","profile":"car","distance":"1075.859","time":"1065.103"}},{"Shape":31,"Attributes":{"name":"Belle van Zuylenstraat","highway":"residential","maxspeed":"30","profile":"car","distance":"1090.959","time":"1067.519"}},{"Shape":32,"Attributes":{"name":"Else van der Banstraat","highway":"residential","maxspeed":"30","profile":"car","distance":"1146.359","time":"1076.383"}},{"Shape":33,"Attributes":{"name":"Else van der Banstraat","highway":"residential","maxspeed":"30","profile":"car","distance":"1161.217","time":"1078.76"}},{"Shape":34,"Attributes":{"name":"Else van der Banstraat","highway":"residential","maxspeed":"30","profile":"car","distance":"1217.66","time":"1267.791"}},{"Shape":35,"Attributes":{"name":"Else van der Banstraat","highway":"residential","maxspeed":"30","profile":"car","distance":"1290.56","time":"1279.455"}},{"Shape":36,"Attributes":{"name":"Hélène Swarthstraat","highway":"residential","maxspeed":"30","profile":"car","distance":"1299.383","time":"1280.866"}},{"Shape":37,"Attributes":{"name":"Hélène Swarthstraat","highway":"residential","maxspeed":"30","profile":"car","distance":"1308.206","time":"1462.278"}},{"Shape":38,"Attributes":{"name":"Else van der Banstraat","highway":"residential","maxspeed":"30","profile":"car","distance":"1381.106","time":"1473.942"}},{"Shape":39,"Attributes":{"name":"Else van der Banstraat","highway":"residential","maxspeed":"30","profile":"car","distance":"1452.406","time":"1485.35"}},{"Shape":40,"Attributes":{"name":"Else van der Banstraat","highway":"residential","maxspeed":"30","profile":"car","distance":"1507.806","time":"1494.214"}},{"Shape":41,"Attributes":{"name":"Belle van Zuylenstraat","highway":"residential","maxspeed":"30","profile":"car","distance":"1522.906","time":"1496.63"}},{"Shape":43,"Attributes":{"name":"Geertruida Bosboom-Toussaintlaan","maxspeed":"50","highway":"tertiary","profile":"car","distance":"1632.806","time":"1507.18"}},{"Shape":45,"Attributes":{"name":"Geertruida Bosboom-Toussaintlaan","maxspeed":"50","highway":"tertiary","profile":"car","distance":"1740.706","time":"1517.538"}},{"Shape":46,"Attributes":{"name":"Sientje Mesdag-van Houtenstraat","highway":"residential","maxspeed":"30","profile":"car","distance":"1755.506","time":"1519.906"}},{"Shape":47,"Attributes":{"name":"Beb Vuykstraat","highway":"residential","maxspeed":"30","profile":"car","distance":"1758.077","time":"1520.318"}},{"Shape":48,"Attributes":{"name":"Beb Vuykstraat","highway":"residential","maxspeed":"30","profile":"car","distance":"1760.648","time":"1700.729"}},{"Shape":49,"Attributes":{"name":"Sientje Mesdag-van Houtenstraat","highway":"residential","maxspeed":"30","profile":"car","distance":"1881.848","time":"1720.121"}},{"Shape":50,"Attributes":{"name":"Sientje Mesdag-van Houtenstraat","highway":"residential","maxspeed":"30","profile":"car","distance":"1948.848","time":"1730.841"}},{"Shape":51,"Attributes":{"name":"Sientje Mesdag-van Houtenstraat","highway":"residential","maxspeed":"30","profile":"car","distance":"1995.848","time":"1738.361"}},{"Shape":55,"Attributes":{"name":"Martina Kramersstraat","highway":"residential","maxspeed":"30","profile":"car","distance":"2129.209","time":"1759.699"}},{"Shape":59,"Attributes":{"name":"Martina Kramersstraat","highway":"residential","maxspeed":"30","profile":"car","distance":"2262.57","time":"1961.037"}},{"Shape":62,"Attributes":{"name":"Sientje Mesdag-van Houtenstraat","highway":"residential","maxspeed":"30","profile":"car","distance":"2300.563","time":"1967.116"}},{"Shape":63,"Attributes":{"name":"Sientje Mesdag-van Houtenstraat","highway":"residential","maxspeed":"30","profile":"car","distance":"2313.27","time":"2149.148"}},{"Shape":66,"Attributes":{"name":"Sientje Mesdag-van Houtenstraat","highway":"residential","maxspeed":"30","profile":"car","distance":"2361.97","time":"2156.94"}},{"Shape":67,"Attributes":{"name":"Sientje Mesdag-van Houtenstraat","highway":"residential","maxspeed":"30","profile":"car","distance":"2414.17","time":"2165.292"}},{"Shape":68,"Attributes":{"name":"Sientje Mesdag-van Houtenstraat","highway":"residential","maxspeed":"30","profile":"car","distance":"2448.47","time":"2170.78"}},{"Shape":70,"Attributes":{"name":"Harriët Freezerstraat","highway":"residential","maxspeed":"30","profile":"car","distance":"2570.696","time":"2190.336"}},{"Shape":72,"Attributes":{"name":"Harriët Freezerstraat","highway":"residential","maxspeed":"30","profile":"car","distance":"2692.922","time":"2389.892"}},{"Shape":73,"Attributes":{"name":"Sientje Mesdag-van Houtenstraat","highway":"residential","maxspeed":"30","profile":"car","distance":"2750.722","time":"2399.14"}},{"Shape":75,"Attributes":{"name":"Henriëtte van der Meijstraat","highway":"residential","maxspeed":"30","profile":"car","distance":"2940.155","time":"2429.449"}},{"Shape":77,"Attributes":{"name":"Henriëtte van der Meijstraat","highway":"residential","maxspeed":"30","profile":"car","distance":"3129.588","time":"2639.758"}},{"Shape":78,"Attributes":{"name":"Sientje Mesdag-van Houtenstraat","highway":"residential","maxspeed":"30","profile":"car","distance":"3133.459","time":"2640.378"}},{"Shape":79,"Attributes":{"name":"Sientje Mesdag-van Houtenstraat","highway":"residential","maxspeed":"30","profile":"car","distance":"3157.388","time":"2824.207"}},{"Shape":80,"Attributes":{"name":"Lizzy Ansinghstraat","highway":"unclassified","maxspeed":"30","profile":"car","distance":"3194.888","time":"2830.207"}},{"Shape":81,"Attributes":{"name":"Lizzy Ansinghstraat","highway":"unclassified","maxspeed":"30","profile":"car","distance":"3211.588","time":"2832.878"}},{"Shape":83,"Attributes":{"name":"Lizzy Ansinghstraat","highway":"unclassified","maxspeed":"30","profile":"car","distance":"3245.108","time":"2838.242"}},{"Shape":85,"Attributes":{"name":"Lizzy Ansinghstraat","highway":"unclassified","maxspeed":"30","profile":"car","distance":"3278.628","time":"3023.605"}},{"Shape":86,"Attributes":{"name":"Lizzy Ansinghstraat","highway":"unclassified","maxspeed":"30","profile":"car","distance":"3295.328","time":"3026.277"}},{"Shape":87,"Attributes":{"name":"Lizzy Ansinghstraat","highway":"unclassified","maxspeed":"30","profile":"car","distance":"3332.828","time":"3032.277"}},{"Shape":88,"Attributes":{"name":"Sientje Mesdag-van Houtenstraat","highway":"residential","maxspeed":"30","profile":"car","distance":"3399.328","time":"3042.917"}},{"Shape":89,"Attributes":{"name":"Sientje Mesdag-van Houtenstraat","highway":"residential","maxspeed":"30","profile":"car","distance":"3413.028","time":"3045.109"}},{"Shape":92,"Attributes":{"name":"Annie Romein-Verschoorlaan","maxspeed":"50","highway":"tertiary","profile":"car","distance":"3532.228","time":"3056.552"}},{"Shape":93,"Attributes":{"name":"Annie Romein-Verschoorlaan","maxspeed":"50","highway":"tertiary","profile":"car","distance":"3552.728","time":"3058.52"}},{"Shape":95,"Attributes":{"name":"Annie Romein-Verschoorlaan","maxspeed":"50","highway":"tertiary","profile":"car","distance":"3611.028","time":"3064.117"}},{"Shape":97,"Attributes":{"name":"Hadewychplaats","highway":"service","profile":"car","distance":"3632.728","time":"3067.589"}},{"Shape":98,"Attributes":{"name":"Ida Gerhardtplein","highway":"service","profile":"car","distance":"3635.468","time":"3068.028"}},{"Shape":99,"Attributes":{"name":"Ida Gerhardtplein","highway":"service","profile":"car","distance":"3638.208","time":"3248.465"}},{"Shape":101,"Attributes":{"name":"Hadewychplaats","highway":"service","profile":"car","distance":"3659.908","time":"3251.938"}},{"Shape":103,"Attributes":{"name":"Annie Romein-Verschoorlaan","maxspeed":"50","highway":"tertiary","profile":"car","distance":"3718.208","time":"3257.534"}},{"Shape":104,"Attributes":{"name":"Annie Romein-Verschoorlaan","maxspeed":"50","highway":"tertiary","profile":"car","distance":"3738.708","time":"3259.502"}},{"Shape":107,"Attributes":{"name":"Joke Smitlaan","maxspeed":"50","highway":"tertiary","profile":"car","distance":"3807.108","time":"3266.069"}},{"Shape":108,"Attributes":{"name":"Joke Smitlaan","maxspeed":"50","highway":"tertiary","profile":"car","distance":"3819.508","time":"3267.259"}},{"Shape":109,"Attributes":{"name":"Joke Smitlaan","maxspeed":"50","highway":"tertiary","profile":"car","distance":"3838.908","time":"3269.121"}},{"Shape":111,"Attributes":{"name":"Joke Smitlaan","maxspeed":"50","highway":"tertiary","profile":"car","distance":"3893.208","time":"3274.334"}},{"Shape":112,"Attributes":{"name":"Joke Smitlaan","maxspeed":"50","highway":"tertiary","profile":"car","distance":"3923.808","time":"3277.272"}},{"Shape":113,"Attributes":{"name":"Clara Visserstraat","highway":"residential","maxspeed":"30","profile":"car","distance":"3947.584","time":"3281.076"}},{"Shape":116,"Attributes":{"name":"Clara Visserstraat","highway":"residential","maxspeed":"30","profile":"car","distance":"4075.308","time":"3481.512"}},{"Shape":119,"Attributes":{"name":"Wilhelmina Bladergroenstraat","highway":"residential","maxspeed":"30","profile":"car","distance":"4119.108","time":"3488.52"}},{"Shape":120,"Attributes":{"name":"Wilhelmina Bladergroenstraat","highway":"residential","maxspeed":"30","profile":"car","distance":"4160.808","time":"3495.192"}},{"Shape":121,"Attributes":{"name":"Wilhelmina Bladergroenstraat","highway":"residential","maxspeed":"30","profile":"car","distance":"4162.404","time":"3495.447"}},{"Shape":123,"Attributes":{"name":"Wilhelmina Bladergroenstraat","highway":"residential","maxspeed":"30","profile":"car","distance":"4243.308","time":"3868.392"}},{"Shape":124,"Attributes":{"name":"Wilhelmina Bladergroenstraat","highway":"residential","maxspeed":"30","profile":"car","distance":"4284.808","time":"3875.032"}},{"Shape":126,"Attributes":{"name":"Wilhelmina Bladergroenstraat","highway":"residential","maxspeed":"30","profile":"car","distance":"4325.808","time":"3881.592"}},{"Shape":127,"Attributes":{"name":"Maria Rutgers-Hoitsemastraat","highway":"residential","maxspeed":"30","profile":"car","distance":"4330.152","time":"3882.287"}},{"Shape":128,"Attributes":{"name":"Maria Rutgers-Hoitsemastraat","highway":"residential","maxspeed":"30","profile":"car","distance":"4386.708","time":"4071.336"}},{"Shape":131,"Attributes":{"name":"Maria Rutgers-Hoitsemastraat","highway":"residential","maxspeed":"30","profile":"car","distance":"4446.987","time":"4080.981"}},{"Shape":132,"Attributes":{"name":"Maria Rutgers-Hoitsemastraat","highway":"residential","maxspeed":"30","profile":"car","distance":"4450.307","time":"4261.512"}},{"Shape":133,"Attributes":{"name":"Hélène Mercierstraat","highway":"residential","maxspeed":"30","profile":"car","distance":"4509.307","time":"4270.952"}},{"Shape":134,"Attributes":{"name":"Hélène Mercierstraat","highway":"residential","maxspeed":"30","profile":"car","distance":"4572.607","time":"4281.08"}},{"Shape":135,"Attributes":{"name":"Hélène Mercierstraat","highway":"residential","maxspeed":"30","profile":"car","distance":"4627.307","time":"4289.832"}},{"Shape":137,"Attributes":{"name":"Aletta Jacobsstraat","highway":"residential","maxspeed":"30","profile":"car","distance":"4650.308","time":"4293.512"}},{"Shape":139,"Attributes":{"name":"Aletta Jacobsstraat","highway":"residential","maxspeed":"30","profile":"car","distance":"4673.309","time":"4477.192"}},{"Shape":140,"Attributes":{"name":"Aletta Jacobsstraat","highway":"residential","maxspeed":"30","profile":"car","distance":"4735.409","time":"4487.128"}},{"Shape":141,"Attributes":{"name":"Aletta Jacobsstraat","highway":"residential","maxspeed":"30","profile":"car","distance":"4797.209","time":"4497.016"}},{"Shape":142,"Attributes":{"name":"Wilhelmina Bladergroenstraat","highway":"residential","maxspeed":"30","profile":"car","distance":"4851.509","time":"4505.704"}},{"Shape":143,"Attributes":{"name":"Catharina van Tussenbroekstraat","highway":"residential","maxspeed":"30","profile":"car","distance":"4902.368","time":"4513.842"}},{"Shape":144,"Attributes":{"name":"Catharina van Tussenbroekstraat","highway":"residential","maxspeed":"30","profile":"car","distance":"4953.227","time":"4701.979"}},{"Shape":145,"Attributes":{"name":"Wilhelmina Bladergroenstraat","highway":"residential","maxspeed":"30","profile":"car","distance":"5007.527","time":"4710.667"}},{"Shape":149,"Attributes":{"name":"Aletta Jacobsstraat","highway":"residential","maxspeed":"30","profile":"car","distance":"5105.327","time":"4726.315"}},{"Shape":150,"Attributes":{"name":"Marga Klompéstraat","highway":"residential","maxspeed":"30","profile":"car","distance":"5119.327","time":"4728.555"}},{"Shape":151,"Attributes":{"name":"Suze Groenewegstraat","highway":"residential","maxspeed":"30","profile":"car","distance":"5141.736","time":"4732.141"}},{"Shape":152,"Attributes":{"name":"Suze Groenewegstraat","highway":"residential","maxspeed":"30","profile":"car","distance":"5197.827","time":"4921.116"}},{"Shape":154,"Attributes":{"name":"Suze Groenewegstraat","highway":"residential","maxspeed":"30","profile":"car","distance":"5273.156","time":"4933.168"}},{"Shape":156,"Attributes":{"name":"Suze Groenewegstraat","highway":"residential","maxspeed":"30","profile":"car","distance":"5348.485","time":"5125.221"}},{"Shape":157,"Attributes":{"name":"Johanna Engwirda-Agricolastraat","highway":"residential","maxspeed":"30","profile":"car","distance":"5412.785","time":"5135.509"}},{"Shape":163,"Attributes":{"name":"Johanna Engwirda-Agricolastraat","highway":"residential","maxspeed":"30","profile":"car","distance":"5542.089","time":"5156.197"}},{"Shape":169,"Attributes":{"name":"Johanna Engwirda-Agricolastraat","highway":"residential","maxspeed":"30","profile":"car","distance":"5671.393","time":"5356.885"}},{"Shape":172,"Attributes":{"name":"Johanna Engwirda-Agricolastraat","highway":"residential","maxspeed":"30","profile":"car","distance":"5732.993","time":"5366.742"}},{"Shape":173,"Attributes":{"name":"Johanna Engwirda-Agricolastraat","highway":"residential","maxspeed":"30","profile":"car","distance":"5763.193","time":"5371.573"}},{"Shape":174,"Attributes":{"name":"Johanna Engwirda-Agricolastraat","highway":"residential","maxspeed":"30","profile":"car","distance":"5775.137","time":"5373.484"}},{"Shape":175,"Attributes":{"name":"Johanna Engwirda-Agricolastraat","highway":"residential","maxspeed":"30","profile":"car","distance":"5781.952","time":"5554.574"}},{"Shape":176,"Attributes":{"name":"Johanna Engwirda-Agricolastraat","highway":"residential","maxspeed":"30","profile":"car","distance":"5792.393","time":"5736.245"}},{"Shape":177,"Attributes":{"name":"Carry Pothuis-Smitstraat","highway":"residential","maxspeed":"30","profile":"car","distance":"5853.893","time":"5746.085"}},{"Shape":179,"Attributes":{"name":"Wilhelmina Hofman-Pootstraat","highway":"residential","maxspeed":"30","profile":"car","distance":"5987.093","time":"5767.397"}},{"Shape":181,"Attributes":{"name":"Wilhelmina Druckerstraat","highway":"residential","maxspeed":"30","profile":"car","distance":"6062.293","time":"5779.429"}},{"Shape":182,"Attributes":{"name":"Wilhelmina Druckerstraat","highway":"residential","maxspeed":"30","profile":"car","distance":"6071.985","time":"5780.979"}},{"Shape":184,"Attributes":{"name":"Wilhelmina Druckerstraat","highway":"residential","maxspeed":"30","profile":"car","distance":"6195.393","time":"5980.724"}},{"Shape":185,"Attributes":{"name":"Wilhelmina Druckerstraat","highway":"residential","maxspeed":"30","profile":"car","distance":"6210.993","time":"5983.22"}},{"Shape":186,"Attributes":{"name":"Wilhelmina Druckerstraat","highway":"residential","maxspeed":"30","profile":"car","distance":"6246.693","time":"5988.932"}},{"Shape":187,"Attributes":{"name":"Mina Krusemanstraat","highway":"residential","maxspeed":"30","profile":"car","distance":"6257.416","time":"5990.648"}},{"Shape":190,"Attributes":{"name":"Mina Krusemanstraat","highway":"residential","maxspeed":"30","profile":"car","distance":"6383.593","time":"6190.836"}},{"Shape":191,"Attributes":{"name":"Maria Doorman-Kielstrastraat","highway":"residential","maxspeed":"30","profile":"car","distance":"6418.093","time":"6196.356"}},{"Shape":192,"Attributes":{"name":"Maria Doorman-Kielstrastraat","highway":"residential","maxspeed":"30","profile":"car","distance":"6434.093","time":"6198.917"}},{"Shape":194,"Attributes":{"name":"Maria Doorman-Kielstrastraat","highway":"residential","maxspeed":"30","profile":"car","distance":"6567.693","time":"6220.292"}},{"Shape":196,"Attributes":{"name":"Maria Doorman-Kielstrastraat","highway":"residential","maxspeed":"30","profile":"car","distance":"6592.193","time":"6224.212"}},{"Shape":197,"Attributes":{"name":"Maria Doorman-Kielstrastraat","highway":"residential","maxspeed":"30","profile":"car","distance":"6630.193","time":"6230.292"}},{"Shape":199,"Attributes":{"name":"Willemijn Posthumusstraat","highway":"residential","maxspeed":"30","profile":"car","distance":"6646.671","time":"6232.929"}},{"Shape":201,"Attributes":{"name":"Willemijn Posthumusstraat","highway":"residential","maxspeed":"30","profile":"car","distance":"6663.148","time":"6415.565"}},{"Shape":202,"Attributes":{"name":"Maria Doorman-Kielstrastraat","highway":"residential","maxspeed":"30","profile":"car","distance":"6701.148","time":"6421.646"}},{"Shape":204,"Attributes":{"name":"Maria Doorman-Kielstrastraat","highway":"residential","maxspeed":"30","profile":"car","distance":"6725.648","time":"6425.565"}},{"Shape":205,"Attributes":{"name":"Maria Doorman-Kielstrastraat","highway":"residential","maxspeed":"30","profile":"car","distance":"6782.089","time":"6434.596"}},{"Shape":207,"Attributes":{"name":"Maria Doorman-Kielstrastraat","highway":"residential","maxspeed":"30","profile":"car","distance":"6859.248","time":"6626.942"}},{"Shape":208,"Attributes":{"name":"Roosje Vosstraat","highway":"residential","maxspeed":"30","profile":"car","distance":"6927.048","time":"6637.79"}},{"Shape":209,"Attributes":{"name":"Roosje Vosstraat","highway":"residential","maxspeed":"30","profile":"car","distance":"6943.448","time":"6640.414"}},{"Shape":212,"Attributes":{"name":"Roosje Vosstraat","highway":"residential","maxspeed":"30","profile":"car","distance":"6973.54","time":"6645.229"}},{"Shape":215,"Attributes":{"name":"Roosje Vosstraat","highway":"residential","maxspeed":"30","profile":"car","distance":"7003.632","time":"6830.044"}},{"Shape":216,"Attributes":{"name":"Roosje Vosstraat","highway":"residential","maxspeed":"30","profile":"car","distance":"7020.032","time":"6832.667"}},{"Shape":217,"Attributes":{"name":"Roosje Vosstraat","highway":"residential","maxspeed":"30","profile":"car","distance":"7087.832","time":"6843.516"}},{"Shape":218,"Attributes":{"name":"Maria Doorman-Kielstrastraat","highway":"residential","maxspeed":"30","profile":"car","distance":"7103.832","time":"6846.076"}},{"Shape":221,"Attributes":{"highway":"residential","maxspeed":"30","profile":"car","distance":"7176.307","time":"6857.672"}},{"Shape":224,"Attributes":{"highway":"residential","maxspeed":"30","profile":"car","distance":"7224.633","time":"7045.403"}},{"Shape":225,"Attributes":{"name":"Etty Hillesumstraat","highway":"residential","maxspeed":"30","profile":"car","distance":"7255.433","time":"7050.331"}},{"Shape":226,"Attributes":{"name":"Etty Hillesumstraat","highway":"residential","maxspeed":"30","profile":"car","distance":"7267.333","time":"7052.235"}},{"Shape":228,"Attributes":{"name":"Joke Smitlaan","maxspeed":"50","highway":"tertiary","oneway":"yes","profile":"car","distance":"7327.933","time":"7058.053"}},{"Shape":231,"Attributes":{"name":"Joke Smitlaan","maxspeed":"50","highway":"tertiary","profile":"car","distance":"7398.433","time":"7064.821"}},{"Shape":232,"Attributes":{"name":"Anne Frankstraat","highway":"residential","maxspeed":"30","profile":"car","distance":"7411.533","time":"7066.917"}},{"Shape":233,"Attributes":{"name":"Anne Frankstraat","highway":"residential","maxspeed":"30","profile":"car","distance":"7423.427","time":"7068.82"}},{"Shape":235,"Attributes":{"name":"Anne Frankstraat","highway":"residential","maxspeed":"30","profile":"car","distance":"7545.332","time":"7268.325"}},{"Shape":237,"Attributes":{"name":"Anne Frankstraat","highway":"residential","maxspeed":"30","profile":"car","distance":"7694.132","time":"7292.133"}},{"Shape":238,"Attributes":{"name":"Anne Frankstraat","highway":"residential","maxspeed":"30","profile":"car","distance":"7741.632","time":"7299.733"}},{"Shape":239,"Attributes":{"name":"Anne Frankstraat","highway":"residential","maxspeed":"30","profile":"car","distance":"7763.832","time":"7303.285"}},{"Shape":240,"Attributes":{"name":"Petronella Brugsmastraat","highway":"residential","maxspeed":"30","profile":"car","distance":"7780.332","time":"7305.925"}},{"Shape":246,"Attributes":{"name":"Petronella Brugsmastraat","highway":"residential","maxspeed":"30","profile":"car","distance":"7969.166","time":"7336.138"}},{"Shape":252,"Attributes":{"name":"Petronella Brugsmastraat","highway":"residential","maxspeed":"30","profile":"car","distance":"8144.411","time":"7544.177"}},{"Shape":260,"Attributes":{"name":"Petronella Brugsmastraat","highway":"residential","maxspeed":"30","profile":"car","distance":"8343.722","time":"7756.066"}},{"Shape":262,"Attributes":{"name":"Mien Sneevliet-Draaijerstraat","highway":"residential","maxspeed":"30","oneway":"yes","profile":"car","distance":"8386.122","time":"7762.851"}},{"Shape":264,"Attributes":{"name":"Mien Sneevliet-Draaijerstraat","highway":"residential","maxspeed":"30","oneway":"yes","profile":"car","distance":"8448.122","time":"7772.771"}},{"Shape":265,"Attributes":{"name":"Etty Hillesumstraat","highway":"residential","maxspeed":"30","profile":"car","distance":"8453.122","time":"7773.57"}},{"Shape":269,"Attributes":{"name":"Etty Hillesumstraat","highway":"residential","maxspeed":"30","profile":"car","distance":"8637.6","time":"7803.087"}},{"Shape":273,"Attributes":{"name":"Etty Hillesumstraat","highway":"residential","maxspeed":"30","profile":"car","distance":"8822.077","time":"8012.604"}},{"Shape":274,"Attributes":{"name":"Etty Hillesumstraat","highway":"residential","maxspeed":"30","profile":"car","distance":"8827.077","time":"8013.403"}},{"Shape":275,"Attributes":{"name":"Etty Hillesumstraat","highway":"residential","maxspeed":"30","profile":"car","distance":"8857.777","time":"8018.315"}},{"Shape":276,"Attributes":{"name":"Etty Hillesumstraat","highway":"residential","maxspeed":"30","profile":"car","distance":"8933.277","time":"8030.396"}},{"Shape":277,"Attributes":{"name":"Hannie Schaftstraat","highway":"residential","maxspeed":"30","profile":"car","distance":"8994.178","time":"8040.139"}},{"Shape":279,"Attributes":{"name":"Hannie Schaftstraat","highway":"residential","maxspeed":"30","profile":"car","distance":"9064.433","time":"8051.38"}},{"Shape":280,"Attributes":{"name":"Hannie Schaftstraat","highway":"residential","maxspeed":"30","profile":"car","distance":"9130.877","time":"8242.011"}},{"Shape":281,"Attributes":{"name":"Hannie Schaftstraat","highway":"residential","maxspeed":"30","profile":"car","distance":"9190.978","time":"8251.627"}},{"Shape":283,"Attributes":{"name":"Anne Frankstraat","highway":"residential","maxspeed":"30","profile":"car","distance":"9324.777","time":"8273.035"}},{"Shape":284,"Attributes":{"name":"Anne Frankstraat","highway":"residential","maxspeed":"30","profile":"car","distance":"9337.877","time":"8275.131"}},{"Shape":285,"Attributes":{"name":"Joke Smitlaan","maxspeed":"50","highway":"tertiary","profile":"car","distance":"9345.877","time":"8275.899"}},{"Shape":286,"Attributes":{"name":"Joke Smitlaan","maxspeed":"50","highway":"tertiary","profile":"car","distance":"9388.877","time":"8280.027"}},{"Shape":287,"Attributes":{"name":"Joke Smitlaan","maxspeed":"50","highway":"tertiary","profile":"car","distance":"9419.478","time":"8282.965"}},{"Shape":289,"Attributes":{"name":"Joke Smitlaan","maxspeed":"50","highway":"tertiary","profile":"car","distance":"9473.777","time":"8288.178"}},{"Shape":290,"Attributes":{"name":"Joke Smitlaan","maxspeed":"50","highway":"tertiary","profile":"car","distance":"9493.177","time":"8290.04"}},{"Shape":291,"Attributes":{"name":"Margaretha Roosenboomstraat","highway":"residential","profile":"car","distance":"9504.577","time":"8291.134"}},{"Shape":295,"Attributes":{"name":"Margaretha Roosenboomstraat","highway":"residential","profile":"car","distance":"9546.377","time":"8295.147"}},{"Shape":296,"Attributes":{"name":"Margaretha Roosenboomstraat","highway":"residential","profile":"car","distance":"9569.677","time":"8297.384"}},{"Shape":297,"Attributes":{"name":"Margaretha Roosenboomstraat","highway":"residential","profile":"car","distance":"9579.421","time":"8298.319"}},{"Shape":298,"Attributes":{"name":"Margaretha Roosenboomstraat","highway":"residential","profile":"car","distance":"9589.165","time":"8479.255"}},{"Shape":299,"Attributes":{"name":"Margaretha Roosenboomstraat","highway":"residential","profile":"car","distance":"9612.465","time":"8481.491"}},{"Shape":303,"Attributes":{"name":"Margaretha Roosenboomstraat","highway":"residential","profile":"car","distance":"9654.265","time":"8485.504"}},{"Shape":304,"Attributes":{"name":"Margaretha Roosenboomstraat","highway":"residential","profile":"car","distance":"9665.665","time":"8486.599"}},{"Shape":305,"Attributes":{"name":"Joke Smitlaan","maxspeed":"50","highway":"tertiary","profile":"car","distance":"9678.065","time":"8487.789"}},{"Shape":308,"Attributes":{"name":"Joke Smitlaan","maxspeed":"50","highway":"tertiary","profile":"car","distance":"9746.465","time":"8494.355"}},{"Shape":311,"Attributes":{"name":"Annie Romein-Verschoorlaan","maxspeed":"50","highway":"tertiary","profile":"car","distance":"9865.665","time":"8505.799"}},{"Shape":312,"Attributes":{"name":"Annie Romein-Verschoorlaan","maxspeed":"50","highway":"tertiary","profile":"car","distance":"9920.567","time":"8511.069"}},{"Shape":313,"Attributes":{"name":"Annie Romein-Verschoorlaan","maxspeed":"50","highway":"tertiary","profile":"car","distance":"9975.47","time":"8696.34"}},{"Shape":314,"Attributes":{"name":"Marie van Regteren Altenastraat","highway":"residential","maxspeed":"30","profile":"car","distance":"9987.97","time":"8698.34"}},{"Shape":316,"Attributes":{"name":"Margaretha Roosenboomstraat","highway":"residential","maxspeed":"30","profile":"car","distance":"10078.6","time":"8712.841"}},{"Shape":317,"Attributes":{"name":"Margaretha Roosenboomstraat","highway":"residential","maxspeed":"30","profile":"car","distance":"10131.07","time":"8901.236"}},{"Shape":318,"Attributes":{"name":"Ida Wassermanstraat","highway":"residential","maxspeed":"30","profile":"car","distance":"10234.48","time":"8917.781"}},{"Shape":319,"Attributes":{"name":"Ida Wassermanstraat","highway":"residential","maxspeed":"30","profile":"car","distance":"10337.89","time":"9114.326"}},{"Shape":320,"Attributes":{"name":"Mimi Boesnachstraat","highway":"residential","maxspeed":"30","profile":"car","distance":"10351.39","time":"9116.486"}},{"Shape":321,"Attributes":{"name":"Theo Mann-Bouwmeesterstraat","highway":"residential","maxspeed":"30","profile":"car","distance":"10364.79","time":"9118.63"}},{"Shape":322,"Attributes":{"name":"Maria Kleine-Gartmanstraat","highway":"residential","maxspeed":"30","profile":"car","distance":"10400.09","time":"9124.278"}},{"Shape":323,"Attributes":{"name":"Maria Kleine-Gartmanstraat","highway":"residential","maxspeed":"30","profile":"car","distance":"10431.69","time":"9129.334"}},{"Shape":324,"Attributes":{"name":"Maria Kleine-Gartmanstraat","highway":"residential","maxspeed":"30","profile":"car","distance":"10462.89","time":"9134.326"}},{"Shape":325,"Attributes":{"name":"Maria Kleine-Gartmanstraat","highway":"residential","maxspeed":"30","profile":"car","distance":"10465.02","time":"9134.667"}},{"Shape":326,"Attributes":{"name":"Maria Kleine-Gartmanstraat","highway":"residential","maxspeed":"30","profile":"car","distance":"10499.09","time":"9320.118"}},{"Shape":327,"Attributes":{"name":"Maria Kleine-Gartmanstraat","highway":"residential","maxspeed":"30","profile":"car","distance":"10529.29","time":"9324.95"}},{"Shape":332,"Attributes":{"name":"Maria Kleine-Gartmanstraat","highway":"residential","maxspeed":"30","profile":"car","distance":"10621.29","time":"9339.67"}},{"Shape":333,"Attributes":{"name":"Maria Kleine-Gartmanstraat","highway":"residential","maxspeed":"30","profile":"car","distance":"10668.81","time":"9347.274"}},{"Shape":334,"Attributes":{"name":"Maria Kleine-Gartmanstraat","highway":"residential","maxspeed":"30","profile":"car","distance":"10683.18","time":"9529.574"}},{"Shape":337,"Attributes":{"name":"Maria Kleine-Gartmanstraat","highway":"residential","maxspeed":"30","profile":"car","distance":"10905.11","time":"9565.083"}},{"Shape":340,"Attributes":{"name":"Maria Kleine-Gartmanstraat","highway":"residential","maxspeed":"30","profile":"car","distance":"11127.04","time":"9780.592"}},{"Shape":341,"Attributes":{"name":"Esther de Boer-van Rijkstraat","highway":"residential","maxspeed":"30","profile":"car","distance":"11158.34","time":"9785.6"}},{"Shape":342,"Attributes":{"name":"Esther de Boer-van Rijkstraat","highway":"residential","maxspeed":"30","profile":"car","distance":"11192.54","time":"9791.072"}},{"Shape":343,"Attributes":{"name":"Esther de Boer-van Rijkstraat","highway":"residential","maxspeed":"30","profile":"car","distance":"11255.84","time":"9801.2"}},{"Shape":344,"Attributes":{"name":"Esther de Boer-van Rijkstraat","highway":"residential","maxspeed":"30","profile":"car","distance":"11290.04","time":"9806.672"}},{"Shape":345,"Attributes":{"name":"Esther de Boer-van Rijkstraat","highway":"residential","maxspeed":"30","profile":"car","distance":"11356.44","time":"9817.296"}},{"Shape":346,"Attributes":{"name":"Theo Mann-Bouwmeesterstraat","highway":"residential","maxspeed":"30","profile":"car","distance":"11403.74","time":"9824.864"}},{"Shape":347,"Attributes":{"name":"Suze Robertsonstraat","highway":"residential","maxspeed":"30","profile":"car","distance":"11414.35","time":"9826.561"}},{"Shape":348,"Attributes":{"name":"Suze Robertsonstraat","highway":"residential","maxspeed":"30","profile":"car","distance":"11424.96","time":"10008.26"}},{"Shape":349,"Attributes":{"name":"Theo Mann-Bouwmeesterstraat","highway":"residential","maxspeed":"30","profile":"car","distance":"11477.36","time":"10016.64"}},{"Shape":351,"Attributes":{"name":"Corrie Vonkplantsoen","highway":"residential","maxspeed":"30","profile":"car","distance":"11576.43","time":"10032.49"}},{"Shape":353,"Attributes":{"name":"Corrie Vonkplantsoen","highway":"residential","maxspeed":"30","profile":"car","distance":"11675.51","time":"10228.34"}},{"Shape":361,"Attributes":{"name":"Theo Mann-Bouwmeesterstraat","highway":"residential","maxspeed":"30","profile":"car","distance":"11769.51","time":"10243.38"}},{"Shape":362,"Attributes":{"name":"Theo Mann-Bouwmeesterstraat","highway":"residential","maxspeed":"30","profile":"car","distance":"11821.61","time":"10251.72"}},{"Shape":363,"Attributes":{"name":"Theo Mann-Bouwmeesterstraat","highway":"residential","maxspeed":"30","profile":"car","distance":"11875.01","time":"10260.26"}},{"Shape":364,"Attributes":{"name":"Top Naeffstraat","highway":"residential","maxspeed":"30","profile":"car","distance":"11890.43","time":"10262.73"}},{"Shape":365,"Attributes":{"name":"Top Naeffstraat","highway":"residential","maxspeed":"30","profile":"car","distance":"11905.85","time":"10445.2"}},{"Shape":367,"Attributes":{"name":"Theo Mann-Bouwmeesterstraat","highway":"residential","maxspeed":"30","profile":"car","distance":"12029.35","time":"10464.96"}},{"Shape":368,"Attributes":{"name":"Beb Vuykstraat","highway":"residential","maxspeed":"30","profile":"car","distance":"12099.05","time":"10476.11"}},{"Shape":369,"Attributes":{"name":"Beb Vuykstraat","highway":"residential","maxspeed":"30","profile":"car","distance":"12113.21","time":"10478.38"}},{"Shape":370,"Attributes":{"name":"Beb Vuykstraat","highway":"residential","maxspeed":"30","profile":"car","distance":"12162.55","time":"10666.27"}},{"Shape":371,"Attributes":{"name":"Maria Tesselschadestraat","highway":"residential","maxspeed":"30","profile":"car","distance":"12176.55","time":"10668.51"}},{"Shape":372,"Attributes":{"name":"Geertruida Bosboom-Toussaintlaan","maxspeed":"50","highway":"tertiary","profile":"car","distance":"12221.15","time":"10672.8"}},{"Shape":374,"Attributes":{"name":"Henriëtte Roland Holststraat","highway":"residential","maxspeed":"30","profile":"car","distance":"12244.25","time":"10676.49"}},{"Shape":380,"Attributes":{"name":"Henriëtte Roland Holststraat","highway":"residential","maxspeed":"30","profile":"car","distance":"12372.55","time":"10697.02"}},{"Shape":382,"Attributes":{"name":"Lange Groeneweg","highway":"residential","maxspeed":"30","profile":"car","distance":"12544.53","time":"10724.54"}},{"Shape":384,"Attributes":{"name":"Lange Groeneweg","highway":"residential","maxspeed":"30","profile":"car","distance":"12716.51","time":"10932.06"}},{"Shape":387,"Attributes":{"name":"Henriëtte Roland Holststraat","highway":"residential","maxspeed":"30","profile":"car","distance":"12772.49","time":"10941.01"}},{"Shape":391,"Attributes":{"name":"Henriëtte Roland Holststraat","highway":"residential","maxspeed":"30","profile":"car","distance":"12844.81","time":"11132.58"}},{"Shape":393,"Attributes":{"name":"Henriëtte Roland Holststraat","highway":"residential","maxspeed":"30","profile":"car","distance":"12867.91","time":"11136.28"}},{"Shape":394,"Attributes":{"name":"Geertruida Bosboom-Toussaintlaan","maxspeed":"50","highway":"tertiary","profile":"car","distance":"12912.51","time":"11140.56"}},{"Shape":395,"Attributes":{"name":"Geertruida Bosboom-Toussaintlaan","maxspeed":"50","highway":"tertiary","profile":"car","distance":"12976.5","time":"11146.7"}},{"Shape":396,"Attributes":{"name":"Geertruida Bosboom-Toussaintlaan","maxspeed":"50","highway":"tertiary","profile":"car","distance":"13045.61","time":"11333.33"}},{"Shape":397,"Attributes":{"name":"Theo Mann-Bouwmeesterstraat","highway":"residential","maxspeed":"30","profile":"car","distance":"13060.51","time":"11335.72"}},{"Shape":398,"Attributes":{"name":"Else van der Banstraat","highway":"residential","maxspeed":"30","profile":"car","distance":"13108.63","time":"11343.42"}}],"Stops":[{"Shape":0,"Coordinates":[4.370707,51.83658],"Attributes":{"index":"152","distance":"0","time":"0","cost_time":"180"}},{"Shape":5,"Coordinates":[4.37083,51.83531],"Attributes":{"index":"150","distance":"145.999","time":"23.35985","cost_time":"180"}},{"Shape":11,"Coordinates":[4.36964,51.83403],"Attributes":{"index":"147","distance":"337.1285","time":"226.9069","cost_time":"180"}},{"Shape":15,"Coordinates":[4.3676,51.8338],"Attributes":{"index":"145","distance":"518.5534","time":"435.9349","cost_time":"180"}},{"Shape":18,"Coordinates":[4.3661,51.8336],"Attributes":{"index":"144","distance":"640.2567","time":"635.4074","cost_time":"180"}},{"Shape":25,"Coordinates":[4.3678,51.8326],"Attributes":{"index":"146","distance":"853.145","time":"849.4694","cost_time":"180"}},{"Shape":33,"Coordinates":[4.36933,51.83347],"Attributes":{"index":"148","distance":"1161.217","time":"1078.76","cost_time":"180"}},{"Shape":36,"Coordinates":[4.3683,51.8325],"Attributes":{"index":"149","distance":"1299.383","time":"1280.866","cost_time":"180"}},{"Shape":47,"Coordinates":[4.3705,51.8359],"Attributes":{"index":"153","distance":"1758.077","time":"1520.318","cost_time":"180"}},{"Shape":55,"Coordinates":[4.3681,51.8348],"Attributes":{"index":"161","distance":"2129.209","time":"1759.699","cost_time":"180"}},{"Shape":62,"Coordinates":[4.3666,51.8359],"Attributes":{"index":"160","distance":"2300.563","time":"1967.116","cost_time":"180"}},{"Shape":70,"Coordinates":[4.3648,51.8346],"Attributes":{"index":"142","distance":"2570.696","time":"2190.336","cost_time":"180"}},{"Shape":75,"Coordinates":[4.36365,51.83393],"Attributes":{"index":"143","distance":"2940.155","time":"2429.449","cost_time":"180"}},{"Shape":78,"Coordinates":[4.3637,51.8356],"Attributes":{"index":"141","distance":"3133.459","time":"2640.378","cost_time":"180"}},{"Shape":83,"Coordinates":[4.3629,51.8352],"Attributes":{"index":"140","distance":"3245.108","time":"2838.242","cost_time":"180"}},{"Shape":98,"Coordinates":[4.362908,51.83392],"Attributes":{"index":"136","distance":"3635.468","time":"3068.028","cost_time":"180"}},{"Shape":113,"Coordinates":[4.36006,51.83444],"Attributes":{"index":"123","distance":"3947.584","time":"3281.076","cost_time":"180"}},{"Shape":121,"Coordinates":[4.3588,51.8358],"Attributes":{"index":"122","distance":"4162.404","time":"3495.447","cost_time":"180"}},{"Shape":121,"Coordinates":[4.3588,51.8358],"Attributes":{"index":"121","distance":"4162.404","time":"3675.447","cost_time":"180"}},{"Shape":127,"Coordinates":[4.3576,51.8369],"Attributes":{"index":"120","distance":"4330.152","time":"3882.287","cost_time":"180"}},{"Shape":131,"Coordinates":[4.3593,51.8369],"Attributes":{"index":"119","distance":"4446.987","time":"4080.981","cost_time":"180"}},{"Shape":137,"Coordinates":[4.3595,51.8387],"Attributes":{"index":"118","distance":"4650.308","time":"4293.512","cost_time":"180"}},{"Shape":143,"Coordinates":[4.3567,51.838],"Attributes":{"index":"117","distance":"4902.368","time":"4513.842","cost_time":"180"}},{"Shape":151,"Coordinates":[4.3558,51.8385],"Attributes":{"index":"112","distance":"5141.736","time":"4732.141","cost_time":"180"}},{"Shape":154,"Coordinates":[4.3552,51.8374],"Attributes":{"index":"116","distance":"5273.156","time":"4933.168","cost_time":"180"}},{"Shape":163,"Coordinates":[4.3535,51.839],"Attributes":{"index":"115","distance":"5542.089","time":"5156.197","cost_time":"180"}},{"Shape":174,"Coordinates":[4.3535,51.8379],"Attributes":{"index":"113","distance":"5775.137","time":"5373.484","cost_time":"180"}},{"Shape":175,"Coordinates":[4.3534,51.8379],"Attributes":{"index":"114","distance":"5781.952","time":"5554.574","cost_time":"180"}},{"Shape":182,"Coordinates":[4.3527,51.8362],"Attributes":{"index":"132","distance":"6071.985","time":"5780.979","cost_time":"180"}},{"Shape":187,"Coordinates":[4.35533,51.83625],"Attributes":{"index":"133","distance":"6257.416","time":"5990.648","cost_time":"180"}},{"Shape":199,"Coordinates":[4.3536,51.8334],"Attributes":{"index":"129","distance":"6646.671","time":"6232.929","cost_time":"180"}},{"Shape":205,"Coordinates":[4.35483,51.83439],"Attributes":{"index":"130","distance":"6782.089","time":"6434.596","cost_time":"180"}},{"Shape":212,"Coordinates":[4.3546,51.8356],"Attributes":{"index":"131","distance":"6973.54","time":"6645.229","cost_time":"180"}},{"Shape":221,"Coordinates":[4.3565,51.8346],"Attributes":{"index":"134","distance":"7176.307","time":"6857.672","cost_time":"180"}},{"Shape":233,"Coordinates":[4.3593,51.834],"Attributes":{"index":"124","distance":"7423.427","time":"7068.82","cost_time":"180"}},{"Shape":246,"Coordinates":[4.3565,51.8323],"Attributes":{"index":"126","distance":"7969.166","time":"7336.138","cost_time":"180"}},{"Shape":252,"Coordinates":[4.3582,51.8318],"Attributes":{"index":"127","distance":"8144.411","time":"7544.177","cost_time":"180"}},{"Shape":269,"Coordinates":[4.3541,51.8314],"Attributes":{"index":"128","distance":"8637.6","time":"7803.087","cost_time":"180"}},{"Shape":279,"Coordinates":[4.3575,51.83281],"Attributes":{"index":"125","distance":"9064.433","time":"8051.38","cost_time":"180"}},{"Shape":297,"Coordinates":[4.36169,51.83494],"Attributes":{"index":"135","distance":"9579.421","time":"8298.319","cost_time":"180"}},{"Shape":312,"Coordinates":[4.3622,51.8361],"Attributes":{"index":"137","distance":"9920.567","time":"8511.069","cost_time":"180"}},{"Shape":316,"Coordinates":[4.362184,51.8364],"Attributes":{"index":"139","distance":"10078.6","time":"8712.841","cost_time":"180"}},{"Shape":318,"Coordinates":[4.3624,51.8378],"Attributes":{"index":"138","distance":"10234.48","time":"8917.781","cost_time":"180"}},{"Shape":325,"Coordinates":[4.36272,51.83775],"Attributes":{"index":"157","distance":"10465.02","time":"9134.667","cost_time":"180"}},{"Shape":333,"Coordinates":[4.3645,51.8389],"Attributes":{"index":"156","distance":"10668.81","time":"9347.274","cost_time":"180"}},{"Shape":337,"Coordinates":[4.3679,51.839],"Attributes":{"index":"155","distance":"10905.11","time":"9565.083","cost_time":"180"}},{"Shape":347,"Coordinates":[4.3652,51.8366],"Attributes":{"index":"159","distance":"11414.35","time":"9826.561","cost_time":"180"}},{"Shape":351,"Coordinates":[4.366,51.8376],"Attributes":{"index":"158","distance":"11576.43","time":"10032.49","cost_time":"180"}},{"Shape":364,"Coordinates":[4.3684,51.837],"Attributes":{"index":"154","distance":"11890.43","time":"10262.73","cost_time":"180"}},{"Shape":369,"Coordinates":[4.3699,51.8377],"Attributes":{"index":"151","distance":"12113.21","time":"10478.38","cost_time":"180"}},{"Shape":382,"Coordinates":[4.3725,51.8371],"Attributes":{"index":"164","distance":"12544.53","time":"10724.54","cost_time":"180"}},{"Shape":387,"Coordinates":[4.3713,51.8388],"Attributes":{"index":"163","distance":"12772.49","time":"10941.01","cost_time":"180"}},{"Shape":395,"Coordinates":[4.3702,51.8376],"Attributes":{"index":"162","distance":"12976.5","time":"11146.7","cost_time":"180"}},{"Shape":398,"Coordinates":[4.370707,51.83658],"Attributes":{"index":"152","distance":"13108.63","time":"11343.42","cost_time":"180"}}],"Branches":[{"Shape":1,"Coordinates":[4.37202,51.83661],"Attributes":{"name":"Annie van Hattemstraat","highway":"residential","maxspeed":"30"}},{"Shape":3,"Coordinates":[4.370678,51.83587],"Attributes":{"name":"Sientje Mesdag-van Houtenstraat","highway":"residential","maxspeed":"30"}},{"Shape":3,"Coordinates":[4.372729,51.83594],"Attributes":{"name":"Sientje Mesdag-van Houtenstraat","highway":"residential","maxspeed":"30"}},{"Shape":4,"Coordinates":[4.370724,51.83487],"Attributes":{"name":"Else van der Banstraat","highway":"residential","maxspeed":"30"}},{"Shape":4,"Coordinates":[4.3717,51.8353],"Attributes":{"name":"Lotte Beesestraat","highway":"residential","maxspeed":"30"}},{"Shape":6,"Coordinates":[4.37044,51.83441],"Attributes":{"name":"Else van der Banstraat","highway":"residential","maxspeed":"30"}},{"Shape":6,"Coordinates":[4.371654,51.83469],"Attributes":{"name":"Truus Schröderstraat","highway":"residential","maxspeed":"30"}},{"Shape":7,"Coordinates":[4.370315,51.83495],"Attributes":{"name":"Truus Schröderstraat","highway":"unclassified","maxspeed":"30"}},{"Shape":7,"Coordinates":[4.370679,51.83535],"Attributes":{"name":"Geertruida Bosboom-Toussaintlaan","maxspeed":"50","highway":"tertiary"}},{"Shape":9,"Coordinates":[4.369971,51.83395],"Attributes":{"name":"Belle van Zuylenstraat","highway":"residential","maxspeed":"30"}},{"Shape":9,"Coordinates":[4.367404,51.83212],"Attributes":{"name":"Geertruida Bosboom-Toussaintlaan","maxspeed":"50","highway":"tertiary"}},{"Shape":10,"Coordinates":[4.369088,51.83369],"Attributes":{"name":"Beb Vuykstraat","highway":"residential","maxspeed":"30"}},{"Shape":10,"Coordinates":[4.370059,51.83451],"Attributes":{"name":"Beb Vuykstraat","highway":"residential","maxspeed":"30"}},{"Shape":10,"Coordinates":[4.368752,51.83453],"Attributes":{"name":"Belle van Zuylenstraat","highway":"residential","maxspeed":"30"}},{"Shape":12,"Coordinates":[4.368437,51.83317],"Attributes":{"name":"Beb Vuykstraat","highway":"residential","maxspeed":"30"}},{"Shape":13,"Coordinates":[4.3685,51.8342],"Attributes":{"name":"Madelon Lulofsstraat","highway":"residential","maxspeed":"30"}},{"Shape":14,"Coordinates":[4.366846,51.83372],"Attributes":{"name":"Madelon Lulofsstraat","highway":"residential","maxspeed":"30"}},{"Shape":14,"Coordinates":[4.368081,51.83335],"Attributes":{"name":"Madelon Lulofsstraat","highway":"residential","maxspeed":"30"}},{"Shape":16,"Coordinates":[4.366941,51.83331],"Attributes":{"name":"Anke Servaesstraat","highway":"residential","maxspeed":"30"}},{"Shape":17,"Coordinates":[4.365298,51.83384],"Attributes":{"name":"Marie van Zeggelenstraat","highway":"residential","maxspeed":"30"}},{"Shape":17,"Coordinates":[4.365887,51.8331],"Attributes":{"name":"Marie van Zeggelenstraat","highway":"residential","maxspeed":"30"}},{"Shape":19,"Coordinates":[4.365298,51.83384],"Attributes":{"name":"Marie van Zeggelenstraat","highway":"residential","maxspeed":"30"}},{"Shape":20,"Coordinates":[4.367658,51.83384],"Attributes":{"name":"Madelon Lulofsstraat","highway":"residential","maxspeed":"30"}},{"Shape":21,"Coordinates":[4.366681,51.83285],"Attributes":{"name":"Anke Servaesstraat","highway":"residential","maxspeed":"30"}},{"Shape":24,"Coordinates":[4.367285,51.83224],"Attributes":{"name":"Beb Vuykstraat","highway":"residential","maxspeed":"30"}},{"Shape":24,"Coordinates":[4.368437,51.83317],"Attributes":{"name":"Beb Vuykstraat","highway":"residential","maxspeed":"30"}},{"Shape":26,"Coordinates":[4.367129,51.83322],"Attributes":{"name":"Anke Servaesstraat","highway":"residential","maxspeed":"30"}},{"Shape":27,"Coordinates":[4.368081,51.83335],"Attributes":{"name":"Madelon Lulofsstraat","highway":"residential","maxspeed":"30"}},{"Shape":28,"Coordinates":[4.368303,51.83408],"Attributes":{"name":"Madelon Lulofsstraat","highway":"residential","maxspeed":"30"}},{"Shape":29,"Coordinates":[4.370059,51.83451],"Attributes":{"name":"Beb Vuykstraat","highway":"residential","maxspeed":"30"}},{"Shape":29,"Coordinates":[4.368752,51.83453],"Attributes":{"name":"Belle van Zuylenstraat","highway":"residential","maxspeed":"30"}},{"Shape":30,"Coordinates":[4.367404,51.83212],"Attributes":{"name":"Geertruida Bosboom-Toussaintlaan","maxspeed":"50","highway":"tertiary"}},{"Shape":30,"Coordinates":[4.370261,51.83447],"Attributes":{"name":"Geertruida Bosboom-Toussaintlaan","maxspeed":"50","highway":"tertiary"}},{"Shape":31,"Coordinates":[4.37044,51.83441],"Attributes":{"name":"Else van der Banstraat","highway":"residential","maxspeed":"30"}},{"Shape":31,"Coordinates":[4.370699,51.83359],"Attributes":{"name":"Belle van Zuylenstraat","highway":"residential","maxspeed":"30"}},{"Shape":32,"Coordinates":[4.368838,51.83305],"Attributes":{"name":"Else van der Banstraat","highway":"residential","maxspeed":"30"}},{"Shape":32,"Coordinates":[4.369666,51.83346],"Attributes":{"name":"Clare Lennartstraat","highway":"residential","maxspeed":"30"}},{"Shape":34,"Coordinates":[4.369786,51.8326],"Attributes":{"name":"Jeanne van Schaik-Willingstraat","highway":"residential","maxspeed":"30"}},{"Shape":35,"Coordinates":[4.367612,51.83207],"Attributes":{"name":"Else van der Banstraat","highway":"residential","maxspeed":"30"}},{"Shape":35,"Coordinates":[4.368486,51.83239],"Attributes":{"name":"Hélène Swarthstraat","highway":"residential","maxspeed":"30"}},{"Shape":37,"Coordinates":[4.367612,51.83207],"Attributes":{"name":"Else van der Banstraat","highway":"residential","maxspeed":"30"}},{"Shape":38,"Coordinates":[4.369786,51.8326],"Attributes":{"name":"Jeanne van Schaik-Willingstraat","highway":"residential","maxspeed":"30"}},{"Shape":39,"Coordinates":[4.369666,51.83346],"Attributes":{"name":"Clare Lennartstraat","highway":"residential","maxspeed":"30"}},{"Shape":40,"Coordinates":[4.37044,51.83441],"Attributes":{"name":"Else van der Banstraat","highway":"residential","maxspeed":"30"}},{"Shape":40,"Coordinates":[4.370699,51.83359],"Attributes":{"name":"Belle van Zuylenstraat","highway":"residential","maxspeed":"30"}},{"Shape":41,"Coordinates":[4.369626,51.83411],"Attributes":{"name":"Belle van Zuylenstraat","highway":"residential","maxspeed":"30"}},{"Shape":41,"Coordinates":[4.367404,51.83212],"Attributes":{"name":"Geertruida Bosboom-Toussaintlaan","maxspeed":"50","highway":"tertiary"}},{"Shape":43,"Coordinates":[4.370315,51.83495],"Attributes":{"name":"Truus Schröderstraat","highway":"unclassified","maxspeed":"30"}},{"Shape":43,"Coordinates":[4.370724,51.83487],"Attributes":{"name":"Truus Schröderstraat","highway":"unclassified","maxspeed":"30"}},{"Shape":45,"Coordinates":[4.370903,51.83588],"Attributes":{"name":"Sientje Mesdag-van Houtenstraat","highway":"residential","maxspeed":"30"}},{"Shape":45,"Coordinates":[4.370606,51.8362],"Attributes":{"name":"Geertruida Bosboom-Toussaintlaan","maxspeed":"50","highway":"tertiary"}},{"Shape":46,"Coordinates":[4.370476,51.83536],"Attributes":{"name":"Beb Vuykstraat","highway":"residential","maxspeed":"30"}},{"Shape":46,"Coordinates":[4.370326,51.83643],"Attributes":{"name":"Beb Vuykstraat","highway":"residential","maxspeed":"30"}},{"Shape":46,"Coordinates":[4.368702,51.83578],"Attributes":{"name":"Sientje Mesdag-van Houtenstraat","highway":"residential","maxspeed":"30"}},{"Shape":48,"Coordinates":[4.370476,51.83536],"Attributes":{"name":"Beb Vuykstraat","highway":"residential","maxspeed":"30"}},{"Shape":48,"Coordinates":[4.370678,51.83587],"Attributes":{"name":"Sientje Mesdag-van Houtenstraat","highway":"residential","maxspeed":"30"}},{"Shape":49,"Coordinates":[4.3684,51.835],"Attributes":{"name":"Harriët Freezerstraat","highway":"residential","maxspeed":"30"}},{"Shape":50,"Coordinates":[4.367617,51.8368],"Attributes":{"name":"Rosa Spierstraat","highway":"residential","maxspeed":"30"}},{"Shape":51,"Coordinates":[4.366899,51.83581],"Attributes":{"name":"Sientje Mesdag-van Houtenstraat","highway":"residential","maxspeed":"30"}},{"Shape":51,"Coordinates":[4.367445,51.83514],"Attributes":{"name":"Martina Kramersstraat","highway":"residential","maxspeed":"30"}},{"Shape":59,"Coordinates":[4.367727,51.83575],"Attributes":{"name":"Sientje Mesdag-van Houtenstraat","highway":"residential","maxspeed":"30"}},{"Shape":59,"Coordinates":[4.366899,51.83581],"Attributes":{"name":"Sientje Mesdag-van Houtenstraat","highway":"residential","maxspeed":"30"}},{"Shape":66,"Coordinates":[4.365564,51.83504],"Attributes":{"name":"Emmy Belinfantestraat","highway":"residential","maxspeed":"30"}},{"Shape":67,"Coordinates":[4.36506,51.8367],"Attributes":{"name":"Suze Robertsonstraat","highway":"residential","maxspeed":"30"}},{"Shape":68,"Coordinates":[4.363756,51.83563],"Attributes":{"name":"Sientje Mesdag-van Houtenstraat","highway":"residential","maxspeed":"30"}},{"Shape":68,"Coordinates":[4.3645,51.8348],"Attributes":{"name":"Harriët Freezerstraat","highway":"residential","maxspeed":"30"}},{"Shape":72,"Coordinates":[4.365098,51.83566],"Attributes":{"name":"Sientje Mesdag-van Houtenstraat","highway":"residential","maxspeed":"30"}},{"Shape":73,"Coordinates":[4.363351,51.83562],"Attributes":{"name":"Sientje Mesdag-van Houtenstraat","highway":"residential","maxspeed":"30"}},{"Shape":73,"Coordinates":[4.36375,51.83378],"Attributes":{"name":"Henriëtte van der Meijstraat","highway":"residential","maxspeed":"30"}},{"Shape":77,"Coordinates":[4.363351,51.83562],"Attributes":{"name":"Sientje Mesdag-van Houtenstraat","highway":"residential","maxspeed":"30"}},{"Shape":77,"Coordinates":[4.364598,51.83564],"Attributes":{"name":"Sientje Mesdag-van Houtenstraat","highway":"residential","maxspeed":"30"}},{"Shape":79,"Coordinates":[4.362383,51.8356],"Attributes":{"name":"Sientje Mesdag-van Houtenstraat","highway":"residential","maxspeed":"30"}},{"Shape":80,"Coordinates":[4.362867,51.83527],"Attributes":{"name":"Lizzy Ansinghstraat","highway":"unclassified","maxspeed":"30"}},{"Shape":81,"Coordinates":[4.362886,51.83512],"Attributes":{"name":"Lizzy Ansinghstraat","highway":"unclassified","maxspeed":"30"}},{"Shape":86,"Coordinates":[4.362867,51.83527],"Attributes":{"name":"Lizzy Ansinghstraat","highway":"unclassified","maxspeed":"30"}},{"Shape":87,"Coordinates":[4.363756,51.83563],"Attributes":{"name":"Sientje Mesdag-van Houtenstraat","highway":"residential","maxspeed":"30"}},{"Shape":88,"Coordinates":[4.362482,51.83507],"Attributes":{"name":"Lizzy Ansinghstraat","highway":"residential","maxspeed":"30"}},{"Shape":88,"Coordinates":[4.362459,51.83624],"Attributes":{"name":"Lizzy Ansinghstraat","highway":"residential","maxspeed":"30"}},{"Shape":89,"Coordinates":[4.362,51.83559],"Attributes":{"name":"Marie van Regteren Altenastraat","highway":"residential","maxspeed":"30"}},{"Shape":89,"Coordinates":[4.362269,51.83624],"Attributes":{"name":"Annie Romein-Verschoorlaan","maxspeed":"50","highway":"tertiary"}},{"Shape":92,"Coordinates":[4.362263,51.83449],"Attributes":{"name":"Joke Smitlaan","maxspeed":"50","highway":"tertiary"}},{"Shape":95,"Coordinates":[4.363766,51.83361],"Attributes":{"name":"Annie Romein-Verschoorlaan","maxspeed":"50","highway":"tertiary"}},{"Shape":97,"Coordinates":[4.362726,51.83382],"Attributes":{"name":"Ida Gerhardtplein","highway":"service"}},{"Shape":97,"Coordinates":[4.363036,51.83369],"Attributes":{"name":"Ida Gerhardtplein","highway":"service"}},{"Shape":99,"Coordinates":[4.363036,51.83369],"Attributes":{"name":"Ida Gerhardtplein","highway":"service"}},{"Shape":101,"Coordinates":[4.363766,51.83361],"Attributes":{"name":"Annie Romein-Verschoorlaan","maxspeed":"50","highway":"tertiary"}},{"Shape":104,"Coordinates":[4.362295,51.83504],"Attributes":{"name":"Annie Romein-Verschoorlaan","maxspeed":"50","highway":"tertiary"}},{"Shape":108,"Coordinates":[4.361445,51.8344],"Attributes":{"name":"Margaretha Roosenboomstraat","highway":"residential"}},{"Shape":109,"Coordinates":[4.361255,51.83418],"Attributes":{"name":"Hadewychplaats","highway":"service"}},{"Shape":111,"Coordinates":[4.36026,51.83197],"Attributes":{"name":"Drogendijk","highway":"unclassified","maxspeed":"30"}},{"Shape":111,"Coordinates":[4.360504,51.83558],"Attributes":{"name":"Drogendijk","highway":"unclassified","maxspeed":"30"}},{"Shape":112,"Coordinates":[4.359956,51.83451],"Attributes":{"name":"Clara Visserstraat","highway":"residential","maxspeed":"30"}},{"Shape":112,"Coordinates":[4.359355,51.83421],"Attributes":{"name":"Joke Smitlaan","maxspeed":"50","highway":"tertiary"}},{"Shape":119,"Coordinates":[4.359009,51.83457],"Attributes":{"name":"Annie Mankes-Zernikestraat","highway":"residential","maxspeed":"30"}},{"Shape":120,"Coordinates":[4.358304,51.83594],"Attributes":{"name":"Wilhelmina Bladergroenstraat","highway":"residential","maxspeed":"30"}},{"Shape":120,"Coordinates":[4.358029,51.83479],"Attributes":{"name":"Anna Storm-van der Chijsstraat","highway":"residential","maxspeed":"30"}},{"Shape":123,"Coordinates":[4.356453,51.83565],"Attributes":{"name":"Johanna Westerdijkstraat","highway":"residential","maxspeed":"30"}},{"Shape":124,"Coordinates":[4.356021,51.83622],"Attributes":{"name":"Lau Mazirelstraat","highway":"residential","maxspeed":"30"}},{"Shape":126,"Coordinates":[4.357479,51.83744],"Attributes":{"name":"Wilhelmina Bladergroenstraat","highway":"residential","maxspeed":"30"}},{"Shape":126,"Coordinates":[4.358421,51.83695],"Attributes":{"name":"Maria Rutgers-Hoitsemastraat","highway":"residential","maxspeed":"30"}},{"Shape":128,"Coordinates":[4.358305,51.83854],"Attributes":{"name":"Mary Zeldenrust-Noordanusstraat","highway":"residential","maxspeed":"30"}},{"Shape":128,"Coordinates":[4.358706,51.83696],"Attributes":{"name":"Maria Rutgers-Hoitsemastraat","highway":"residential","maxspeed":"30"}},{"Shape":132,"Coordinates":[4.360314,51.83701],"Attributes":{"name":"Maria Rutgers-Hoitsemastraat","highway":"residential","maxspeed":"30"}},{"Shape":133,"Coordinates":[4.360465,51.83755],"Attributes":{"name":"Liesbeth Tilanusstraat","highway":"residential","maxspeed":"30"}},{"Shape":134,"Coordinates":[4.36062,51.83812],"Attributes":{"name":"Cornelia de Langestraat","highway":"residential","maxspeed":"30"}},{"Shape":135,"Coordinates":[4.358305,51.83854],"Attributes":{"name":"Aletta Jacobsstraat","highway":"residential","maxspeed":"30"}},{"Shape":135,"Coordinates":[4.359298,51.83863],"Attributes":{"name":"Aletta Jacobsstraat","highway":"residential","maxspeed":"30"}},{"Shape":139,"Coordinates":[4.359249,51.83808],"Attributes":{"name":"Hélène Mercierstraat","highway":"residential","maxspeed":"30"}},{"Shape":140,"Coordinates":[4.358421,51.83695],"Attributes":{"name":"Mary Zeldenrust-Noordanusstraat","highway":"residential","maxspeed":"30"}},{"Shape":141,"Coordinates":[4.356521,51.83856],"Attributes":{"name":"Aletta Jacobsstraat","highway":"residential","maxspeed":"30"}},{"Shape":142,"Coordinates":[4.357479,51.83744],"Attributes":{"name":"Wilhelmina Bladergroenstraat","highway":"residential","maxspeed":"30"}},{"Shape":142,"Coordinates":[4.356625,51.83799],"Attributes":{"name":"Catharina van Tussenbroekstraat","highway":"residential","maxspeed":"30"}},{"Shape":144,"Coordinates":[4.357479,51.83744],"Attributes":{"name":"Wilhelmina Bladergroenstraat","highway":"residential","maxspeed":"30"}},{"Shape":145,"Coordinates":[4.358305,51.83854],"Attributes":{"name":"Aletta Jacobsstraat","highway":"residential","maxspeed":"30"}},{"Shape":149,"Coordinates":[4.355722,51.83817],"Attributes":{"name":"Joke Smitlaan","maxspeed":"50","highway":"tertiary"}},{"Shape":149,"Coordinates":[4.356095,51.83873],"Attributes":{"name":"Joke Smitlaan","maxspeed":"50","highway":"tertiary"}},{"Shape":150,"Coordinates":[4.355413,51.83882],"Attributes":{"name":"Marga Klompéstraat","highway":"residential","maxspeed":"30"}},{"Shape":150,"Coordinates":[4.355442,51.83807],"Attributes":{"name":"Suze Groenewegstraat","highway":"residential","maxspeed":"30"}},{"Shape":152,"Coordinates":[4.355262,51.83775],"Attributes":{"name":"Suze Groenewegstraat","highway":"residential","maxspeed":"30"}},{"Shape":152,"Coordinates":[4.354567,51.83827],"Attributes":{"name":"Johanna Engwirda-Agricolastraat","highway":"residential","maxspeed":"30"}},{"Shape":156,"Coordinates":[4.355865,51.83872],"Attributes":{"name":"Suze Groenewegstraat","highway":"residential","maxspeed":"30"}},{"Shape":157,"Coordinates":[4.354358,51.83789],"Attributes":{"name":"Johanna Engwirda-Agricolastraat","highway":"residential","maxspeed":"30"}},{"Shape":157,"Coordinates":[4.354502,51.83861],"Attributes":{"name":"Johanna Engwirda-Agricolastraat","highway":"residential","maxspeed":"30"}},{"Shape":169,"Coordinates":[4.355442,51.83807],"Attributes":{"name":"Johanna Engwirda-Agricolastraat","highway":"residential","maxspeed":"30"}},{"Shape":172,"Coordinates":[4.354056,51.83848],"Attributes":{"name":"Liesbeth Ribbius Peletierpad","highway":"residential","maxspeed":"30"}},{"Shape":173,"Coordinates":[4.353249,51.83786],"Attributes":{"name":"Johanna Engwirda-Agricolastraat","highway":"residential","maxspeed":"30"}},{"Shape":173,"Coordinates":[4.353606,51.83847],"Attributes":{"name":"Anna de Waalpad","highway":"residential","maxspeed":"30"}},{"Shape":176,"Coordinates":[4.353225,51.83834],"Attributes":{"name":"Carry Pothuis-Smitstraat","highway":"residential","maxspeed":"30"}},{"Shape":176,"Coordinates":[4.352627,51.83785],"Attributes":{"name":"Truus Smulders-Beliënstraat","highway":"residential","maxspeed":"30"}},{"Shape":177,"Coordinates":[4.354631,51.83735],"Attributes":{"name":"Wilhelmina Hofman-Pootstraat","highway":"residential","maxspeed":"30"}},{"Shape":181,"Coordinates":[4.353416,51.83625],"Attributes":{"name":"Wilhelmina Druckerstraat","highway":"residential","maxspeed":"30"}},{"Shape":181,"Coordinates":[4.352559,51.83601],"Attributes":{"name":"Annette Versluys-Poelmanstraat","highway":"residential","maxspeed":"30"}},{"Shape":184,"Coordinates":[4.354549,51.83569],"Attributes":{"name":"Roosje Vosstraat","highway":"residential","maxspeed":"30"}},{"Shape":185,"Coordinates":[4.35471,51.83656],"Attributes":{"highway":"residential","maxspeed":"30"}},{"Shape":186,"Coordinates":[4.355383,51.83632],"Attributes":{"name":"Wilhelmina Druckerstraat","highway":"residential","maxspeed":"30"}},{"Shape":186,"Coordinates":[4.355661,51.83566],"Attributes":{"name":"Mina Krusemanstraat","highway":"residential","maxspeed":"30"}},{"Shape":190,"Coordinates":[4.35621,51.83526],"Attributes":{"name":"Maria Doorman-Kielstrastraat","highway":"residential","maxspeed":"30"}},{"Shape":191,"Coordinates":[4.356722,51.83442],"Attributes":{"highway":"residential","maxspeed":"30"}},{"Shape":192,"Coordinates":[4.354878,51.83525],"Attributes":{"name":"Roosje Vosstraat","highway":"residential","maxspeed":"30"}},{"Shape":194,"Coordinates":[4.353589,51.83436],"Attributes":{"name":"Annette Versluys-Poelmanstraat","highway":"residential","maxspeed":"30"}},{"Shape":196,"Coordinates":[4.355028,51.83327],"Attributes":{"highway":"residential","maxspeed":"30"}},{"Shape":197,"Coordinates":[4.353489,51.83369],"Attributes":{"name":"Johanna Naberstraat","highway":"residential","maxspeed":"30"}},{"Shape":197,"Coordinates":[4.353667,51.83348],"Attributes":{"name":"Willemijn Posthumusstraat","highway":"residential","maxspeed":"30"}},{"Shape":197,"Coordinates":[4.354767,51.83298],"Attributes":{"name":"Mien Sneevliet-Draaijerstraat","highway":"residential","maxspeed":"30"}},{"Shape":201,"Coordinates":[4.353489,51.83369],"Attributes":{"name":"Johanna Naberstraat","highway":"residential","maxspeed":"30"}},{"Shape":201,"Coordinates":[4.354767,51.83298],"Attributes":{"name":"Mien Sneevliet-Draaijerstraat","highway":"residential","maxspeed":"30"}},{"Shape":202,"Coordinates":[4.355028,51.83327],"Attributes":{"highway":"residential","maxspeed":"30"}},{"Shape":204,"Coordinates":[4.353589,51.83436],"Attributes":{"name":"Annette Versluys-Poelmanstraat","highway":"residential","maxspeed":"30"}},{"Shape":204,"Coordinates":[4.35489,51.83435],"Attributes":{"name":"Maria Doorman-Kielstrastraat","highway":"residential","maxspeed":"30"}},{"Shape":207,"Coordinates":[4.355773,51.83496],"Attributes":{"name":"Maria Doorman-Kielstrastraat","highway":"residential","maxspeed":"30"}},{"Shape":208,"Coordinates":[4.3546,51.8357],"Attributes":{"name":"Roosje Vosstraat","highway":"residential","maxspeed":"30"}},{"Shape":208,"Coordinates":[4.354136,51.83476],"Attributes":{"name":"Theodora Haverstraat","highway":"residential","maxspeed":"30"}},{"Shape":209,"Coordinates":[4.3546,51.83545],"Attributes":{"name":"Roosje Vosstraat","highway":"residential","maxspeed":"30"}},{"Shape":216,"Coordinates":[4.3546,51.8357],"Attributes":{"name":"Roosje Vosstraat","highway":"residential","maxspeed":"30"}},{"Shape":216,"Coordinates":[4.354136,51.83476],"Attributes":{"name":"Theodora Haverstraat","highway":"residential","maxspeed":"30"}},{"Shape":217,"Coordinates":[4.35489,51.83435],"Attributes":{"name":"Maria Doorman-Kielstrastraat","highway":"residential","maxspeed":"30"}},{"Shape":218,"Coordinates":[4.356078,51.83521],"Attributes":{"name":"Maria Doorman-Kielstrastraat","highway":"residential","maxspeed":"30"}},{"Shape":218,"Coordinates":[4.356722,51.83442],"Attributes":{"highway":"residential","maxspeed":"30"}},{"Shape":224,"Coordinates":[4.356118,51.83365],"Attributes":{"name":"Etty Hillesumstraat","highway":"residential","maxspeed":"30"}},{"Shape":225,"Coordinates":[4.358588,51.83418],"Attributes":{"name":"Mies van Oort-Laustraat","highway":"residential","maxspeed":"30"}},{"Shape":226,"Coordinates":[4.357471,51.83462],"Attributes":{"name":"Etty Hillesumstraat","highway":"residential","maxspeed":"30"}},{"Shape":226,"Coordinates":[4.356462,51.83506],"Attributes":{"name":"Joke Smitlaan","maxspeed":"50","highway":"tertiary","oneway":"yes"}},{"Shape":228,"Coordinates":[4.358017,51.83445],"Attributes":{"name":"Joke Smitlaan","maxspeed":"50","highway":"tertiary","oneway":"yes"}},{"Shape":231,"Coordinates":[4.359355,51.83421],"Attributes":{"name":"Joke Smitlaan","maxspeed":"50","highway":"tertiary"}},{"Shape":232,"Coordinates":[4.3593,51.8334],"Attributes":{"name":"Anne Frankstraat","highway":"residential","maxspeed":"30"}},{"Shape":232,"Coordinates":[4.358588,51.83418],"Attributes":{"name":"Mies van Oort-Laustraat","highway":"residential","maxspeed":"30"}},{"Shape":235,"Coordinates":[4.358464,51.83288],"Attributes":{"name":"Hannie Schaftstraat","highway":"residential","maxspeed":"30"}},{"Shape":237,"Coordinates":[4.35925,51.83126],"Attributes":{"name":"Anne Frankstraat","highway":"residential","maxspeed":"30"}},{"Shape":238,"Coordinates":[4.35855,51.83125],"Attributes":{"name":"Anne Frankstraat","highway":"residential","maxspeed":"30"}},{"Shape":239,"Coordinates":[4.35819,51.83139],"Attributes":{"name":"Petronella Brugsmastraat","highway":"residential","maxspeed":"30"}},{"Shape":240,"Coordinates":[4.358144,51.83232],"Attributes":{"name":"Petronella Brugsmastraat","highway":"residential","maxspeed":"30"}},{"Shape":240,"Coordinates":[4.357997,51.83171],"Attributes":{"name":"Zuster Reichertstraat","highway":"residential","maxspeed":"30"}},{"Shape":260,"Coordinates":[4.356006,51.83215],"Attributes":{"name":"Petronella Brugsmastraat","highway":"residential","maxspeed":"30"}},{"Shape":260,"Coordinates":[4.35604,51.83231],"Attributes":{"name":"Mien Sneevliet-Draaijerstraat","highway":"residential","maxspeed":"30","oneway":"yes"}},{"Shape":262,"Coordinates":[4.355672,51.83251],"Attributes":{"name":"Mia van der Wall-Duyvendakstraat","highway":"residential","maxspeed":"30"}},{"Shape":262,"Coordinates":[4.35673,51.83325],"Attributes":{"name":"Jacoba Pulskensstraat","highway":"residential","maxspeed":"30"}},{"Shape":264,"Coordinates":[4.355329,51.8331],"Attributes":{"name":"Etty Hillesumstraat","highway":"residential","maxspeed":"30"}},{"Shape":264,"Coordinates":[4.355093,51.83282],"Attributes":{"name":"Mien Sneevliet-Draaijerstraat","highway":"residential","maxspeed":"30","oneway":"yes"}},{"Shape":265,"Coordinates":[4.354129,51.83141],"Attributes":{"name":"Etty Hillesumstraat","highway":"residential","maxspeed":"30"}},{"Shape":265,"Coordinates":[4.354767,51.83298],"Attributes":{"name":"Mien Sneevliet-Draaijerstraat","highway":"residential","maxspeed":"30"}},{"Shape":273,"Coordinates":[4.354767,51.83298],"Attributes":{"name":"Mien Sneevliet-Draaijerstraat","highway":"residential","maxspeed":"30"}},{"Shape":274,"Coordinates":[4.355162,51.83287],"Attributes":{"name":"Mien Sneevliet-Draaijerstraat","highway":"residential","maxspeed":"30","oneway":"yes"}},{"Shape":274,"Coordinates":[4.355093,51.83282],"Attributes":{"name":"Mien Sneevliet-Draaijerstraat","highway":"residential","maxspeed":"30","oneway":"yes"}},{"Shape":275,"Coordinates":[4.355028,51.83327],"Attributes":{"highway":"residential","maxspeed":"30"}},{"Shape":276,"Coordinates":[4.356118,51.83365],"Attributes":{"name":"Etty Hillesumstraat","highway":"residential","maxspeed":"30"}},{"Shape":277,"Coordinates":[4.355743,51.83256],"Attributes":{"name":"Jacoba Pulskensstraat","highway":"residential","maxspeed":"30"}},{"Shape":277,"Coordinates":[4.357482,51.83284],"Attributes":{"name":"Hannie Schaftstraat","highway":"residential","maxspeed":"30"}},{"Shape":277,"Coordinates":[4.35724,51.83361],"Attributes":{"name":"Trix Terwindtstraat","highway":"residential","maxspeed":"30"}},{"Shape":280,"Coordinates":[4.358418,51.83335],"Attributes":{"name":"Trix Terwindtstraat","highway":"residential","maxspeed":"30"}},{"Shape":281,"Coordinates":[4.359152,51.83241],"Attributes":{"name":"Anne Frankstraat","highway":"residential","maxspeed":"30"}},{"Shape":283,"Coordinates":[4.358588,51.83418],"Attributes":{"name":"Mies van Oort-Laustraat","highway":"residential","maxspeed":"30"}},{"Shape":284,"Coordinates":[4.358867,51.83425],"Attributes":{"name":"Joke Smitlaan","maxspeed":"50","highway":"tertiary"}},{"Shape":286,"Coordinates":[4.359956,51.83451],"Attributes":{"name":"Clara Visserstraat","highway":"residential","maxspeed":"30"}},{"Shape":287,"Coordinates":[4.36026,51.83197],"Attributes":{"name":"Drogendijk","highway":"unclassified","maxspeed":"30"}},{"Shape":287,"Coordinates":[4.360504,51.83558],"Attributes":{"name":"Drogendijk","highway":"unclassified","maxspeed":"30"}},{"Shape":289,"Coordinates":[4.361255,51.83418],"Attributes":{"name":"Hadewychplaats","highway":"service"}},{"Shape":290,"Coordinates":[4.361663,51.83434],"Attributes":{"name":"Joke Smitlaan","maxspeed":"50","highway":"tertiary"}},{"Shape":291,"Coordinates":[4.361462,51.83443],"Attributes":{"name":"Margaretha Roosenboomstraat","highway":"residential","maxspeed":"30"}},{"Shape":295,"Coordinates":[4.361384,51.83525],"Attributes":{"name":"Margaretha Roosenboomstraat","highway":"residential"}},{"Shape":296,"Coordinates":[4.361636,51.83525],"Attributes":{"name":"Margaretha Roosenboomstraat","highway":"residential"}},{"Shape":299,"Coordinates":[4.361384,51.83525],"Attributes":{"name":"Margaretha Roosenboomstraat","highway":"residential"}},{"Shape":303,"Coordinates":[4.361462,51.83443],"Attributes":{"name":"Margaretha Roosenboomstraat","highway":"residential","maxspeed":"30"}},{"Shape":304,"Coordinates":[4.361216,51.83426],"Attributes":{"name":"Joke Smitlaan","maxspeed":"50","highway":"tertiary"}},{"Shape":308,"Coordinates":[4.362716,51.8344],"Attributes":{"name":"Annie Romein-Verschoorlaan","maxspeed":"50","highway":"tertiary"}},{"Shape":311,"Coordinates":[4.362383,51.8356],"Attributes":{"name":"Sientje Mesdag-van Houtenstraat","highway":"residential","maxspeed":"30"}},{"Shape":311,"Coordinates":[4.362,51.83559],"Attributes":{"name":"Marie van Regteren Altenastraat","highway":"residential","maxspeed":"30"}},{"Shape":311,"Coordinates":[4.362269,51.83624],"Attributes":{"name":"Annie Romein-Verschoorlaan","maxspeed":"50","highway":"tertiary"}},{"Shape":313,"Coordinates":[4.362383,51.8356],"Attributes":{"name":"Sientje Mesdag-van Houtenstraat","highway":"residential","maxspeed":"30"}},{"Shape":313,"Coordinates":[4.362295,51.83504],"Attributes":{"name":"Annie Romein-Verschoorlaan","maxspeed":"50","highway":"tertiary"}},{"Shape":314,"Coordinates":[4.361133,51.83561],"Attributes":{"name":"Marie van Regteren Altenastraat","highway":"residential","maxspeed":"30"}},{"Shape":314,"Coordinates":[4.361462,51.83443],"Attributes":{"name":"Margaretha Roosenboomstraat","highway":"residential","maxspeed":"30"}},{"Shape":314,"Coordinates":[4.36209,51.83628],"Attributes":{"name":"Margaretha Roosenboomstraat","highway":"residential","maxspeed":"30"}},{"Shape":317,"Coordinates":[4.362408,51.83788],"Attributes":{"name":"Ida Wassermanstraat","highway":"residential","maxspeed":"30"}},{"Shape":317,"Coordinates":[4.361285,51.83695],"Attributes":{"name":"Mimi Boesnachstraat","highway":"residential","maxspeed":"30"}},{"Shape":317,"Coordinates":[4.362395,51.83686],"Attributes":{"name":"Mimi Boesnachstraat","highway":"residential","maxspeed":"30"}},{"Shape":319,"Coordinates":[4.361285,51.83695],"Attributes":{"name":"Mimi Boesnachstraat","highway":"residential","maxspeed":"30"}},{"Shape":319,"Coordinates":[4.36209,51.83628],"Attributes":{"name":"Margaretha Roosenboomstraat","highway":"residential","maxspeed":"30"}},{"Shape":320,"Coordinates":[4.362269,51.83624],"Attributes":{"name":"Annie Romein-Verschoorlaan","maxspeed":"50","highway":"tertiary"}},{"Shape":320,"Coordinates":[4.362519,51.83747],"Attributes":{"name":"Annie Romein-Verschoorlaan","maxspeed":"50","highway":"tertiary"}},{"Shape":321,"Coordinates":[4.363842,51.83675],"Attributes":{"name":"Theo Mann-Bouwmeesterstraat","highway":"residential","maxspeed":"30"}},{"Shape":321,"Coordinates":[4.362459,51.83624],"Attributes":{"name":"Lizzy Ansinghstraat","highway":"residential","maxspeed":"30"}},{"Shape":322,"Coordinates":[4.363731,51.83709],"Attributes":{"name":"Magda Janssenstraat","highway":"residential","maxspeed":"30","oneway":"yes"}},{"Shape":323,"Coordinates":[4.363787,51.83738],"Attributes":{"name":"Fie Carelsenstraat","highway":"residential","maxspeed":"30","oneway":"yes"}},{"Shape":324,"Coordinates":[4.362813,51.83805],"Attributes":{"name":"Maria Kleine-Gartmanstraat","highway":"residential","maxspeed":"30"}},{"Shape":324,"Coordinates":[4.363823,51.83765],"Attributes":{"name":"Annie van Eesstraat","highway":"residential","maxspeed":"30","oneway":"yes"}},{"Shape":326,"Coordinates":[4.363896,51.83796],"Attributes":{"name":"Charlotte Köhlerstraat","highway":"residential","maxspeed":"30","oneway":"yes"}},{"Shape":327,"Coordinates":[4.363446,51.83828],"Attributes":{"name":"Fien de la Marstraat","highway":"residential","maxspeed":"30"}},{"Shape":332,"Coordinates":[4.364714,51.83876],"Attributes":{"name":"Maria Kleine-Gartmanstraat","highway":"residential","maxspeed":"30"}},{"Shape":332,"Coordinates":[4.363836,51.83839],"Attributes":{"name":"Fien de la Marstraat","highway":"residential","maxspeed":"30"}},{"Shape":334,"Coordinates":[4.364704,51.83848],"Attributes":{"name":"Esther de Boer-van Rijkstraat","highway":"residential","maxspeed":"30"}},{"Shape":334,"Coordinates":[4.36481,51.83882],"Attributes":{"name":"Maria Kleine-Gartmanstraat","highway":"residential","maxspeed":"30"}},{"Shape":340,"Coordinates":[4.363814,51.83873],"Attributes":{"name":"Maria Kleine-Gartmanstraat","highway":"residential","maxspeed":"30"}},{"Shape":341,"Coordinates":[4.365851,51.83851],"Attributes":{"name":"Vera Bondamstraat","highway":"residential","maxspeed":"30"}},{"Shape":342,"Coordinates":[4.36574,51.83821],"Attributes":{"name":"Else Mauhsstraat","highway":"residential","maxspeed":"30"}},{"Shape":343,"Coordinates":[4.365499,51.83763],"Attributes":{"name":"Josephine van Gasterenstraat","highway":"residential","maxspeed":"30"}},{"Shape":344,"Coordinates":[4.365455,51.83734],"Attributes":{"name":"Ronnie Biermanstraat","highway":"residential","maxspeed":"30"}},{"Shape":345,"Coordinates":[4.363842,51.83675],"Attributes":{"name":"Theo Mann-Bouwmeesterstraat","highway":"residential","maxspeed":"30"}},{"Shape":346,"Coordinates":[4.365823,51.83672],"Attributes":{"name":"Theo Mann-Bouwmeesterstraat","highway":"residential","maxspeed":"30"}},{"Shape":346,"Coordinates":[4.365098,51.83566],"Attributes":{"name":"Suze Robertsonstraat","highway":"residential","maxspeed":"30"}},{"Shape":348,"Coordinates":[4.364371,51.83671],"Attributes":{"name":"Theo Mann-Bouwmeesterstraat","highway":"residential","maxspeed":"30"}},{"Shape":349,"Coordinates":[4.365883,51.83719],"Attributes":{"name":"Corrie Vonkplantsoen","highway":"residential","maxspeed":"30"}},{"Shape":349,"Coordinates":[4.36585,51.83667],"Attributes":{"name":"Theo Mann-Bouwmeesterstraat","highway":"residential","maxspeed":"30"}},{"Shape":353,"Coordinates":[4.36506,51.8367],"Attributes":{"name":"Theo Mann-Bouwmeesterstraat","highway":"residential","maxspeed":"30"}},{"Shape":361,"Coordinates":[4.36671,51.83765],"Attributes":{"name":"Corrie Vonkplantsoen","highway":"residential","maxspeed":"30"}},{"Shape":362,"Coordinates":[4.367727,51.83575],"Attributes":{"name":"Rosa Spierstraat","highway":"residential","maxspeed":"30"}},{"Shape":363,"Coordinates":[4.368241,51.83746],"Attributes":{"name":"Top Naeffstraat","highway":"residential","maxspeed":"30"}},{"Shape":363,"Coordinates":[4.368972,51.8369],"Attributes":{"name":"Theo Mann-Bouwmeesterstraat","highway":"residential","maxspeed":"30"}},{"Shape":365,"Coordinates":[4.367617,51.8368],"Attributes":{"name":"Theo Mann-Bouwmeesterstraat","highway":"residential","maxspeed":"30"}},{"Shape":367,"Coordinates":[4.370326,51.83643],"Attributes":{"name":"Beb Vuykstraat","highway":"residential","maxspeed":"30"}},{"Shape":367,"Coordinates":[4.3704,51.837],"Attributes":{"name":"Theo Mann-Bouwmeesterstraat","highway":"residential","maxspeed":"30"}},{"Shape":368,"Coordinates":[4.369893,51.83816],"Attributes":{"name":"Beb Vuykstraat","highway":"residential","maxspeed":"30"}},{"Shape":368,"Coordinates":[4.369532,51.83755],"Attributes":{"name":"Maria Dermoûtstraat","highway":"residential","maxspeed":"30"}},{"Shape":370,"Coordinates":[4.368901,51.83807],"Attributes":{"name":"Maria Tesselschadestraat","highway":"residential","maxspeed":"30"}},{"Shape":371,"Coordinates":[4.370308,51.83821],"Attributes":{"name":"Maria Tesselschadestraat","highway":"residential","maxspeed":"30"}},{"Shape":371,"Coordinates":[4.3704,51.837],"Attributes":{"name":"Geertruida Bosboom-Toussaintlaan","maxspeed":"50","highway":"tertiary"}},{"Shape":372,"Coordinates":[4.369864,51.83901],"Attributes":{"name":"Geertruida Bosboom-Toussaintlaan","maxspeed":"50","highway":"tertiary"}},{"Shape":372,"Coordinates":[4.369776,51.83852],"Attributes":{"name":"Maria Kleine-Gartmanstraat","highway":"residential","maxspeed":"30"}},{"Shape":374,"Coordinates":[4.37021,51.83849],"Attributes":{"name":"Henriëtte Roland Holststraat","highway":"residential","maxspeed":"30"}},{"Shape":380,"Coordinates":[4.372942,51.83545],"Attributes":{"name":"Lange Groeneweg","highway":"residential","maxspeed":"30"}},{"Shape":384,"Coordinates":[4.370436,51.83859],"Attributes":{"name":"Henriëtte Roland Holststraat","highway":"residential","maxspeed":"30"}},{"Shape":391,"Coordinates":[4.37021,51.83849],"Attributes":{"name":"Henriëtte Roland Holststraat","highway":"residential","maxspeed":"30"}},{"Shape":393,"Coordinates":[4.369864,51.83901],"Attributes":{"name":"Geertruida Bosboom-Toussaintlaan","maxspeed":"50","highway":"tertiary"}},{"Shape":393,"Coordinates":[4.369776,51.83852],"Attributes":{"name":"Maria Kleine-Gartmanstraat","highway":"residential","maxspeed":"30"}},{"Shape":394,"Coordinates":[4.369893,51.83816],"Attributes":{"name":"Maria Tesselschadestraat","highway":"residential","maxspeed":"30"}},{"Shape":394,"Coordinates":[4.370308,51.83821],"Attributes":{"name":"Maria Tesselschadestraat","highway":"residential","maxspeed":"30"}},{"Shape":394,"Coordinates":[4.3704,51.837],"Attributes":{"name":"Geertruida Bosboom-Toussaintlaan","maxspeed":"50","highway":"tertiary"}},{"Shape":396,"Coordinates":[4.370177,51.83698],"Attributes":{"name":"Theo Mann-Bouwmeesterstraat","highway":"residential","maxspeed":"30"}},{"Shape":396,"Coordinates":[4.370606,51.8362],"Attributes":{"name":"Geertruida Bosboom-Toussaintlaan","maxspeed":"50","highway":"tertiary"}},{"Shape":397,"Coordinates":[4.370763,51.83647],"Attributes":{"name":"Else van der Banstraat","highway":"residential","maxspeed":"30"}},{"Shape":397,"Coordinates":[4.370445,51.83764],"Attributes":{"name":"Else van der Banstraat","highway":"residential","maxspeed":"30"}},{"Shape":397,"Coordinates":[4.372372,51.83723],"Attributes":{"name":"Theo Mann-Bouwmeesterstraat","highway":"residential","maxspeed":"30"}}]}